;FLAVOR:Marlin
;TIME:739
;Filament used: 0.983867m
;Layer height: 0.4
;MINX:83.948
;MINY:95.7
;MINZ:0.2
;MAXX:136.048
;MAXY:127.3
;MAXZ:3
;TARGET_MACHINE.NAME:Creality Ender-5
;Generated with Cura_SteamEngine 5.10.0
M140 S55
M105
M190 S55
M104 S205
M105
M109 S205
M201 X500.00 Y500.00 Z100.00 E5000.00 ;Setup machine max acceleration
M203 X500.00 Y500.00 Z10.00 E50.00 ;Setup machine max feedrate
M204 P500.00 R1000.00 T500.00 ;Setup Print/Retract/Travel acceleration
M205 X8.00 Y8.00 Z0.40 E5.00 ;Setup Jerk
M220 S100 ;Reset Feedrate
M221 S100 ;Reset Flowrate

G28 ;Home

G92 E0 ;Reset Extruder
G1 Z2.0 F3000 ;Move Z Axis up
G1 X10.1 Y20 Z0.28 F5000.0 ;Move to start position
G1 X10.1 Y200.0 Z0.28 F1500.0 E15 ;Draw the first line
G1 X10.4 Y200.0 Z0.28 F5000.0 ;Move to side a little
G1 X10.4 Y20 Z0.28 F1500.0 E30 ;Draw the second line
G92 E0 ;Reset Extruder
G1 Z2.0 F3000 ;Move Z Axis up

M82 ;absolute extrusion mode
G92 E0
G92 E0
G1 F2700 E-5
;LAYER_COUNT:8
;LAYER:0
M107
;MESH:small_drawer_divider.obj
G0 F6000 X110 Y126.1 Z0.2
;TYPE:WALL-INNER
G1 F2700 E0
G1 F900 X134.848 Y126.1 E0.82645
G1 X134.848 Y117.328 E1.11821
G1 X133.922 Y116.402 E1.16176
G1 X133.756 Y116.143 E1.17199
G1 X133.661 Y115.911 E1.18033
G1 X133.603 Y115.595 E1.19102
G1 X133.6 Y96.9 E1.81282
G1 X86.4 Y96.9 E3.38269
G1 X86.397 Y115.595 E4.00449
G1 X86.298 Y116.027 E4.01923
G1 X86.175 Y116.263 E4.02808
G1 X85.989 Y116.492 E4.0379
G1 X85.148 Y117.33 E4.07738
G1 X85.148 Y126.1 E4.36908
G1 X110 Y126.1 E5.19566
G0 F6000 X110 Y126.5
G1 F900 X135.248 Y126.5 E6.03541
G1 X135.248 Y117.163 E6.34596
G1 X134.232 Y116.148 E6.39373
G1 X134.043 Y115.794 E6.40707
G1 X134.002 Y115.568 E6.41471
G1 X134 Y96.5 E7.04892
G1 X86 Y96.5 E8.6454
G1 X85.998 Y115.609 E9.28097
G1 X85.889 Y115.96 E9.29319
G1 X85.768 Y116.147 E9.3006
G1 X84.748 Y117.164 E9.34851
G1 X84.748 Y126.5 E9.65903
G1 X110 Y126.5 E10.49891
G0 F6000 X110 Y126.9
G1 F900 X135.648 Y126.9 E11.35197
G1 X135.648 Y116.997 E11.68134
G1 X134.575 Y115.925 E11.73179
G1 X134.443 Y115.725 E11.73976
G1 X134.401 Y115.541 E11.74604
G1 X134.4 Y96.1 E12.39265
G1 X85.6 Y96.1 E14.01574
G1 X85.599 Y115.541 E14.66235
G1 X85.484 Y115.865 E14.67379
G1 X84.348 Y116.998 E14.72715
G1 X84.348 Y126.9 E15.05649
G1 X110 Y126.9 E15.90968
G0 F6000 X110 Y127.3
;TYPE:WALL-OUTER
G1 F900 X136.048 Y127.3 E16.77604
G1 X136.048 Y116.831 E17.12424
G1 X134.842 Y115.624 E17.18099
G1 X134.801 Y115.528 E17.18446
G1 X134.8 Y95.7 E17.84395
G1 X85.2 Y95.7 E19.49365
G1 X85.199 Y115.528 E20.15313
G1 X85.158 Y115.624 E20.1566
G1 X83.948 Y116.832 E20.21347
G1 X83.948 Y127.3 E20.56164
G1 X110 Y127.3 E21.42813
G0 F6000 X110 Y126.99
G0 X110 Y126
G0 X110 Y125.74
;TYPE:SKIN
G1 F900 X85.508 Y125.74 E22.24274
G1 X85.508 Y117.476 E22.5176
G1 X86.255 Y116.732 E22.55267
G1 X86.463 Y116.48 E22.56353
G1 X86.623 Y116.17 E22.57514
G1 X86.753 Y115.768 E22.58919
G1 X86.76 Y97.26 E23.20477
G1 X133.24 Y97.26 E24.7507
G1 X133.241 Y115.693 E25.36378
G1 X133.308 Y115.996 E25.3741
G1 X133.427 Y116.286 E25.38453
G1 X133.639 Y116.624 E25.3978
G1 X134.488 Y117.476 E25.4378
G1 X134.488 Y125.74 E25.71267
G1 X110 Y125.74 E26.52714
G0 F6000 X110 Y126
G0 X85.32 Y125.928
G0 X85.248 Y125.306
G0 X85.708 Y125.306
G1 F900 X85.942 Y125.54 E26.53815
G0 F6000 X86.507 Y125.54
G1 F900 X85.708 Y124.74 E26.57575
G0 F6000 X85.708 Y124.174
G1 F900 X87.073 Y125.54 E26.63998
G0 F6000 X87.639 Y125.54
G1 F900 X85.708 Y123.609 E26.73081
G0 F6000 X85.708 Y123.043
G1 F900 X88.204 Y125.54 E26.84824
G0 F6000 X88.77 Y125.54
G1 F900 X85.708 Y122.477 E26.99229
G0 F6000 X85.708 Y121.912
G1 F900 X89.336 Y125.54 E27.16294
G0 F6000 X89.902 Y125.54
G1 F900 X85.708 Y121.346 E27.36021
G0 F6000 X85.708 Y120.78
G1 F900 X90.467 Y125.54 E27.58408
G0 F6000 X91.033 Y125.54
G1 F900 X85.708 Y120.215 E27.83456
G0 F6000 X85.708 Y119.649
G1 F900 X91.599 Y125.54 E28.11165
G0 F6000 X92.164 Y125.54
G1 F900 X85.708 Y119.083 E28.41534
G0 F6000 X85.708 Y118.517
G1 F900 X92.73 Y125.54 E28.74566
G0 F6000 X93.296 Y125.54
G1 F900 X85.708 Y117.952 E29.10258
G0 F6000 X85.795 Y117.473
G1 F900 X93.861 Y125.54 E29.482
G0 F6000 X94.427 Y125.54
G1 F900 X86.078 Y117.191 E29.87471
G0 F6000 X86.362 Y116.909
G1 F900 X94.993 Y125.54 E30.28069
G0 F6000 X95.558 Y125.54
G1 F900 X86.618 Y116.6 E30.7012
G0 F6000 X86.812 Y116.228
G1 F900 X96.124 Y125.54 E31.13921
G0 F6000 X96.69 Y125.54
G1 F900 X86.953 Y115.803 E31.5972
G0 F6000 X86.955 Y115.239
G1 F900 X97.255 Y125.54 E32.08171
G0 F6000 X97.821 Y125.54
G1 F900 X86.955 Y114.674 E32.59281
G0 F6000 X86.955 Y114.108
G1 F900 X98.387 Y125.54 E33.13054
G0 F6000 X98.953 Y125.54
G1 F900 X86.955 Y113.542 E33.69489
G0 F6000 X86.956 Y112.977
G1 F900 X99.518 Y125.54 E34.28579
G0 F6000 X100.084 Y125.54
G1 F900 X86.956 Y112.412 E34.90329
G0 F6000 X86.956 Y111.846
G1 F900 X100.65 Y125.54 E35.54741
G0 F6000 X101.215 Y125.54
G1 F900 X86.956 Y111.28 E36.21814
G0 F6000 X86.956 Y110.715
G1 F900 X101.781 Y125.54 E36.91546
G0 F6000 X102.347 Y125.54
G1 F900 X86.956 Y110.15 E37.63938
G0 F6000 X86.956 Y109.584
G1 F900 X102.912 Y125.54 E38.3899
G0 F6000 X103.478 Y125.54
G1 F900 X86.956 Y109.018 E39.16705
G0 F6000 X86.956 Y108.453
G1 F900 X104.044 Y125.54 E39.97079
G0 F6000 X104.609 Y125.54
G1 F900 X86.957 Y107.888 E40.80109
G0 F6000 X86.957 Y107.322
G1 F900 X105.175 Y125.54 E41.65801
G0 F6000 X105.741 Y125.54
G1 F900 X86.957 Y106.756 E42.54155
G0 F6000 X86.957 Y106.19
G1 F900 X106.306 Y125.54 E43.45169
G0 F6000 X106.872 Y125.54
G1 F900 X86.957 Y105.625 E44.38843
G0 F6000 X86.958 Y105.06
G1 F900 X107.438 Y125.54 E45.35175
G0 F6000 X108.003 Y125.54
G1 F900 X86.958 Y104.494 E46.34166
G0 F6000 X86.958 Y103.928
G1 F900 X108.569 Y125.54 E47.3582
G0 F6000 X109.135 Y125.54
G1 F900 X86.958 Y103.363 E48.40134
G0 F6000 X86.958 Y102.797
G1 F900 X109.701 Y125.54 E49.4711
G0 F6000 X110.266 Y125.54
G1 F900 X86.959 Y102.232 E50.56741
G0 F6000 X86.959 Y101.666
G1 F900 X110.832 Y125.54 E51.69035
G0 F6000 X111.398 Y125.54
G1 F900 X86.959 Y101.101 E52.83988
G0 F6000 X86.959 Y100.535
G1 F900 X111.963 Y125.54 E54.01602
G0 F6000 X112.529 Y125.54
G1 F900 X86.959 Y99.97 E55.21875
G0 F6000 X86.959 Y99.404
G1 F900 X113.095 Y125.54 E56.44811
G0 F6000 X113.66 Y125.54
G1 F900 X86.959 Y98.839 E57.70404
G0 F6000 X86.959 Y98.273
G1 F900 X114.226 Y125.54 E58.9866
G0 F6000 X114.792 Y125.54
G1 F900 X86.959 Y97.707 E60.29578
G0 F6000 X87.278 Y97.461
G1 F900 X115.357 Y125.54 E61.61653
G0 F6000 X115.923 Y125.54
G1 F900 X87.844 Y97.461 E62.93728
G0 F6000 X88.41 Y97.461
G1 F900 X116.489 Y125.54 E64.25803
G0 F6000 X117.054 Y125.54
G1 F900 X88.975 Y97.461 E65.57878
G0 F6000 X89.541 Y97.461
G1 F900 X117.62 Y125.54 E66.89953
G0 F6000 X118.186 Y125.54
G1 F900 X90.107 Y97.461 E68.22028
G0 F6000 X90.672 Y97.461
G1 F900 X118.752 Y125.54 E69.54105
G0 F6000 X119.317 Y125.54
G1 F900 X91.238 Y97.461 E70.8618
G0 F6000 X91.804 Y97.461
G1 F900 X119.883 Y125.54 E72.18255
G0 F6000 X120.449 Y125.54
G1 F900 X92.369 Y97.461 E73.50333
G0 F6000 X92.935 Y97.461
G1 F900 X121.014 Y125.54 E74.82408
G0 F6000 X121.58 Y125.54
G1 F900 X93.501 Y97.461 E76.14483
G0 F6000 X94.066 Y97.461
G1 F900 X122.146 Y125.54 E77.4656
G0 F6000 X122.711 Y125.54
G1 F900 X94.632 Y97.461 E78.78635
G0 F6000 X95.198 Y97.461
G1 F900 X123.277 Y125.54 E80.1071
G0 F6000 X123.843 Y125.54
G1 F900 X95.763 Y97.461 E81.42787
G0 F6000 X96.329 Y97.461
G1 F900 X124.408 Y125.54 E82.74862
G0 F6000 X124.974 Y125.54
G1 F900 X96.895 Y97.461 E84.06937
G0 F6000 X97.461 Y97.461
G1 F900 X125.54 Y125.54 E85.39012
G0 F6000 X126.105 Y125.54
G1 F900 X98.026 Y97.461 E86.71087
G0 F6000 X98.592 Y97.461
G1 F900 X126.671 Y125.54 E88.03162
G0 F6000 X127.237 Y125.54
G1 F900 X99.158 Y97.461 E89.35237
G0 F6000 X99.723 Y97.461
G1 F900 X127.802 Y125.54 E90.67312
G0 F6000 X128.368 Y125.54
G1 F900 X100.289 Y97.461 E91.99387
G0 F6000 X100.855 Y97.461
G1 F900 X128.934 Y125.54 E93.31462
G0 F6000 X129.5 Y125.54
G1 F900 X101.42 Y97.461 E94.6354
G0 F6000 X101.986 Y97.461
G1 F900 X130.065 Y125.54 E95.95615
G0 F6000 X130.631 Y125.54
G1 F900 X102.552 Y97.461 E97.2769
G0 F6000 X103.117 Y97.461
G1 F900 X131.197 Y125.54 E98.59767
G0 F6000 X131.762 Y125.54
G1 F900 X103.683 Y97.461 E99.91842
G0 F6000 X104.249 Y97.461
G1 F900 X132.328 Y125.54 E101.23917
G0 F6000 X132.894 Y125.54
G1 F900 X104.814 Y97.461 E102.55995
G0 F6000 X105.38 Y97.461
G1 F900 X133.459 Y125.54 E103.8807
G0 F6000 X134.025 Y125.54
G1 F900 X105.946 Y97.461 E105.20145
G0 F6000 X106.511 Y97.461
G1 F900 X134.288 Y125.237 E106.50797
G0 F6000 X134.288 Y124.671
G1 F900 X107.077 Y97.461 E107.78787
G0 F6000 X107.643 Y97.461
G1 F900 X134.288 Y124.106 E109.04116
G0 F6000 X134.288 Y123.54
G1 F900 X108.209 Y97.461 E110.26784
G0 F6000 X108.774 Y97.461
G1 F900 X134.288 Y122.974 E111.46792
G0 F6000 X134.288 Y122.409
G1 F900 X109.34 Y97.461 E112.6414
G0 F6000 X109.906 Y97.461
G1 F900 X134.288 Y121.843 E113.78825
G0 F6000 X134.288 Y121.277
G1 F900 X110.471 Y97.461 E114.9085
G0 F6000 X111.037 Y97.461
G1 F900 X134.288 Y120.712 E116.00216
G0 F6000 X134.288 Y120.146
G1 F900 X111.603 Y97.461 E117.06919
G0 F6000 X112.168 Y97.461
G1 F900 X134.288 Y119.58 E118.10963
G0 F6000 X134.288 Y119.015
G1 F900 X112.734 Y97.461 E119.12346
G0 F6000 X113.3 Y97.461
G1 F900 X134.288 Y118.449 E120.11067
G0 F6000 X134.288 Y117.883
G1 F900 X113.865 Y97.461 E121.07128
G0 F6000 X114.431 Y97.461
G1 F900 X133.177 Y116.207 E121.95304
G0 F6000 X133.044 Y115.507
G1 F900 X114.997 Y97.461 E122.80189
G0 F6000 X115.562 Y97.461
G1 F900 X133.044 Y114.942 E123.62417
G0 F6000 X133.044 Y114.376
G1 F900 X116.128 Y97.461 E124.41982
G0 F6000 X116.694 Y97.461
G1 F900 X133.044 Y113.81 E125.18885
G0 F6000 X133.044 Y113.245
G1 F900 X117.26 Y97.461 E125.93128
G0 F6000 X117.825 Y97.461
G1 F900 X133.044 Y112.679 E126.64711
G0 F6000 X133.044 Y112.113
G1 F900 X118.391 Y97.461 E127.33632
G0 F6000 X118.957 Y97.461
G1 F900 X133.043 Y111.547 E127.99888
G0 F6000 X133.043 Y110.981
G1 F900 X119.522 Y97.461 E128.63485
G0 F6000 X120.088 Y97.461
G1 F900 X133.043 Y110.415 E129.24419
G0 F6000 X133.043 Y109.85
M104 S240
G1 F900 X120.654 Y97.461 E129.82693
G0 F6000 X121.219 Y97.461
G1 F900 X133.043 Y109.284 E130.38307
G0 F6000 X133.043 Y108.718
G1 F900 X121.785 Y97.461 E130.91259
G0 F6000 X122.351 Y97.461
G1 F900 X133.042 Y108.152 E131.41546
G0 F6000 X133.042 Y107.586
G1 F900 X122.916 Y97.461 E131.89173
G0 F6000 X123.482 Y97.461
G1 F900 X133.042 Y107.021 E132.3414
G0 F6000 X133.042 Y106.455
G1 F900 X124.048 Y97.461 E132.76445
G0 F6000 X124.613 Y97.461
G1 F900 X133.042 Y105.889 E133.16091
G0 F6000 X133.042 Y105.324
G1 F900 X125.179 Y97.461 E133.53076
G0 F6000 X125.745 Y97.461
G1 F900 X133.041 Y104.757 E133.87394
G0 F6000 X133.041 Y104.191
G1 F900 X126.31 Y97.461 E134.19052
G0 F6000 X126.876 Y97.461
G1 F900 X133.041 Y103.626 E134.4805
G0 F6000 X133.041 Y103.06
G1 F900 X127.442 Y97.461 E134.74386
G0 F6000 X128.008 Y97.461
G1 F900 X133.041 Y102.494 E134.9806
G0 F6000 X133.041 Y101.929
G1 F900 X128.573 Y97.461 E135.19076
G0 F6000 X129.139 Y97.461
G1 F900 X133.041 Y101.363 E135.3743
G0 F6000 X133.041 Y100.797
G1 F900 X129.705 Y97.461 E135.53121
G0 F6000 X130.27 Y97.461
G1 F900 X133.041 Y100.231 E135.66153
G0 F6000 X133.041 Y99.665
G1 F900 X130.836 Y97.461 E135.76522
G0 F6000 X131.402 Y97.461
G1 F900 X133.041 Y99.1 E135.84232
G0 F6000 X133.041 Y98.534
G1 F900 X131.967 Y97.461 E135.89281
G0 F6000 X132.533 Y97.461
G1 F900 X133.041 Y97.968 E135.91668
G0 F6000 X133.79 Y97.968
G1 F2700 E130.91668
;MESH:NONMESH
G0 F300 X133.79 Y97.968 Z0.6
G0 F6000 X133.802 Y116.51
G0 X134.684 Y117.396
G0 X134.676 Y125.928
G0 X110 Y126.1
;TIME_ELAPSED:287.684323
;LAYER:1
M140 S50
M106 S42.5
;TYPE:WALL-INNER
;MESH:small_drawer_divider.obj
G1 F2700 E135.91668
G1 F1650 X134.848 Y126.1 E137.56958
G1 X134.848 Y117.328 E138.15309
G1 X133.922 Y116.402 E138.24021
G1 X133.756 Y116.143 E138.26067
G1 X133.661 Y115.911 E138.27735
G1 X133.603 Y115.595 E138.29872
G1 X133.6 Y96.9 E139.54231
G1 X86.4 Y96.9 E142.68207
G1 X86.397 Y115.595 E143.92567
G1 X86.298 Y116.027 E143.95515
G1 X86.175 Y116.263 E143.97285
G1 X85.989 Y116.492 E143.99248
G1 X85.148 Y117.33 E144.07145
G1 X85.148 Y126.1 E144.65483
G1 X110 Y126.1 E146.308
G0 F9000 X110 Y126.5
G1 F1650 X135.248 Y126.5 E147.9875
G1 X135.248 Y117.163 E148.6086
G1 X134.232 Y116.148 E148.70413
G1 X134.043 Y115.794 E148.73083
G1 X134.002 Y115.568 E148.7461
G1 X134 Y96.5 E150.01451
G1 X86 Y96.5 E153.20749
G1 X85.998 Y115.609 E154.47862
G1 X85.889 Y115.96 E154.50307
G1 X85.768 Y116.147 E154.51789
G1 X84.748 Y117.164 E154.6137
G1 X84.748 Y126.5 E155.23473
G1 X110 Y126.5 E156.9145
G0 F9000 X110 Y126.9
G1 F1650 X135.648 Y126.9 E158.62062
G1 X135.648 Y116.997 E159.27937
G1 X134.575 Y115.925 E159.38026
G1 X134.443 Y115.725 E159.3962
G1 X134.401 Y115.541 E159.40876
G1 X134.4 Y96.1 E160.70198
G1 X85.6 Y96.1 E163.94817
G1 X85.599 Y115.541 E165.24139
G1 X85.484 Y115.865 E165.26426
G1 X84.348 Y116.998 E165.37098
G1 X84.348 Y126.9 E166.02967
G1 X110 Y126.9 E167.73604
G0 F9000 X110 Y127.3
;TYPE:WALL-OUTER
G1 F1650 X136.048 Y127.3 E169.46876
G1 X136.048 Y116.831 E170.16517
G1 X134.842 Y115.624 E170.27867
G1 X134.801 Y115.528 E170.28561
G1 X134.8 Y95.7 E171.60457
G1 X85.2 Y95.7 E174.90398
G1 X85.199 Y115.528 E176.22294
G1 X85.158 Y115.624 E176.22989
G1 X83.948 Y116.832 E176.34362
G1 X83.948 Y127.3 E177.03996
G1 X110 Y127.3 E178.77294
G0 F9000 X110 Y126.99
G0 X110 Y126
G0 X110 Y125.74
;TYPE:SKIN
G1 F1650 X85.508 Y125.74 E180.40216
G1 X85.508 Y117.476 E180.95188
G1 X86.255 Y116.732 E181.02201
G1 X86.463 Y116.48 E181.04375
G1 X86.623 Y116.17 E181.06695
G1 X86.753 Y115.768 E181.09506
G1 X86.76 Y97.26 E182.32622
G1 X133.24 Y97.26 E185.41808
G1 X133.241 Y115.693 E186.64425
G1 X133.308 Y115.996 E186.66489
G1 X133.427 Y116.286 E186.68574
G1 X133.639 Y116.624 E186.71228
G1 X134.488 Y117.476 E186.79229
G1 X134.488 Y125.74 E187.34201
G1 X110 Y125.74 E188.97096
G0 F9000 X110 Y126
G0 X134.11 Y126
G0 X134.11 Y125.54
G1 F1650 X134.288 Y125.362 E188.98771
G0 F9000 X134.288 Y124.796
G1 F1650 X133.544 Y125.54 E189.0577
G0 F9000 X132.979 Y125.54
G1 F1650 X134.288 Y124.23 E189.18089
G0 F9000 X134.288 Y123.664
G1 F1650 X132.413 Y125.54 E189.35732
G0 F9000 X131.847 Y125.54
G1 F1650 X134.288 Y123.099 E189.58696
G0 F9000 X134.288 Y122.533
G1 F1650 X131.281 Y125.54 E189.86984
G0 F9000 X130.716 Y125.54
G1 F1650 X134.288 Y121.967 E190.20592
G0 F9000 X134.288 Y121.402
G1 F1650 X130.15 Y125.54 E190.5952
G0 F9000 X129.584 Y125.54
G1 F1650 X134.288 Y120.836 E191.03772
G0 F9000 X134.288 Y120.27
G1 F1650 X129.019 Y125.54 E191.53344
G0 F9000 X128.453 Y125.54
G1 F1650 X134.288 Y119.705 E192.08236
G0 F9000 X134.288 Y119.139
G1 F1650 X127.887 Y125.54 E192.68453
G0 F9000 X127.322 Y125.54
G1 F1650 X134.288 Y118.573 E193.33989
G0 F9000 X134.288 Y118.008
G1 F1650 X126.756 Y125.54 E194.04846
G0 F9000 X126.19 Y125.54
G1 F1650 X134.229 Y117.501 E194.80472
G0 F9000 X133.946 Y117.219
G1 F1650 X125.625 Y125.54 E195.58751
G0 F9000 X125.059 Y125.54
G1 F1650 X133.662 Y116.936 E196.39687
G0 F9000 X133.405 Y116.628
G1 F1650 X124.493 Y125.54 E197.23526
G0 F9000 X123.928 Y125.54
G1 F1650 X133.201 Y116.266 E198.10765
G0 F9000 X133.068 Y115.834
G1 F1650 X123.362 Y125.54 E199.02073
G0 F9000 X122.796 Y125.54
G1 F1650 X133.042 Y115.294 E199.98461
G0 F9000 X133.042 Y114.728
G1 F1650 X122.23 Y125.54 E201.00174
G0 F9000 X121.665 Y125.54
G1 F1650 X133.042 Y114.162 E202.07207
G0 F9000 X133.042 Y113.597
G1 F1650 X121.099 Y125.54 E203.19559
G0 F9000 X120.533 Y125.54
G1 F1650 X133.042 Y113.031 E204.37236
G0 F9000 X133.042 Y112.465
G1 F1650 X119.968 Y125.54 E205.60233
G0 F9000 X119.402 Y125.54
G1 F1650 X133.042 Y111.9 E206.8855
G0 F9000 X133.042 Y111.334
G1 F1650 X118.836 Y125.54 E208.22191
G0 F9000 X118.271 Y125.54
G1 F1650 X133.041 Y110.769 E209.61143
G0 F9000 X133.041 Y110.203
G1 F1650 X117.705 Y125.54 E211.05419
G0 F9000 X117.139 Y125.54
G1 F1650 X133.041 Y109.638 E212.55015
G0 F9000 X133.041 Y109.072
G1 F1650 X116.574 Y125.54 E214.09932
G0 F9000 X116.008 Y125.54
G1 F1650 X133.041 Y108.506 E215.70172
G0 F9000 X133.041 Y107.941
G1 F1650 X115.442 Y125.54 E217.35733
G0 F9000 X114.877 Y125.54
G1 F1650 X133.041 Y107.375 E219.06613
G0 F9000 X133.041 Y106.809
G1 F1650 X114.311 Y125.54 E220.82818
G0 F9000 X113.745 Y125.54
G1 F1650 X133.041 Y106.244 E222.64343
G0 F9000 X133.041 Y105.679
G1 F1650 X113.18 Y125.54 E224.51183
G0 F9000 X112.614 Y125.54
G1 F1650 X133.041 Y105.113 E226.43348
G0 F9000 X133.041 Y104.547
G1 F1650 X112.048 Y125.54 E228.40837
G0 F9000 X111.482 Y125.54
G1 F1650 X133.041 Y103.981 E230.43651
G0 F9000 X133.041 Y103.416
G1 F1650 X110.917 Y125.54 E232.5178
G0 F9000 X110.351 Y125.54
G1 F1650 X133.041 Y102.85 E234.65234
G0 F9000 X133.041 Y102.284
G1 F1650 X109.785 Y125.54 E236.84012
G0 F9000 X109.22 Y125.54
G1 F1650 X133.04 Y101.719 E239.08101
G0 F9000 X133.04 Y101.154
G1 F1650 X108.654 Y125.54 E241.37509
G0 F9000 X108.088 Y125.54
G1 F1650 X133.04 Y100.588 E243.72242
G0 F9000 X133.04 Y100.022
G1 F1650 X107.523 Y125.54 E246.12295
G0 F9000 X106.957 Y125.54
G1 F1650 X133.04 Y99.457 E248.57668
G0 F9000 X133.04 Y98.891
G1 F1650 X106.391 Y125.54 E251.08366
G0 F9000 X105.826 Y125.54
G1 F1650 X133.04 Y98.325 E253.64383
G0 F9000 X133.04 Y97.76
G1 F1650 X105.26 Y125.54 E256.2572
G0 F9000 X104.694 Y125.54
G1 F1650 X132.774 Y97.46 E258.8988
G0 F9000 X132.208 Y97.46
G1 F1650 X104.129 Y125.54 E261.54034
G0 F9000 X103.563 Y125.54
G1 F1650 X131.643 Y97.46 E264.18194
G0 F9000 X131.077 Y97.46
G1 F1650 X102.997 Y125.54 E266.82353
G0 F9000 X102.431 Y125.54
G1 F1650 X130.511 Y97.46 E269.46513
G0 F9000 X129.946 Y97.46
G1 F1650 X101.866 Y125.54 E272.10672
G0 F9000 X101.3 Y125.54
G1 F1650 X129.38 Y97.46 E274.74832
G0 F9000 X128.814 Y97.46
G1 F1650 X100.734 Y125.54 E277.38991
G0 F9000 X100.169 Y125.54
G1 F1650 X128.249 Y97.46 E280.0315
G0 F9000 X127.683 Y97.46
G1 F1650 X99.603 Y125.54 E282.6731
G0 F9000 X99.037 Y125.54
G1 F1650 X127.117 Y97.46 E285.31469
G0 F9000 X126.552 Y97.46
G1 F1650 X98.472 Y125.54 E287.95629
G0 F9000 X97.906 Y125.54
G1 F1650 X125.986 Y97.46 E290.59788
G0 F9000 X125.42 Y97.46
G1 F1650 X97.34 Y125.54 E293.23947
G0 F9000 X96.775 Y125.54
G1 F1650 X124.855 Y97.46 E295.88107
G0 F9000 X124.289 Y97.46
G1 F1650 X96.209 Y125.54 E298.52266
G0 F9000 X95.643 Y125.54
G1 F1650 X123.723 Y97.46 E301.16426
G0 F9000 X123.157 Y97.46
G1 F1650 X95.078 Y125.54 E303.8058
G0 F9000 X94.512 Y125.54
G1 F1650 X122.592 Y97.46 E306.4474
G0 F9000 X122.026 Y97.46
G1 F1650 X93.946 Y125.54 E309.08899
G0 F9000 X93.381 Y125.54
G1 F1650 X121.46 Y97.46 E311.73054
G0 F9000 X120.895 Y97.46
G1 F1650 X92.815 Y125.54 E314.37213
G0 F9000 X92.249 Y125.54
G1 F1650 X120.329 Y97.46 E317.01373
G0 F9000 X119.763 Y97.46
G1 F1650 X91.683 Y125.54 E319.65532
G0 F9000 X91.118 Y125.54
G1 F1650 X119.198 Y97.46 E322.29692
G0 F9000 X118.632 Y97.46
G1 F1650 X90.552 Y125.54 E324.93851
G0 F9000 X89.986 Y125.54
G1 F1650 X118.066 Y97.46 E327.58011
G0 F9000 X117.501 Y97.46
G1 F1650 X89.421 Y125.54 E330.2217
G0 F9000 X88.855 Y125.54
G1 F1650 X116.935 Y97.46 E332.86329
G0 F9000 X116.369 Y97.46
G1 F1650 X88.289 Y125.54 E335.50489
G0 F9000 X87.724 Y125.54
G1 F1650 X115.804 Y97.46 E338.14648
G0 F9000 X115.238 Y97.46
G1 F1650 X87.158 Y125.54 E340.78808
G0 F9000 X86.592 Y125.54
G1 F1650 X114.672 Y97.46 E343.42967
G0 F9000 X114.107 Y97.46
G1 F1650 X86.027 Y125.54 E346.07127
G0 F9000 X85.708 Y125.292
G1 F1650 X113.541 Y97.46 E348.68958
G0 F9000 X112.975 Y97.46
G1 F1650 X85.708 Y124.727 E351.25469
G0 F9000 X85.708 Y124.161
G1 F1650 X112.409 Y97.46 E353.76655
G0 F9000 X111.844 Y97.46
G1 F1650 X85.708 Y123.595 E356.22522
G0 F9000 X85.708 Y123.03
G1 F1650 X111.278 Y97.46 E358.63069
G0 F9000 X110.712 Y97.46
G1 F1650 X85.708 Y122.464 E360.98291
G0 F9000 X85.708 Y121.898
G1 F1650 X110.147 Y97.46 E363.28194
G0 F9000 X109.581 Y97.46
G1 F1650 X85.708 Y121.332 E365.52772
G0 F9000 X85.708 Y120.767
G1 F1650 X109.015 Y97.46 E367.7203
G0 F9000 X108.45 Y97.46
G1 F1650 X85.708 Y120.201 E369.85968
G0 F9000 X85.708 Y119.635
G1 F1650 X107.884 Y97.46 E371.94581
G0 F9000 X107.318 Y97.46
G1 F1650 X85.708 Y119.07 E373.97875
G0 F9000 X85.708 Y118.504
G1 F1650 X106.753 Y97.46 E375.95849
G0 F9000 X106.187 Y97.46
G1 F1650 X85.708 Y117.938 E377.88498
G0 F9000 X85.248 Y117.938
G0 X85.306 Y117.452
G0 X86.373 Y116.098
G0 X86.774 Y116.307
G1 F1650 X105.621 Y97.46 E379.65799
G0 F9000 X105.056 Y97.46
G1 F1650 X86.956 Y115.56 E381.36072
G0 F9000 X86.956 Y114.994
G1 F1650 X104.49 Y97.46 E383.01022
G0 F9000 X103.924 Y97.46
G1 F1650 X86.956 Y114.428 E384.60646
G0 F9000 X86.956 Y113.863
G1 F1650 X103.359 Y97.46 E386.14956
G0 F9000 X102.793 Y97.46
G1 F1650 X86.956 Y113.297 E387.6394
G0 F9000 X86.956 Y112.73
G1 F1650 X102.227 Y97.46 E389.07596
G0 F9000 X101.661 Y97.46
G1 F1650 X86.956 Y112.165 E390.45931
G0 F9000 X86.956 Y111.599
G1 F1650 X101.096 Y97.46 E391.78947
G0 F9000 X100.53 Y97.46
G1 F1650 X86.956 Y111.033 E393.06638
G0 F9000 X86.957 Y110.467
G1 F1650 X99.964 Y97.46 E394.29
G0 F9000 X99.399 Y97.46
G1 F1650 X86.957 Y109.901 E395.46042
G0 F9000 X86.957 Y109.336
G1 F1650 X98.833 Y97.46 E396.57764
G0 F9000 X98.267 Y97.46
G1 F1650 X86.957 Y108.77 E397.64162
G0 F9000 X86.957 Y108.204
G1 F1650 X97.702 Y97.46 E398.6524
G0 F9000 X97.136 Y97.46
G1 F1650 X86.958 Y107.638 E399.60988
G0 F9000 X86.958 Y107.072
G1 F1650 X96.57 Y97.46 E400.51412
G0 F9000 X96.005 Y97.46
G1 F1650 X86.958 Y106.507 E401.3652
G0 F9000 X86.958 Y105.941
G1 F1650 X95.439 Y97.46 E402.16304
G0 F9000 X94.873 Y97.46
G1 F1650 X86.958 Y105.375 E402.90764
G0 F9000 X86.959 Y104.809
G1 F1650 X94.308 Y97.46 E403.59899
G0 F9000 X93.742 Y97.46
G1 F1650 X86.959 Y104.243 E404.23709
G0 F9000 X86.959 Y103.677
G1 F1650 X93.176 Y97.46 E404.82195
G0 F9000 X92.61 Y97.46
G1 F1650 X86.959 Y103.112 E405.35361
G0 F9000 X86.959 Y102.545
G1 F1650 X92.045 Y97.46 E405.83202
G0 F9000 X91.479 Y97.46
G1 F1650 X86.959 Y101.98 E406.25723
G0 F9000 X86.959 Y101.414
G1 F1650 X90.913 Y97.46 E406.6292
G0 F9000 X90.348 Y97.46
G1 F1650 X86.959 Y100.848 E406.94797
G0 F9000 X86.959 Y100.283
G1 F1650 X89.782 Y97.46 E407.21354
G0 F9000 X89.216 Y97.46
G1 F1650 X86.96 Y99.716 E407.42577
G0 F9000 X86.96 Y99.151
G1 F1650 X88.651 Y97.46 E407.58485
G0 F9000 X88.085 Y97.46
G1 F1650 X86.96 Y98.585 E407.69068
G0 F9000 X86.96 Y98.019
G1 F1650 X87.519 Y97.46 E407.74327
G0 F9000 X87.519 Y96.71
G1 F2700 E402.74327
;MESH:NONMESH
G0 F300 X87.519 Y96.71 Z1
G0 F9000 X86.572 Y97.072
G0 X86.101 Y116.608
G0 X85.312 Y117.398
G0 X85.32 Y125.928
G0 X110 Y126.1
;TIME_ELAPSED:450.849025
;LAYER:2
M106 S85
;TYPE:WALL-INNER
;MESH:small_drawer_divider.obj
G1 F2700 E407.74327
G1 F2400 X134.848 Y126.1 E409.39617
G1 X134.848 Y117.328 E409.97968
G1 X133.922 Y116.402 E410.06679
G1 X133.756 Y116.143 E410.08726
G1 X133.661 Y115.911 E410.10393
G1 X133.603 Y115.595 E410.12531
G1 X133.6 Y96.9 E411.3689
G1 X86.4 Y96.9 E414.50866
G1 X86.397 Y115.595 E415.75226
G1 X86.298 Y116.027 E415.78174
G1 X86.175 Y116.263 E415.79944
G1 X85.989 Y116.492 E415.81907
G1 X85.148 Y117.33 E415.89804
G1 X85.148 Y126.1 E416.48142
G1 X110 Y126.1 E418.13459
G0 F12000 X110 Y126.5
G1 F2400 X135.248 Y126.5 E419.81409
G1 X135.248 Y117.163 E420.43519
G1 X134.232 Y116.148 E420.53072
G1 X134.043 Y115.794 E420.55742
G1 X134.002 Y115.568 E420.57269
G1 X134 Y96.5 E421.8411
G1 X86 Y96.5 E425.03408
G1 X85.998 Y115.609 E426.30521
G1 X85.889 Y115.96 E426.32966
G1 X85.768 Y116.147 E426.34448
G1 X84.748 Y117.164 E426.44029
G1 X84.748 Y126.5 E427.06132
G1 X110 Y126.5 E428.74109
G0 F12000 X110 Y126.9
G1 F2400 X135.648 Y126.9 E430.44721
G1 X135.648 Y116.997 E431.10596
G1 X134.575 Y115.925 E431.20685
G1 X134.443 Y115.725 E431.22279
G1 X134.401 Y115.541 E431.23534
G1 X134.4 Y96.1 E432.52857
G1 X85.6 Y96.1 E435.77475
G1 X85.599 Y115.541 E437.06798
G1 X85.484 Y115.865 E437.09085
G1 X84.348 Y116.998 E437.19757
G1 X84.348 Y126.9 E437.85626
G1 X110 Y126.9 E439.56263
G0 F12000 X110 Y127.3
;TYPE:WALL-OUTER
G1 F2400 X136.048 Y127.3 E441.29535
G1 X136.048 Y116.831 E441.99175
G1 X134.842 Y115.624 E442.10525
G1 X134.801 Y115.528 E442.1122
G1 X134.8 Y95.7 E443.43116
G1 X85.2 Y95.7 E446.73057
G1 X85.199 Y115.528 E448.04953
G1 X85.158 Y115.624 E448.05648
G1 X83.948 Y116.832 E448.17021
G1 X83.948 Y127.3 E448.86655
G1 X110 Y127.3 E450.59953
G0 F12000 X110 Y126.99
G0 X110 Y126
G0 X110 Y125.74
;TYPE:SKIN
G1 F2400 X85.508 Y125.74 E452.22875
G1 X85.508 Y117.476 E452.77847
G1 X86.255 Y116.732 E452.8486
G1 X86.463 Y116.48 E452.87034
G1 X86.623 Y116.17 E452.89354
G1 X86.753 Y115.768 E452.92165
G1 X86.76 Y97.26 E454.15281
G1 X133.24 Y97.26 E457.24467
G1 X133.241 Y115.693 E458.47084
G1 X133.308 Y115.996 E458.49148
G1 X133.427 Y116.286 E458.51233
G1 X133.639 Y116.624 E458.53887
G1 X134.488 Y117.476 E458.61888
G1 X134.488 Y125.74 E459.1686
G1 X110 Y125.74 E460.79755
G0 F12000 X110 Y126
G0 X85.32 Y125.928
G0 X85.248 Y125.306
G0 X85.708 Y125.306
G1 F2400 X85.942 Y125.54 E460.81957
G0 F12000 X86.507 Y125.54
G1 F2400 X85.708 Y124.74 E460.89478
G0 F12000 X85.708 Y124.174
G1 F2400 X87.073 Y125.54 E461.02324
G0 F12000 X87.639 Y125.54
G1 F2400 X85.708 Y123.609 E461.20489
G0 F12000 X85.708 Y123.043
G1 F2400 X88.204 Y125.54 E461.43975
G0 F12000 X88.77 Y125.54
G1 F2400 X85.708 Y122.477 E461.72785
G0 F12000 X85.708 Y121.912
G1 F2400 X89.336 Y125.54 E462.06915
G0 F12000 X89.902 Y125.54
G1 F2400 X85.708 Y121.346 E462.46369
G0 F12000 X85.708 Y120.78
G1 F2400 X90.467 Y125.54 E462.91144
G0 F12000 X91.033 Y125.54
G1 F2400 X85.708 Y120.215 E463.41238
G0 F12000 X85.708 Y119.649
G1 F2400 X91.599 Y125.54 E463.96657
G0 F12000 X92.164 Y125.54
G1 F2400 X85.708 Y119.083 E464.57396
G0 F12000 X85.708 Y118.517
G1 F2400 X92.73 Y125.54 E465.23459
G0 F12000 X93.296 Y125.54
G1 F2400 X85.708 Y117.952 E465.94843
G0 F12000 X85.795 Y117.473
G1 F2400 X93.861 Y125.54 E466.70727
G0 F12000 X94.427 Y125.54
G1 F2400 X86.078 Y117.191 E467.4927
G0 F12000 X86.362 Y116.909
G1 F2400 X94.993 Y125.54 E468.30465
G0 F12000 X95.558 Y125.54
G1 F2400 X86.618 Y116.6 E469.14567
G0 F12000 X86.812 Y116.228
G1 F2400 X96.124 Y125.54 E470.02168
G0 F12000 X96.69 Y125.54
G1 F2400 X86.953 Y115.803 E470.93768
G0 F12000 X86.955 Y115.239
G1 F2400 X97.255 Y125.54 E471.90669
G0 F12000 X97.821 Y125.54
G1 F2400 X86.955 Y114.674 E472.92889
G0 F12000 X86.955 Y114.108
G1 F2400 X98.387 Y125.54 E474.00435
G0 F12000 X98.953 Y125.54
G1 F2400 X86.955 Y113.542 E475.13305
G0 F12000 X86.956 Y112.977
G1 F2400 X99.518 Y125.54 E476.31485
G0 F12000 X100.084 Y125.54
G1 F2400 X86.956 Y112.412 E477.54985
G0 F12000 X86.956 Y111.846
G1 F2400 X100.65 Y125.54 E478.8381
G0 F12000 X101.215 Y125.54
G1 F2400 X86.956 Y111.28 E480.17954
G0 F12000 X86.956 Y110.715
G1 F2400 X101.781 Y125.54 E481.57419
G0 F12000 X102.347 Y125.54
G1 F2400 X86.956 Y110.15 E483.02203
G0 F12000 X86.956 Y109.584
G1 F2400 X102.912 Y125.54 E484.52308
G0 F12000 X103.478 Y125.54
G1 F2400 X86.956 Y109.018 E486.07736
G0 F12000 X86.956 Y108.453
G1 F2400 X104.044 Y125.54 E487.68485
G0 F12000 X104.609 Y125.54
G1 F2400 X86.957 Y107.888 E489.34544
G0 F12000 X86.957 Y107.322
G1 F2400 X105.175 Y125.54 E491.05928
G0 F12000 X105.741 Y125.54
G1 F2400 X86.957 Y106.756 E492.82636
G0 F12000 X86.957 Y106.19
G1 F2400 X106.306 Y125.54 E494.64665
G0 F12000 X106.872 Y125.54
G1 F2400 X86.957 Y105.625 E496.52013
G0 F12000 X86.958 Y105.06
G1 F2400 X107.438 Y125.54 E498.44676
G0 F12000 X108.003 Y125.54
G1 F2400 X86.958 Y104.494 E500.42659
G0 F12000 X86.958 Y103.928
G1 F2400 X108.569 Y125.54 E502.45967
G0 F12000 X109.135 Y125.54
G1 F2400 X86.958 Y103.363 E504.54595
G0 F12000 X86.958 Y102.797
G1 F2400 X109.701 Y125.54 E506.68547
G0 F12000 X110.266 Y125.54
G1 F2400 X86.959 Y102.232 E508.87809
G0 F12000 X86.959 Y101.666
G1 F2400 X110.832 Y125.54 E511.12397
G0 F12000 X111.398 Y125.54
G1 F2400 X86.959 Y101.101 E513.42304
G0 F12000 X86.959 Y100.535
G1 F2400 X111.963 Y125.54 E515.77531
G0 F12000 X112.529 Y125.54
G1 F2400 X86.959 Y99.97 E518.18078
G0 F12000 X86.959 Y99.404
G1 F2400 X113.095 Y125.54 E520.63949
G0 F12000 X113.66 Y125.54
G1 F2400 X86.959 Y98.839 E523.15136
G0 F12000 X86.959 Y98.273
G1 F2400 X114.226 Y125.54 E525.71647
G0 F12000 X114.792 Y125.54
G1 F2400 X86.959 Y97.707 E528.33483
G0 F12000 X87.278 Y97.461
G1 F2400 X115.357 Y125.54 E530.97633
G0 F12000 X115.923 Y125.54
G1 F2400 X87.844 Y97.461 E533.61783
G0 F12000 X88.41 Y97.461
G1 F2400 X116.489 Y125.54 E536.25933
G0 F12000 X117.054 Y125.54
G1 F2400 X88.975 Y97.461 E538.90083
G0 F12000 X89.541 Y97.461
G1 F2400 X117.62 Y125.54 E541.54233
G0 F12000 X118.186 Y125.54
G1 F2400 X90.107 Y97.461 E544.18383
G0 F12000 X90.672 Y97.461
G1 F2400 X118.752 Y125.54 E546.82538
G0 F12000 X119.317 Y125.54
G1 F2400 X91.238 Y97.461 E549.46688
G0 F12000 X91.804 Y97.461
G1 F2400 X119.883 Y125.54 E552.10838
G0 F12000 X120.449 Y125.54
G1 F2400 X92.369 Y97.461 E554.74992
G0 F12000 X92.935 Y97.461
G1 F2400 X121.014 Y125.54 E557.39142
G0 F12000 X121.58 Y125.54
G1 F2400 X93.501 Y97.461 E560.03292
G0 F12000 X94.066 Y97.461
G1 F2400 X122.146 Y125.54 E562.67447
G0 F12000 X122.711 Y125.54
G1 F2400 X94.632 Y97.461 E565.31597
G0 F12000 X95.198 Y97.461
G1 F2400 X123.277 Y125.54 E567.95747
G0 F12000 X123.843 Y125.54
G1 F2400 X95.763 Y97.461 E570.59902
G0 F12000 X96.329 Y97.461
G1 F2400 X124.408 Y125.54 E573.24052
G0 F12000 X124.974 Y125.54
G1 F2400 X96.895 Y97.461 E575.88202
G0 F12000 X97.461 Y97.461
G1 F2400 X125.54 Y125.54 E578.52352
G0 F12000 X126.105 Y125.54
G1 F2400 X98.026 Y97.461 E581.16502
G0 F12000 X98.592 Y97.461
G1 F2400 X126.671 Y125.54 E583.80652
G0 F12000 X127.237 Y125.54
G1 F2400 X99.158 Y97.461 E586.44802
G0 F12000 X99.723 Y97.461
G1 F2400 X127.802 Y125.54 E589.08952
G0 F12000 X128.368 Y125.54
G1 F2400 X100.289 Y97.461 E591.73102
G0 F12000 X100.855 Y97.461
G1 F2400 X128.934 Y125.54 E594.37252
G0 F12000 X129.5 Y125.54
G1 F2400 X101.42 Y97.461 E597.01407
G0 F12000 X101.986 Y97.461
G1 F2400 X130.065 Y125.54 E599.65557
G0 F12000 X130.631 Y125.54
G1 F2400 X102.552 Y97.461 E602.29707
G0 F12000 X103.117 Y97.461
G1 F2400 X131.197 Y125.54 E604.93861
G0 F12000 X131.762 Y125.54
G1 F2400 X103.683 Y97.461 E607.58011
G0 F12000 X104.249 Y97.461
G1 F2400 X132.328 Y125.54 E610.22162
G0 F12000 X132.894 Y125.54
G1 F2400 X104.814 Y97.461 E612.86316
G0 F12000 X105.38 Y97.461
G1 F2400 X133.459 Y125.54 E615.50466
G0 F12000 X134.025 Y125.54
G1 F2400 X105.946 Y97.461 E618.14616
G0 F12000 X106.511 Y97.461
G1 F2400 X134.288 Y125.237 E620.75921
G0 F12000 X134.288 Y124.671
G1 F2400 X107.077 Y97.461 E623.319
G0 F12000 X107.643 Y97.461
G1 F2400 X134.288 Y124.106 E625.8256
G0 F12000 X134.288 Y123.54
G1 F2400 X108.209 Y97.461 E628.27895
G0 F12000 X108.774 Y97.461
G1 F2400 X134.288 Y122.974 E630.67911
G0 F12000 X134.288 Y122.409
G1 F2400 X109.34 Y97.461 E633.02606
G0 F12000 X109.906 Y97.461
G1 F2400 X134.288 Y121.843 E635.31977
G0 F12000 X134.288 Y121.277
G1 F2400 X110.471 Y97.461 E637.56028
G0 F12000 X111.037 Y97.461
G1 F2400 X134.288 Y120.712 E639.74759
G0 F12000 X134.288 Y120.146
G1 F2400 X111.603 Y97.461 E641.88166
G0 F12000 X112.168 Y97.461
G1 F2400 X134.288 Y119.58 E643.96252
G0 F12000 X134.288 Y119.015
G1 F2400 X112.734 Y97.461 E645.99019
G0 F12000 X113.3 Y97.461
G1 F2400 X134.288 Y118.449 E647.96462
G0 F12000 X134.288 Y117.883
G1 F2400 X113.865 Y97.461 E649.88584
G0 F12000 X114.431 Y97.461
G1 F2400 X133.177 Y116.207 E651.64935
G0 F12000 X133.043 Y115.507
G1 F2400 X114.997 Y97.461 E653.347
G0 F12000 X115.562 Y97.461
G1 F2400 X133.043 Y114.941 E654.99146
G0 F12000 X133.043 Y114.375
G1 F2400 X116.128 Y97.461 E656.58268
G0 F12000 X116.694 Y97.461
G1 F2400 X133.043 Y113.81 E658.12069
G0 F12000 X133.043 Y113.244
G1 F2400 X117.26 Y97.461 E659.60546
G0 F12000 X117.825 Y97.461
G1 F2400 X133.043 Y112.678 E661.03703
G0 F12000 X133.043 Y112.112
G1 F2400 X118.391 Y97.461 E662.41535
G0 F12000 X118.957 Y97.461
G1 F2400 X133.043 Y111.547 E663.74047
G0 F12000 X133.042 Y110.98
G1 F2400 X119.522 Y97.461 E665.01231
G0 F12000 X120.088 Y97.461
G1 F2400 X133.042 Y110.415 E666.23094
G0 F12000 X133.042 Y109.849
G1 F2400 X120.654 Y97.461 E667.39633
G0 F12000 X121.219 Y97.461
G1 F2400 X133.042 Y109.283 E668.50851
G0 F12000 X133.042 Y108.718
G1 F2400 X121.785 Y97.461 E669.5675
G0 F12000 X122.351 Y97.461
G1 F2400 X133.042 Y108.152 E670.57325
G0 F12000 X133.042 Y107.586
G1 F2400 X122.916 Y97.461 E671.52579
G0 F12000 X123.482 Y97.461
G1 F2400 X133.042 Y107.021 E672.42514
G0 F12000 X133.041 Y106.454
G1 F2400 X124.048 Y97.461 E673.27114
G0 F12000 X124.613 Y97.461
G1 F2400 X133.041 Y105.889 E674.064
G0 F12000 X133.041 Y105.323
G1 F2400 X125.179 Y97.461 E674.80361
G0 F12000 X125.745 Y97.461
G1 F2400 X133.041 Y104.757 E675.48997
G0 F12000 X133.041 Y104.191
G1 F2400 X126.31 Y97.461 E676.12313
G0 F12000 X126.876 Y97.461
G1 F2400 X133.041 Y103.626 E676.7031
G0 F12000 X133.041 Y103.06
G1 F2400 X127.442 Y97.461 E677.22982
G0 F12000 X128.008 Y97.461
G1 F2400 X133.041 Y102.494 E677.70329
G0 F12000 X133.041 Y101.928
G1 F2400 X128.573 Y97.461 E678.12357
G0 F12000 X129.139 Y97.461
G1 F2400 X133.041 Y101.362 E678.4906
G0 F12000 X133.041 Y100.797
G1 F2400 X129.705 Y97.461 E678.80443
G0 F12000 X130.27 Y97.461
G1 F2400 X133.041 Y100.231 E679.06506
G0 F12000 X133.041 Y99.665
G1 F2400 X130.836 Y97.461 E679.27245
G0 F12000 X131.402 Y97.461
G1 F2400 X133.041 Y99.1 E679.42663
G0 F12000 X133.041 Y98.534
G1 F2400 X131.967 Y97.461 E679.52762
G0 F12000 X132.533 Y97.461
G1 F2400 X133.041 Y97.968 E679.57536
G0 F12000 X133.79 Y97.968
G1 F2700 E674.57536
;MESH:NONMESH
G0 F300 X133.79 Y97.968 Z1.4
G0 F12000 X133.802 Y116.51
G0 X134.684 Y117.396
G0 X134.676 Y125.928
G0 X110 Y126.1
;TIME_ELAPSED:571.314742
;LAYER:3
M106 S127.5
;TYPE:WALL-INNER
;MESH:small_drawer_divider.obj
G1 F2700 E679.57536
G1 F2400 X134.848 Y126.1 E681.22826
G1 X134.848 Y117.328 E681.81178
G1 X133.922 Y116.402 E681.89889
G1 X133.756 Y116.143 E681.91935
G1 X133.661 Y115.911 E681.93603
G1 X133.603 Y115.595 E681.9574
G1 X133.6 Y96.9 E683.201
G1 X86.4 Y96.9 E686.34075
G1 X86.397 Y115.595 E687.58435
G1 X86.298 Y116.027 E687.61383
G1 X86.175 Y116.263 E687.63153
G1 X85.989 Y116.492 E687.65116
G1 X85.148 Y117.33 E687.73013
G1 X85.148 Y126.1 E688.31352
G1 X110 Y126.1 E689.96668
G0 F12000 X110 Y126.5
G1 F2400 X135.248 Y126.5 E691.64618
G1 X135.248 Y117.163 E692.26728
G1 X134.232 Y116.148 E692.36281
G1 X134.043 Y115.794 E692.38951
G1 X134.002 Y115.568 E692.40479
G1 X134 Y96.5 E693.6732
G1 X86 Y96.5 E696.86617
G1 X85.998 Y115.609 E698.1373
G1 X85.889 Y115.96 E698.16175
G1 X85.768 Y116.147 E698.17657
G1 X84.748 Y117.164 E698.27238
G1 X84.748 Y126.5 E698.89342
G1 X110 Y126.5 E700.57319
G0 F12000 X110 Y126.9
G1 F2400 X135.648 Y126.9 E702.2793
G1 X135.648 Y116.997 E702.93805
G1 X134.575 Y115.925 E703.03894
G1 X134.443 Y115.725 E703.05488
G1 X134.401 Y115.541 E703.06744
G1 X134.4 Y96.1 E704.36066
G1 X85.6 Y96.1 E707.60685
G1 X85.599 Y115.541 E708.90007
G1 X85.484 Y115.865 E708.92294
G1 X84.348 Y116.998 E709.02966
G1 X84.348 Y126.9 E709.68835
G1 X110 Y126.9 E711.39473
G0 F12000 X110 Y127.3
;TYPE:WALL-OUTER
G1 F2400 X136.048 Y127.3 E713.12745
G1 X136.048 Y116.831 E713.82385
G1 X134.842 Y115.624 E713.93735
G1 X134.801 Y115.528 E713.94429
G1 X134.8 Y95.7 E715.26326
G1 X85.2 Y95.7 E718.56266
G1 X85.199 Y115.528 E719.88162
G1 X85.158 Y115.624 E719.88857
G1 X83.948 Y116.832 E720.0023
G1 X83.948 Y127.3 E720.69864
G1 X110 Y127.3 E722.43162
G0 F12000 X110 Y126.99
G0 X110 Y126
G0 X110 Y125.74
;TYPE:SKIN
G1 F2400 X85.508 Y125.74 E724.06084
G1 X85.508 Y117.476 E724.61056
G1 X86.255 Y116.732 E724.68069
G1 X86.463 Y116.48 E724.70243
G1 X86.623 Y116.17 E724.72564
G1 X86.753 Y115.768 E724.75374
G1 X86.76 Y97.26 E725.9849
G1 X133.24 Y97.26 E729.07676
G1 X133.241 Y115.693 E730.30293
G1 X133.308 Y115.996 E730.32357
G1 X133.427 Y116.286 E730.34442
G1 X133.639 Y116.624 E730.37096
G1 X134.488 Y117.476 E730.45097
G1 X134.488 Y125.74 E731.0007
G1 X110 Y125.74 E732.62964
G0 F12000 X110 Y126
G0 X134.11 Y126
G0 X134.11 Y125.54
G1 F2400 X134.288 Y125.362 E732.64639
G0 F12000 X134.288 Y124.796
G1 F2400 X133.544 Y125.54 E732.71638
G0 F12000 X132.979 Y125.54
G1 F2400 X134.288 Y124.23 E732.83957
G0 F12000 X134.288 Y123.664
G1 F2400 X132.413 Y125.54 E733.01601
G0 F12000 X131.847 Y125.54
G1 F2400 X134.288 Y123.099 E733.24564
G0 F12000 X134.288 Y122.533
G1 F2400 X131.281 Y125.54 E733.52852
G0 F12000 X130.716 Y125.54
G1 F2400 X134.288 Y121.967 E733.8646
G0 F12000 X134.288 Y121.402
G1 F2400 X130.15 Y125.54 E734.25388
G0 F12000 X129.584 Y125.54
G1 F2400 X134.288 Y120.836 E734.6964
G0 F12000 X134.288 Y120.27
G1 F2400 X129.019 Y125.54 E735.19212
G0 F12000 X128.453 Y125.54
G1 F2400 X134.288 Y119.705 E735.74104
G0 F12000 X134.288 Y119.139
G1 F2400 X127.887 Y125.54 E736.34321
G0 F12000 X127.322 Y125.54
G1 F2400 X134.288 Y118.573 E736.99858
G0 F12000 X134.288 Y118.008
G1 F2400 X126.756 Y125.54 E737.70714
G0 F12000 X126.19 Y125.54
G1 F2400 X134.229 Y117.501 E738.4634
G0 F12000 X133.946 Y117.219
G1 F2400 X125.625 Y125.54 E739.24619
G0 F12000 X125.059 Y125.54
G1 F2400 X133.662 Y116.936 E740.05555
G0 F12000 X133.405 Y116.628
G1 F2400 X124.493 Y125.54 E740.89394
G0 F12000 X123.928 Y125.54
G1 F2400 X133.201 Y116.266 E741.76633
G0 F12000 X133.068 Y115.833
G1 F2400 X123.362 Y125.54 E742.67946
G0 F12000 X122.796 Y125.54
G1 F2400 X133.043 Y115.293 E743.64344
G0 F12000 X133.043 Y114.727
G1 F2400 X122.23 Y125.54 E744.66066
G0 F12000 X121.665 Y125.54
G1 F2400 X133.043 Y114.162 E745.73103
G0 F12000 X133.043 Y113.596
G1 F2400 X121.099 Y125.54 E746.85465
G0 F12000 X120.533 Y125.54
G1 F2400 X133.043 Y113.03 E748.03151
G0 F12000 X133.043 Y112.465
G1 F2400 X119.968 Y125.54 E749.26153
G0 F12000 X119.402 Y125.54
G1 F2400 X133.042 Y111.9 E750.5447
G0 F12000 X133.042 Y111.334
G1 F2400 X118.836 Y125.54 E751.88111
G0 F12000 X118.271 Y125.54
G1 F2400 X133.042 Y110.768 E753.27072
G0 F12000 X133.042 Y110.203
G1 F2400 X117.705 Y125.54 E754.71353
G0 F12000 X117.139 Y125.54
G1 F2400 X133.042 Y109.637 E756.20959
G0 F12000 X133.042 Y109.071
G1 F2400 X116.574 Y125.54 E757.75884
G0 F12000 X116.008 Y125.54
G1 F2400 X133.042 Y108.506 E759.3613
G0 F12000 X133.041 Y107.941
G1 F2400 X115.442 Y125.54 E761.01691
G0 F12000 X114.877 Y125.54
G1 F2400 X133.041 Y107.375 E762.72571
G0 F12000 X133.041 Y106.809
G1 F2400 X114.311 Y125.54 E764.48776
G0 F12000 X113.745 Y125.54
G1 F2400 X133.041 Y106.244 E766.30301
G0 F12000 X133.041 Y105.678
G1 F2400 X113.18 Y125.54 E768.17146
G0 F12000 X112.614 Y125.54
G1 F2400 X133.041 Y105.112 E770.09315
G0 F12000 X133.041 Y104.547
G1 F2400 X112.048 Y125.54 E772.06804
G0 F12000 X111.482 Y125.54
G1 F2400 X133.041 Y103.981 E774.09618
G0 F12000 X133.041 Y103.416
G1 F2400 X110.917 Y125.54 E776.17747
G0 F12000 X110.351 Y125.54
G1 F2400 X133.041 Y102.85 E778.31201
G0 F12000 X133.041 Y102.284
G1 F2400 X109.785 Y125.54 E780.49979
G0 F12000 X109.22 Y125.54
G1 F2400 X133.041 Y101.719 E782.74072
G0 F12000 X133.041 Y101.153
G1 F2400 X108.654 Y125.54 E785.0349
G0 F12000 X108.088 Y125.54
G1 F2400 X133.04 Y100.588 E787.38224
G0 F12000 X133.04 Y100.022
G1 F2400 X107.523 Y125.54 E789.78277
G0 F12000 X106.957 Y125.54
G1 F2400 X133.04 Y99.457 E792.23649
G0 F12000 X133.04 Y98.891
G1 F2400 X106.391 Y125.54 E794.74347
G0 F12000 X105.826 Y125.54
G1 F2400 X133.04 Y98.325 E797.30364
G0 F12000 X133.04 Y97.76
G1 F2400 X105.26 Y125.54 E799.91701
G0 F12000 X104.694 Y125.54
G1 F2400 X132.774 Y97.46 E802.55861
G0 F12000 X132.208 Y97.46
G1 F2400 X104.129 Y125.54 E805.20016
G0 F12000 X103.563 Y125.54
G1 F2400 X131.643 Y97.46 E807.84175
G0 F12000 X131.077 Y97.46
G1 F2400 X102.997 Y125.54 E810.48334
G0 F12000 X102.431 Y125.54
G1 F2400 X130.511 Y97.46 E813.12494
G0 F12000 X129.946 Y97.46
G1 F2400 X101.866 Y125.54 E815.76653
G0 F12000 X101.3 Y125.54
G1 F2400 X129.38 Y97.46 E818.40813
G0 F12000 X128.814 Y97.46
G1 F2400 X100.734 Y125.54 E821.04972
G0 F12000 X100.169 Y125.54
G1 F2400 X128.249 Y97.46 E823.69131
G0 F12000 X127.683 Y97.46
G1 F2400 X99.603 Y125.54 E826.33291
G0 F12000 X99.037 Y125.54
G1 F2400 X127.117 Y97.46 E828.9745
G0 F12000 X126.552 Y97.46
G1 F2400 X98.472 Y125.54 E831.6161
G0 F12000 X97.906 Y125.54
G1 F2400 X125.986 Y97.46 E834.25769
G0 F12000 X125.42 Y97.46
G1 F2400 X97.34 Y125.54 E836.89929
G0 F12000 X96.775 Y125.54
G1 F2400 X124.855 Y97.46 E839.54088
G0 F12000 X124.289 Y97.46
G1 F2400 X96.209 Y125.54 E842.18247
G0 F12000 X95.643 Y125.54
G1 F2400 X123.723 Y97.46 E844.82407
G0 F12000 X123.157 Y97.46
G1 F2400 X95.078 Y125.54 E847.46562
G0 F12000 X94.512 Y125.54
G1 F2400 X122.592 Y97.46 E850.10721
G0 F12000 X122.026 Y97.46
G1 F2400 X93.946 Y125.54 E852.7488
G0 F12000 X93.381 Y125.54
G1 F2400 X121.46 Y97.46 E855.39035
G0 F12000 X120.895 Y97.46
G1 F2400 X92.815 Y125.54 E858.03195
G0 F12000 X92.249 Y125.54
G1 F2400 X120.329 Y97.46 E860.67354
G0 F12000 X119.763 Y97.46
G1 F2400 X91.683 Y125.54 E863.31513
G0 F12000 X91.118 Y125.54
G1 F2400 X119.198 Y97.46 E865.95673
G0 F12000 X118.632 Y97.46
G1 F2400 X90.552 Y125.54 E868.59832
G0 F12000 X89.986 Y125.54
G1 F2400 X118.066 Y97.46 E871.23992
G0 F12000 X117.501 Y97.46
G1 F2400 X89.421 Y125.54 E873.88151
G0 F12000 X88.855 Y125.54
G1 F2400 X116.935 Y97.46 E876.52311
G0 F12000 X116.369 Y97.46
G1 F2400 X88.289 Y125.54 E879.1647
G0 F12000 X87.724 Y125.54
G1 F2400 X115.804 Y97.46 E881.80629
G0 F12000 X115.238 Y97.46
G1 F2400 X87.158 Y125.54 E884.44789
G0 F12000 X86.592 Y125.54
G1 F2400 X114.672 Y97.46 E887.08948
G0 F12000 X114.107 Y97.46
G1 F2400 X86.027 Y125.54 E889.73108
G0 F12000 X85.708 Y125.292
G1 F2400 X113.541 Y97.46 E892.34939
G0 F12000 X112.975 Y97.46
G1 F2400 X85.708 Y124.727 E894.9145
G0 F12000 X85.708 Y124.161
G1 F2400 X112.409 Y97.46 E897.42637
G0 F12000 X111.844 Y97.46
G1 F2400 X85.708 Y123.595 E899.88503
G0 F12000 X85.708 Y123.03
G1 F2400 X111.278 Y97.46 E902.2905
G0 F12000 X110.712 Y97.46
G1 F2400 X85.708 Y122.464 E904.64273
G0 F12000 X85.708 Y121.898
G1 F2400 X110.147 Y97.46 E906.94175
G0 F12000 X109.581 Y97.46
G1 F2400 X85.708 Y121.332 E909.18753
G0 F12000 X85.708 Y120.767
G1 F2400 X109.015 Y97.46 E911.38011
G0 F12000 X108.45 Y97.46
G1 F2400 X85.708 Y120.201 E913.51949
G0 F12000 X85.708 Y119.635
G1 F2400 X107.884 Y97.46 E915.60562
G0 F12000 X107.318 Y97.46
G1 F2400 X85.708 Y119.07 E917.63856
G0 F12000 X85.708 Y118.504
G1 F2400 X106.753 Y97.46 E919.6183
G0 F12000 X106.187 Y97.46
G1 F2400 X85.708 Y117.938 E921.54479
G0 F12000 X85.248 Y117.938
G0 X85.306 Y117.452
G0 X86.373 Y116.098
G0 X86.774 Y116.307
G1 F2400 X105.621 Y97.46 E923.3178
G0 F12000 X105.056 Y97.46
G1 F2400 X86.956 Y115.56 E925.02054
G0 F12000 X86.956 Y114.994
G1 F2400 X104.49 Y97.46 E926.67003
G0 F12000 X103.924 Y97.46
G1 F2400 X86.956 Y114.428 E928.26627
G0 F12000 X86.956 Y113.863
G1 F2400 X103.359 Y97.46 E929.80937
G0 F12000 X102.793 Y97.46
G1 F2400 X86.956 Y113.297 E931.29921
G0 F12000 X86.956 Y112.73
G1 F2400 X102.227 Y97.46 E932.73577
G0 F12000 X101.661 Y97.46
G1 F2400 X86.956 Y112.165 E934.11913
G0 F12000 X86.956 Y111.599
G1 F2400 X101.096 Y97.46 E935.44928
G0 F12000 X100.53 Y97.46
G1 F2400 X86.956 Y111.033 E936.72619
G0 F12000 X86.957 Y110.467
G1 F2400 X99.964 Y97.46 E937.94981
G0 F12000 X99.399 Y97.46
G1 F2400 X86.957 Y109.901 E939.12023
G0 F12000 X86.957 Y109.336
G1 F2400 X98.833 Y97.46 E940.23745
G0 F12000 X98.267 Y97.46
G1 F2400 X86.957 Y108.77 E941.30143
G0 F12000 X86.957 Y108.204
G1 F2400 X97.702 Y97.46 E942.31221
G0 F12000 X97.136 Y97.46
G1 F2400 X86.958 Y107.638 E943.26969
G0 F12000 X86.958 Y107.072
G1 F2400 X96.57 Y97.46 E944.17393
G0 F12000 X96.005 Y97.46
G1 F2400 X86.958 Y106.507 E945.02501
G0 F12000 X86.958 Y105.941
G1 F2400 X95.439 Y97.46 E945.82286
G0 F12000 X94.873 Y97.46
G1 F2400 X86.958 Y105.375 E946.56745
G0 F12000 X86.959 Y104.809
G1 F2400 X94.308 Y97.46 E947.2588
G0 F12000 X93.742 Y97.46
G1 F2400 X86.959 Y104.243 E947.8969
G0 F12000 X86.959 Y103.677
G1 F2400 X93.176 Y97.46 E948.48176
G0 F12000 X92.61 Y97.46
G1 F2400 X86.959 Y103.112 E949.01342
G0 F12000 X86.959 Y102.545
G1 F2400 X92.045 Y97.46 E949.49183
G0 F12000 X91.479 Y97.46
G1 F2400 X86.959 Y101.98 E949.91704
G0 F12000 X86.959 Y101.414
G1 F2400 X90.913 Y97.46 E950.28901
G0 F12000 X90.348 Y97.46
G1 F2400 X86.959 Y100.848 E950.60778
G0 F12000 X86.959 Y100.283
G1 F2400 X89.782 Y97.46 E950.87335
G0 F12000 X89.216 Y97.46
G1 F2400 X86.96 Y99.716 E951.08558
G0 F12000 X86.96 Y99.151
G1 F2400 X88.651 Y97.46 E951.24466
G0 F12000 X88.085 Y97.46
G1 F2400 X86.96 Y98.585 E951.35049
G0 F12000 X86.96 Y98.019
G1 F2400 X87.519 Y97.46 E951.40308
G0 F12000 X87.519 Y96.71
;MESH:NONMESH
G0 F300 X87.519 Y96.71 Z1.8
G0 F12000 X86.572 Y97.072
G0 X85.998 Y100.498
;TIME_ELAPSED:690.807251
;LAYER:4
;note -- min layer time used
;TYPE:WALL-INNER
;MESH:small_drawer_divider.obj
G1 F882.8 X85.998 Y112.502 E952.19361
G0 F12000 X86.396 Y112.9
G1 F874 X86.396 Y100.1 E953.04507
G1 X85.6 Y100.1 E953.09802
G1 X85.6 Y112.9 E953.94948
G1 X86.396 Y112.9 E954.00243
G0 F12000 X86.796 Y113.3
;TYPE:WALL-OUTER
G1 F874 X86.796 Y99.7 E954.9071
G1 X85.2 Y99.7 E955.01327
G1 X85.2 Y113.3 E955.91794
G1 X86.796 Y113.3 E956.02411
G1 F2700 E951.02411
G0 F12000 X86.519 Y113.02
G0 X86.569 Y112.5
G0 X87.664 Y112.5
G0 X132.336 Y112.5
G0 X133.431 Y112.5
G0 X134 Y112.5
;TYPE:WALL-INNER
G1 F2700 E956.02411
G1 F874 X134 Y100.5 E956.82235
G0 F12000 X133.881 Y112.62
G0 X133.6 Y112.9
G1 F874 X134.4 Y112.9 E956.87557
G1 X134.4 Y100.1 E957.72703
G1 X133.6 Y100.1 E957.78024
G1 X133.6 Y112.9 E958.6317
G0 F12000 X133.2 Y113.3
;TYPE:WALL-OUTER
G1 F874 X134.8 Y113.3 E958.73814
G1 X134.8 Y99.7 E959.64281
G1 X133.2 Y99.7 E959.74924
G1 X133.2 Y113.3 E960.65392
G1 F2700 E955.65392
;MESH:NONMESH
G0 F300 X133.2 Y113.3 Z2.2
G0 F12000 X133.481 Y113.02
G0 X133.431 Y100.47
G0 X132.336 Y100.47
G0 X87.664 Y100.47
G0 X86.569 Y100.47
G0 X85.97 Y100.47
;TIME_ELAPSED:703.235072
;LAYER:5
;note -- min layer time used
;TYPE:WALL-INNER
;MESH:small_drawer_divider.obj
G1 F2700 E960.65392
G1 F1050.4 X85.97 Y112.53 E961.33582
G0 F12000 X86.34 Y112.9
G1 F892.8 X86.34 Y100.1 E962.18728
G1 X85.6 Y100.1 E962.2365
G1 X85.6 Y112.9 E963.08796
G1 X86.34 Y112.9 E963.13719
G0 F12000 X86.74 Y113.3
;TYPE:WALL-OUTER
G1 F892.8 X86.74 Y99.7 E964.04186
G1 X85.2 Y99.7 E964.14431
G1 X85.2 Y113.3 E965.04898
G1 X86.74 Y113.3 E965.15142
G1 F2700 E960.15142
G0 F12000 X86.461 Y113.02
G0 X86.511 Y112.528
G0 X87.606 Y112.528
G0 X132.394 Y112.526
G0 X133.469 Y112.525
G0 X134.028 Y112.528
;TYPE:WALL-INNER
G1 F2700 E965.15142
G1 F1038.2 X134.028 Y100.472 E965.84112
G0 F12000 X133.939 Y112.62
G0 X133.656 Y112.9
G1 F892.8 X134.4 Y112.9 E965.89061
G1 X134.4 Y100.1 E966.74207
G1 X133.656 Y100.1 E966.79156
G1 X133.656 Y112.9 E967.64302
G0 F12000 X133.256 Y113.3
;TYPE:WALL-OUTER
G1 F892.8 X134.8 Y113.3 E967.74572
G1 X134.8 Y99.7 E968.6504
G1 X133.256 Y99.7 E968.75311
G1 X133.256 Y113.3 E969.65778
G1 F2700 E964.65778
;MESH:NONMESH
G0 F300 X133.256 Y113.3 Z2.6
G0 F12000 X133.539 Y113.02
G0 X133.469 Y112.587
G0 X132.394 Y112.588
G0 X87.606 Y112.587
G0 X86.511 Y112.587
G0 X86.111 Y112.59
G0 X86.111 Y112.863
;TIME_ELAPSED:715.197510
;LAYER:6
;note -- min layer time used
;TYPE:WALL-INNER
;MESH:small_drawer_divider.obj
G1 F2700 E969.65778
G1 F606.4 X86.111 Y100.137 E970.66093
G1 X85.637 Y100.137 E970.69829
G1 X85.637 Y112.863 E971.70144
G1 X86.111 Y112.863 E971.7388
G0 F12000 X86.548 Y113.3
;TYPE:WALL-OUTER
G1 F718.5 X86.548 Y99.7 E972.64348
G1 X85.2 Y99.7 E972.73315
G1 X85.2 Y113.3 E973.63782
G1 X86.548 Y113.3 E973.72749
G1 F2700 E968.72749
G0 F12000 X86.268 Y113.02
G0 X86.318 Y112.62
G0 X87.413 Y112.62
G0 X132.587 Y112.618
G0 X133.662 Y112.617
G0 X134.132 Y112.62
G0 X133.889 Y112.863
;TYPE:WALL-INNER
G1 F2700 E973.72749
G1 F606.4 X134.363 Y112.863 E973.76486
G1 F605.1 X134.362 Y100.138 E974.77004
G1 F603.8 X133.886 Y100.138 E974.80772
G1 F605.1 X133.889 Y112.863 E975.8129
G0 F12000 X133.452 Y113.3
;TYPE:WALL-OUTER
G1 F718.5 X134.8 Y113.3 E975.90257
G1 X134.8 Y99.7 E976.80725
G1 X133.448 Y99.7 E976.89718
G1 X133.452 Y113.3 E977.80186
G1 F2700 E972.80186
;MESH:NONMESH
G0 F300 X133.452 Y113.3 Z3
G0 F12000 X133.732 Y113.02
G0 X133.662 Y100.377
G0 X132.587 Y100.378
G0 X87.413 Y100.377
G0 X86.318 Y100.377
G0 X85.88 Y100.38
G0 X85.66 Y100.16
;TIME_ELAPSED:728.085980
;LAYER:7
;note -- min layer time used
;TYPE:WALL-INNER
;MESH:small_drawer_divider.obj
G1 F2700 E977.80186
G1 F461.5 X85.66 Y112.84 E978.89838
G0 F12000 X86.12 Y113.3
;TYPE:WALL-OUTER
G1 F600 X86.12 Y99.7 E979.80305
G1 X85.2 Y99.7 E979.86425
G1 X85.2 Y113.3 E980.76893
G1 X86.12 Y113.3 E980.83013
G1 F2700 E975.83013
G0 F12000 X85.841 Y113.02
G0 X86.986 Y112.838
G0 X133.014 Y112.836
G0 X134.338 Y112.838
;TYPE:WALL-INNER
G1 F2700 E980.83013
G1 F458 X134.338 Y100.162 E981.93473
G1 F2700 E976.93473
G0 F12000 X134.159 Y113.02
G1 F2700 E981.93473
G0 F12000 X133.876 Y113.3
;TYPE:WALL-OUTER
G1 F600 X134.8 Y113.3 E981.9962
G1 X134.8 Y99.7 E982.90087
G1 X133.876 Y99.7 E982.96234
G1 X133.876 Y113.3 E983.86702
;TIME_ELAPSED:739.214075
G1 F2700 E978.86702
M140 S0
M107
G91 ;Relative positioning
G1 E-2 F2700 ;Retract a bit
G1 E-2 Z0.2 F2400 ;Retract and raise Z
G1 X5 Y5 F3000 ;Wipe out
G1 Z10 ;Raise Z more
G90 ;Absolute positioning

G28 X0 Y0 ;Present print
M106 S0 ;Turn-off fan
M104 S0 ;Turn-off hotend
M140 S0 ;Turn-off bed

M84 X Y E ;Disable all steppers but Z

M82 ;absolute extrusion mode
M104 S0
;End of Gcode
;SETTING_3 {"global_quality": "[general]\\nversion = 4\\nname = PLA - brim\\ndef
;SETTING_3 inition = creality_ender5\\n\\n[metadata]\\ntype = quality_changes\\n
;SETTING_3 quality_type = standard\\nsetting_version = 25\\n\\n[values]\\nadhesi
;SETTING_3 on_type = none\\nlayer_height = 0.4\\nmaterial_bed_temperature = 50\\
;SETTING_3 nmaterial_bed_temperature_layer_0 = 55\\n\\n", "extruder_quality": ["
;SETTING_3 [general]\\nversion = 4\\nname = PLA - brim\\ndefinition = creality_e
;SETTING_3 nder5\\n\\n[metadata]\\ntype = quality_changes\\nquality_type = stand
;SETTING_3 ard\\nintent_category = default\\nposition = 0\\nsetting_version = 25
;SETTING_3 \\n\\n[values]\\ninfill_sparse_density = 20\\nmaterial_print_temperat
;SETTING_3 ure_layer_0 = 205\\nraft_margin = 5\\n\\n"]}
