;FLAVOR:Marlin
;TIME:49
;Filament used: 0.0162957m
;Layer height: 0.4
;MINX:106.874
;MINY:108.414
;MINZ:0.2
;MAXX:113.124
;MAXY:111.558
;MAXZ:3
;TARGET_MACHINE.NAME:Creality Ender-5
;Generated with Cura_SteamEngine 5.13.0
M140 S65
M105
M190 S65
M104 S205
M105
M109 S205
M201 X500.00 Y500.00 Z100.00 E5000.00 ;Setup machine max acceleration
M203 X500.00 Y500.00 Z10.00 E50.00 ;Setup machine max feedrate
M204 P500.00 R1000.00 T500.00 ;Setup Print/Retract/Travel acceleration
M205 X8.00 Y8.00 Z0.40 E5.00 ;Setup Jerk
M220 S100 ;Reset Feedrate
M221 S100 ;Reset Flowrate

G28 ;Home

G92 E0 ;Reset Extruder
G1 Z2.0 F3000 ;Move Z Axis up
G1 X10.1 Y20 Z0.28 F5000.0 ;Move to start position
G1 X10.1 Y200.0 Z0.28 F1500.0 E15 ;Draw the first line
G1 X10.4 Y200.0 Z0.28 F5000.0 ;Move to side a little
G1 X10.4 Y20 Z0.28 F1500.0 E30 ;Draw the second line
G92 E0 ;Reset Extruder
G1 Z2.0 F3000 ;Move Z Axis up

M82 ;absolute extrusion mode
G92 E0
G92 E0
G1 F2700 E-5
;LAYER_COUNT:8
;LAYER:0
;note -- min layer time used
M107
;MESH:mast_mount.stl
G0 F6000 X108.664 Y108.839 Z0.2
;TYPE:WALL-INNER
G1 F2700 E0
G1 F648.6 X108.382 Y108.827 E0.00868
G1 F678 X108.105 Y108.872 E0.01694
G1 F681.8 X107.886 Y108.964 E0.0239
G1 X107.653 Y109.118 E0.03207
G1 F685.7 X107.358 Y109.506 E0.04626
G1 X107.239 Y109.91 E0.05851
G1 F670.4 X107.283 Y110.239 E0.06839
G1 F672.3 X107.359 Y110.49 E0.07618
G1 F678 X107.494 Y110.702 E0.08358
G1 F676.1 X107.662 Y110.891 E0.09104
G1 F679.9 X107.865 Y111.026 E0.0982
G1 X108.103 Y111.123 E0.10574
G1 F681.8 X108.376 Y111.167 E0.11383
G1 F655.7 X108.668 Y111.155 E0.12273
G0 F6000 X109.794 Y110.838
G0 X110 Y111.084
G1 F458 X110.171 Y111.084 E0.13018
G1 F444.4 X109.958 Y110.79 E0.14648
G1 F430.1 X109.726 Y110.236 E0.17435
G1 F442.8 X109.447 Y110.718 E0.19945
G1 F458 X109.234 Y110.954 E0.2133
G1 X109.039 Y111.083 E0.22349
G1 X110 Y111.084 E0.26536
G0 F6000 X109.723 Y110.174
G1 F380.3 X109.722 Y109.862 E0.28173
G1 F409.6 X109.804 Y109.584 E0.29585
G1 F447.8 X109.836 Y109.523 E0.29892
G1 F458 X109.932 Y109.271 E0.31067
G1 F459.8 X110.159 Y108.909 E0.32922
G1 F463.3 X109.034 Y108.903 E0.37767
G1 X109.237 Y109.046 E0.38837
G1 F459.8 X109.502 Y109.348 E0.40581
G1 F438.8 X109.67 Y109.674 E0.42249
G1 F400.7 X109.722 Y109.862 E0.4322
G1 F2700 E-4.5678
G0 F6000 X109.716 Y109.285
G0 X110.818 Y108.702
G0 X111.871 Y108.662
G0 X112.731 Y108.905
G1 F2700 E0.4322
G1 F466.9 X112.699 Y108.85 E0.43492
G1 X112.635 Y108.85 E0.43766
G1 X112.603 Y108.905 E0.44038
G1 X112.635 Y108.96 E0.4431
G1 X112.699 Y108.96 E0.44583
G1 X112.731 Y108.905 E0.44855
G1 F2700 E-4.55145
G0 F6000 X112.863 Y109.89
G0 X112.731 Y111.091
G1 F2700 E0.44855
G1 F466.9 X112.699 Y111.036 E0.45127
G1 X112.635 Y111.036 E0.45401
G1 X112.603 Y111.091 E0.45673
G1 X112.635 Y111.146 E0.45945
G1 X112.699 Y111.146 E0.46218
G1 X112.731 Y111.091 E0.4649
G0 F6000 X111.955 Y111.328
G0 X111.577 Y111.18
;TYPE:WALL-OUTER
G1 F628.3 X111.257 Y111.178 E0.47506
G1 F615.4 X110.975 Y111.108 E0.48449
G1 F603 X110.724 Y110.972 E0.49393
G1 F600 X110.506 Y110.772 E0.50377
G1 X110.352 Y110.535 E0.51318
G1 X110.257 Y110.267 E0.52263
G1 X110.225 Y109.973 E0.53247
G1 X110.262 Y109.705 E0.54147
G1 X110.356 Y109.453 E0.55041
G1 X110.54 Y109.185 E0.56122
G1 X110.762 Y108.999 E0.57086
G1 F603 X110.975 Y108.888 E0.57881
G1 F615.4 X111.271 Y108.816 E0.58869
G1 F626.6 X111.592 Y108.818 E0.59891
G1 F615.4 X111.873 Y108.888 E0.6083
G1 F603 X112.125 Y109.026 E0.61781
G1 F600 X112.323 Y109.204 E0.62666
G1 F594.1 X112.499 Y109.46 E0.6371
G1 F547.9 X112.624 Y109.725 E0.64777
G1 F522.9 X112.649 Y110 E0.65831
G1 F521.7 X112.624 Y110.281 E0.6691
G1 F545.5 X112.5 Y110.536 E0.67947
G1 F591.1 X112.323 Y110.792 E0.68998
G1 F600 X112.086 Y110.997 E0.7004
G1 F603 X111.873 Y111.107 E0.70834
G1 F615.4 X111.577 Y111.18 E0.71822
G1 F2700 E-4.28178
G0 F6000 X111.955 Y111.328
G0 X110.973 Y111.337
G0 X110 Y111.545
G1 F2700 E0.71822
G1 F600 X110.626 Y111.545 E0.73904
G1 F618.6 X111.304 Y111.558 E0.76092
G1 F620.2 X111.982 Y111.548 E0.78274
G1 F603 X113.124 Y111.548 E0.82053
G1 F591.1 X113.119 Y110.648 E0.85092
G1 F545.5 X113.09 Y110.321 E0.86293
G1 F521.7 X113.099 Y110 E0.87521
G1 F522.9 X113.09 Y109.695 E0.88686
G1 F547.9 X113.12 Y109.348 E0.89954
G1 F594.1 X113.124 Y108.448 E0.92978
G1 F600 X112.222 Y108.449 E0.95978
G1 F617 X111.544 Y108.437 E0.98171
G1 X110.626 Y108.449 E1.01141
G1 F600 X108.35 Y108.448 E1.08711
G1 X108 Y108.51 E1.09893
G1 X107.707 Y108.63 E1.10946
G1 X107.41 Y108.83 E1.12137
G1 X107.185 Y109.066 E1.13221
G1 X107.015 Y109.351 E1.14325
G1 X106.909 Y109.679 E1.15472
G1 X106.874 Y109.993 E1.16522
G1 X106.908 Y110.321 E1.17619
G1 X107.019 Y110.647 E1.18765
G1 X107.189 Y110.931 E1.19865
G1 X107.416 Y111.176 E1.20976
G1 X107.687 Y111.362 E1.2207
G1 X108.002 Y111.486 E1.23196
G1 X108.345 Y111.544 E1.24353
G1 X110 Y111.545 E1.29857
G1 F2700 E-3.70143
G0 F6000 X109.794 Y110.892
G0 X108.168 Y111.079
G0 X108.29 Y110.79
G1 F2700 E1.29857
G1 F600 X107.94 Y110.643 E1.3112
G1 X107.701 Y110.353 E1.3237
G1 X107.624 Y109.997 E1.33581
G1 X107.702 Y109.64 E1.34796
G1 X107.959 Y109.346 E1.36095
G1 X108.29 Y109.199 E1.373
G1 X108.633 Y109.228 E1.38445
G1 X108.867 Y109.325 E1.39287
G1 X109.119 Y109.604 E1.40538
G1 X109.209 Y109.855 E1.41425
G1 X109.204 Y110.193 E1.42549
G1 X109.018 Y110.542 E1.43864
G1 X108.686 Y110.765 E1.45194
G1 X108.29 Y110.79 E1.46514
M104 S240
G1 F2700 E-3.53486
;MESH:NONMESH
G0 F300 Z0.6
G0 F6000 X108.168 Y111.079
G0 X108.77 Y111.005
G0 X109.204 Y110.722
G0 X109.43 Y110.307
G0 X109.543 Y109.099
G0 X108.677 Y108.841
;TIME_ELAPSED:11.748095
;LAYER:1
;note -- min layer time used
M140 S55
M106 S42.5
;TYPE:WALL-INNER
;MESH:mast_mount.stl
G1 F2700 E1.46514
G1 F643.4 X108.374 Y108.827 E1.48396
G1 F679.9 X108.126 Y108.867 E1.4987
G1 F681.8 X107.86 Y108.974 E1.51549
G1 F679.9 X107.663 Y109.108 E1.52947
G1 F676.1 X107.485 Y109.307 E1.54524
G1 F679.9 X107.351 Y109.527 E1.56036
G1 F693.6 X107.242 Y109.902 E1.58283
G1 F678 X107.282 Y110.233 E1.60246
G1 F676.1 X107.351 Y110.472 E1.61714
G1 F678 X107.485 Y110.69 E1.63221
G1 F674.2 X107.658 Y110.885 E1.64764
G1 F679.9 X108.087 Y111.117 E1.67627
G1 F678 X108.377 Y111.167 E1.69359
G1 F643.4 X108.722 Y111.151 E1.71502
G0 F9000 X109.584 Y110.887
G0 X110 Y111.084
G1 F458 X110.171 Y111.084 E1.72992
G1 F444.4 X109.958 Y110.79 E1.76252
G1 F430.1 X109.726 Y110.236 E1.81826
G1 F442.8 X109.447 Y110.718 E1.86845
G1 F458 X109.227 Y110.959 E1.89689
G1 F480 X108.97 Y111.097 E1.92115
G1 F553 X108.722 Y111.151 E1.93946
G1 X108.973 Y111.107 E1.95786
G1 F480 X109.264 Y111.082 E1.98214
G1 F458 X110 Y111.084 E2.04628
G0 F9000 X109.723 Y110.174
G1 F380.3 X109.722 Y109.862 E2.07902
G0 F9000 X109.712 Y109.826
G1 F438 X109.931 Y109.273 E2.13322
G1 F458.9 X110.159 Y108.909 E2.17058
G1 X109.264 Y108.909 E2.24842
G1 F475.2 X108.969 Y108.891 E2.27324
G1 F547.9 X108.677 Y108.841 E2.29482
G1 X108.969 Y108.891 E2.3164
G1 F475.2 X109.227 Y109.036 E2.34126
G1 F458.9 X109.45 Y109.278 E2.36988
G1 F438 X109.67 Y109.674 E2.41116
G1 F418.1 X109.712 Y109.826 E2.42622
G1 F2700 E-2.57378
G0 F9000 X109.647 Y109.325
G0 X110.6 Y108.806
G0 X110.91 Y108.641
G0 X111.871 Y108.662
G0 X112.731 Y108.905
G1 F2700 E2.42622
G1 F466.9 X112.699 Y108.85 E2.43165
G1 X112.635 Y108.85 E2.43712
G1 X112.603 Y108.905 E2.44256
G1 X112.635 Y108.96 E2.448
G1 X112.699 Y108.96 E2.45347
G1 X112.731 Y108.905 E2.45891
G1 F2700 E-2.54109
G0 F9000 X112.863 Y109.89
G0 X112.731 Y111.091
G1 F2700 E2.45891
G1 F466.9 X112.699 Y111.036 E2.46435
G1 X112.635 Y111.036 E2.46982
G1 X112.603 Y111.091 E2.47526
G1 X112.635 Y111.146 E2.4807
G1 X112.699 Y111.146 E2.48617
G1 X112.731 Y111.091 E2.49161
G0 F9000 X111.955 Y111.328
G0 X111.577 Y111.18
;TYPE:WALL-OUTER
G1 F628.3 X111.257 Y111.178 E2.51194
G1 F615.4 X110.975 Y111.108 E2.53078
G1 F603 X110.724 Y110.972 E2.54968
G1 F600 X110.506 Y110.772 E2.56936
G1 X110.352 Y110.535 E2.58816
G1 X110.257 Y110.267 E2.60707
G1 X110.225 Y109.973 E2.62675
G1 X110.268 Y109.684 E2.64618
G1 X110.355 Y109.453 E2.6626
G1 X110.54 Y109.185 E2.68427
G1 X110.762 Y108.999 E2.70353
G1 F603 X110.975 Y108.888 E2.71943
G1 F615.4 X111.271 Y108.816 E2.73919
G1 F626.6 X111.592 Y108.818 E2.75963
G1 F615.4 X111.873 Y108.888 E2.77841
G1 F603 X112.125 Y109.026 E2.79743
G1 F600 X112.323 Y109.204 E2.81514
G1 F594.1 X112.499 Y109.46 E2.83601
G1 F547.9 X112.624 Y109.725 E2.85736
G1 F522.9 X112.649 Y110 E2.87843
G1 F521.7 X112.624 Y110.281 E2.90001
G1 F545.5 X112.5 Y110.536 E2.92076
G1 F591.1 X112.323 Y110.792 E2.94178
G1 F600 X112.086 Y110.997 E2.96262
G1 F603 X111.873 Y111.107 E2.97849
G1 F615.4 X111.577 Y111.18 E2.99826
G1 F2700 E-2.00174
G0 F9000 X111.955 Y111.328
G0 X110.973 Y111.337
G0 X110 Y111.545
G1 F2700 E2.99826
G1 F600 X110.626 Y111.545 E3.0399
G1 F618.6 X111.304 Y111.558 E3.08366
G1 F620.2 X111.982 Y111.548 E3.1273
G1 F603 X113.124 Y111.548 E3.20288
G1 F591.1 X113.119 Y110.648 E3.26365
G1 F545.5 X113.09 Y110.321 E3.28767
G1 F521.7 X113.099 Y110 E3.31224
G1 F522.9 X113.09 Y109.695 E3.33553
G1 F547.9 X113.12 Y109.348 E3.3609
G1 F594.1 X113.124 Y108.448 E3.42137
G1 F600 X112.222 Y108.449 E3.48137
G1 F617 X111.544 Y108.437 E3.52524
G1 X110.626 Y108.449 E3.58463
G1 F600 X108.339 Y108.448 E3.73676
G1 X107.993 Y108.514 E3.76019
G1 X107.677 Y108.641 E3.78284
G1 X107.409 Y108.831 E3.8047
G1 X107.178 Y109.08 E3.82729
G1 X107.008 Y109.375 E3.84994
G1 X106.905 Y109.69 E3.87199
G1 X106.877 Y109.974 E3.89097
G1 X106.906 Y110.308 E3.91327
G1 X107.008 Y110.625 E3.93542
G1 X107.178 Y110.916 E3.95784
G1 X107.409 Y111.168 E3.98058
G1 X107.681 Y111.359 E4.00269
G1 X107.984 Y111.482 E4.02444
G1 X108.345 Y111.544 E4.04881
G1 X110 Y111.545 E4.1589
G1 F2700 E-0.8411
G0 F9000 X109.794 Y110.892
G0 X108.333 Y111.103
G0 X108.308 Y110.796
G1 F2700 E4.1589
G1 F600 X107.95 Y110.651 E4.18459
G1 X107.704 Y110.357 E4.21009
G1 X107.619 Y109.997 E4.2347
G1 X107.703 Y109.64 E4.25909
G1 X107.952 Y109.343 E4.28488
G1 X108.307 Y109.2 E4.31033
G1 X108.69 Y109.238 E4.33594
G1 X109.023 Y109.454 E4.36234
G1 X109.21 Y109.817 E4.3895
G1 X109.204 Y110.193 E4.41452
G1 X109.017 Y110.544 E4.44097
G1 X108.691 Y110.757 E4.46688
G1 X108.308 Y110.796 E4.49249
G1 F2700 E-0.50751
;MESH:NONMESH
G0 F300 Z1
G0 F9000 X108.333 Y111.103
G0 X108.774 Y111.003
G0 X109.206 Y110.72
G0 X109.408 Y110.347
G0 X109.647 Y109.325
G0 X109.712 Y109.828
;TIME_ELAPSED:19.431721
;LAYER:2
;note -- min layer time used
M106 S85
;TYPE:WALL-INNER
;MESH:mast_mount.stl
G1 F2700 E4.49249
G1 F422.5 X109.956 Y109.208 E4.55542
G1 F447.8 X110.172 Y108.91 E4.58823
G1 F458 X109.037 Y108.911 E4.68713
G1 X109.299 Y109.093 E4.71493
G1 X109.451 Y109.282 E4.73607
G1 F438 X109.67 Y109.674 E4.77699
G1 F413.8 X109.712 Y109.828 E4.79239
G0 F12000 X109.722 Y109.866
G1 F380.3 X109.723 Y110.174 E4.82471
G0 F12000 X110 Y111.087
G1 F463.3 X110.177 Y111.087 E4.83995
G1 F452.8 X109.962 Y110.789 E4.87234
G1 F438 X109.722 Y110.23 E4.92778
G1 F447.8 X109.502 Y110.648 E4.96989
G1 F462.4 X109.245 Y110.943 E5.00366
G1 X109.029 Y111.085 E5.02597
G1 F463.3 X110 Y111.087 E5.10961
G1 F2700 E0.10961
G0 F12000 X109.794 Y110.838
G0 X110.611 Y111.178
G0 X111.875 Y111.337
G0 X112.731 Y111.091
G1 F2700 E5.10961
G1 F466.9 X112.699 Y111.036 E5.11505
G1 X112.635 Y111.036 E5.12052
G1 X112.603 Y111.091 E5.12596
G1 X112.635 Y111.146 E5.1314
G1 X112.699 Y111.146 E5.13687
G1 X112.731 Y111.091 E5.14231
G1 F2700 E0.14231
G0 F12000 X112.863 Y110.108
G0 X112.731 Y108.905
G1 F2700 E5.14231
G1 F466.9 X112.699 Y108.85 E5.14775
G1 X112.635 Y108.85 E5.15322
G1 X112.603 Y108.905 E5.15866
G1 X112.635 Y108.96 E5.1641
G1 X112.699 Y108.96 E5.16957
G1 X112.731 Y108.905 E5.17501
G1 F2700 E0.17501
G0 F12000 X112.878 Y109.999
G0 X112.835 Y110.347
G0 X112.712 Y110.673
G0 X112.513 Y110.962
G0 X111.955 Y111.328
G0 X111.577 Y111.18
;TYPE:WALL-OUTER
G1 F2700 E5.17501
G1 F628.3 X111.257 Y111.178 E5.19534
G1 F615.4 X110.975 Y111.108 E5.21418
G1 F603 X110.724 Y110.972 E5.23308
G1 F600 X110.506 Y110.772 E5.25276
G1 X110.352 Y110.535 E5.27156
G1 X110.257 Y110.267 E5.29047
G1 X110.225 Y109.974 E5.31008
G1 X110.268 Y109.686 E5.32945
G1 X110.355 Y109.454 E5.34593
G1 X110.54 Y109.185 E5.36765
G1 X110.762 Y108.999 E5.38691
G1 F603 X110.975 Y108.888 E5.40281
G1 F615.4 X111.271 Y108.816 E5.42257
G1 F626.6 X111.592 Y108.818 E5.44301
G1 F615.4 X111.873 Y108.888 E5.4618
G1 F603 X112.125 Y109.026 E5.48081
G1 F600 X112.323 Y109.204 E5.49852
G1 F594.1 X112.499 Y109.46 E5.5194
G1 F547.9 X112.624 Y109.725 E5.54074
G1 F522.9 X112.649 Y110 E5.56182
G1 F521.7 X112.624 Y110.281 E5.5834
G1 F545.5 X112.5 Y110.536 E5.60414
G1 F591.1 X112.323 Y110.792 E5.62516
G1 F600 X112.086 Y110.997 E5.646
G1 F603 X111.873 Y111.107 E5.66187
G1 F615.4 X111.577 Y111.18 E5.68164
G1 F2700 E0.68164
G0 F12000 X111.955 Y111.328
G0 X110.973 Y111.337
G0 X110 Y111.544
G1 F2700 E5.68164
G1 F600 X110.626 Y111.545 E5.72328
G1 F618.6 X111.304 Y111.558 E5.76704
G1 F620.2 X111.982 Y111.548 E5.81068
G1 F603 X113.124 Y111.548 E5.88627
G1 F591.1 X113.119 Y110.648 E5.94703
G1 F545.5 X113.09 Y110.321 E5.97106
G1 F521.7 X113.099 Y110 E5.99562
G1 F522.9 X113.09 Y109.695 E6.01891
G1 F547.9 X113.12 Y109.348 E6.04428
G1 F594.1 X113.124 Y108.448 E6.10475
G1 F600 X112.222 Y108.449 E6.16475
G1 F617 X111.544 Y108.437 E6.20862
G1 X110.626 Y108.449 E6.26801
G1 F600 X108.973 Y108.448 E6.37797
G1 F490.8 X108.347 Y108.537 E6.42939
G1 F415.2 X107.998 Y108.603 E6.46353
G1 F413.8 X107.737 Y108.709 E6.4907
G1 F415.2 X107.447 Y108.915 E6.52489
G1 F413.8 X107.258 Y109.118 E6.55164
G1 X107.093 Y109.388 E6.58216
G1 X106.999 Y109.686 E6.6123
G1 F415.2 X106.961 Y109.997 E6.64242
G1 X106.998 Y110.313 E6.673
G1 X107.094 Y110.607 E6.70273
G1 F415.9 X107.262 Y110.88 E6.73349
G1 F414.5 X107.451 Y111.086 E6.76041
G1 F415.2 X107.737 Y111.288 E6.79406
G1 F413.8 X108 Y111.395 E6.82145
G1 F415.2 X108.345 Y111.457 E6.85514
G1 X108.576 Y111.455 E6.87735
G1 F487.8 X108.963 Y111.543 E6.90982
G1 F597 X110 Y111.544 E6.97915
G1 F2700 E1.97915
G0 F12000 X109.794 Y110.892
G0 X108.6 Y111.096
G0 X108.526 Y110.882
G1 F2700 E6.97915
G1 F416.7 X108.246 Y110.872 E7.00599
G1 F418.1 X107.896 Y110.722 E7.04234
G1 F417.4 X107.627 Y110.41 E7.08173
G1 F416.7 X107.527 Y109.997 E7.12243
G1 X107.624 Y109.616 E7.16009
G1 X107.892 Y109.273 E7.20179
G1 F418.1 X108.254 Y109.126 E7.23908
G1 X108.476 Y109.112 E7.26032
G1 F451.1 X108.558 Y109.171 E7.26925
G1 F540.5 X108.887 Y109.348 E7.29684
G1 F600 X109.044 Y109.501 E7.31142
G1 X109.21 Y109.819 E7.33528
G1 X109.205 Y110.153 E7.3575
G1 X109.119 Y110.395 E7.37459
G1 X108.905 Y110.635 E7.39598
G1 F489.8 X108.526 Y110.882 E7.43284
G1 F2700 E2.43284
;MESH:NONMESH
G0 F300 Z1.4
G0 F12000 X108.6 Y111.096
G0 X109.01 Y110.887
G0 X109.344 Y110.524
G0 X109.581 Y109.095
G0 X108.69 Y108.844
;TIME_ELAPSED:27.302690
;LAYER:3
;note -- min layer time used
M106 S127.5
;TYPE:WALL-INNER
;MESH:mast_mount.stl
G1 F2700 E7.43284
G1 F641.7 X108.375 Y108.827 E7.45246
G1 F678 X108.146 Y108.86 E7.46608
G1 F681.8 X107.841 Y108.986 E7.4854
G1 F678 X107.636 Y109.137 E7.50039
G1 F674.2 X107.468 Y109.33 E7.51554
G1 F679.9 X107.339 Y109.557 E7.53086
G1 F674.2 X107.259 Y109.863 E7.54959
G1 F679.9 X107.272 Y110.211 E7.57003
G1 F683.8 X107.343 Y110.439 E7.58397
G1 F678 X107.466 Y110.673 E7.59953
G1 F683.8 X107.637 Y110.864 E7.6145
G1 F678 X107.842 Y111.011 E7.62935
G1 F670.4 X108.107 Y111.125 E7.64652
G1 F668.5 X108.367 Y111.165 E7.66223
G1 X108.58 Y111.167 E7.67495
G1 F659.3 X109.708 Y111.161 E7.74323
G1 F652.2 X109.549 Y110.906 E7.76162
G1 X109.429 Y110.592 E7.78219
G1 X109.271 Y110.828 E7.79957
G1 X108.948 Y111.052 E7.82363
G1 F659.3 X108.58 Y111.167 E7.84697
G1 F2700 E2.84697
G0 F12000 X109.227 Y110.687
G0 X109.432 Y110.301
G0 X109.43 Y109.405
G1 F2700 E7.84697
G1 F648.6 X109.548 Y109.089 E7.86772
G1 X109.708 Y108.834 E7.88625
G1 F645.2 X108.979 Y108.835 E7.93134
G1 F625 X108.69 Y108.844 E7.94981
G1 X108.947 Y108.945 E7.96744
G1 F645.2 X109.256 Y109.156 E7.99059
G1 F648.6 X109.43 Y109.405 E8.00928
G1 F2700 E3.00928
G0 F12000 X109.455 Y110.258
G0 X109.227 Y110.687
G0 X108.451 Y111.107
G0 X108.497 Y110.799
;TYPE:WALL-OUTER
G1 F2700 E8.00928
G1 F600 X108.115 Y110.736 E8.03504
G1 X107.81 Y110.526 E8.05967
G1 X107.639 Y110.18 E8.08534
G1 X107.647 Y109.801 E8.11056
G1 X107.716 Y109.627 E8.12301
G1 X107.958 Y109.35 E8.14748
G1 X108.317 Y109.2 E8.17336
G1 X108.696 Y109.242 E8.19872
G1 X109.007 Y109.451 E8.22365
G1 F576.9 X109.24 Y109.824 E8.25408
G1 F533.3 X109.238 Y110.158 E8.27907
G1 F531 X109.025 Y110.535 E8.31162
G1 F575.5 X108.822 Y110.69 E8.32933
G1 F600 X108.497 Y110.799 E8.35213
G1 F2700 E3.35213
G0 F12000 X108.451 Y111.107
G0 X109.951 Y111.292
G0 X110 Y111.546
G1 F2700 E8.35213
G1 F600 X110.737 Y111.547 E8.40116
G1 X110.412 Y111.364 E8.42597
G1 X110.122 Y111.088 E8.4526
G1 X109.903 Y110.758 E8.47895
G1 F581.1 X109.753 Y110.38 E8.50688
G1 F555.6 X109.693 Y109.934 E8.53921
G1 F559.4 X109.76 Y109.614 E8.56253
G1 F585.4 X109.903 Y109.238 E8.58996
G1 F600 X110.153 Y108.871 E8.6195
G1 X110.455 Y108.604 E8.64631
G1 X110.74 Y108.448 E8.66793
G1 X108.345 Y108.449 E8.82724
G1 X107.998 Y108.506 E8.85064
G1 X107.653 Y108.659 E8.87574
G1 X107.38 Y108.857 E8.89817
G1 X107.157 Y109.112 E8.92071
G1 X106.991 Y109.413 E8.94357
G1 X106.875 Y109.822 E8.97185
G1 X106.903 Y110.274 E9.00198
G1 X106.991 Y110.583 E9.02335
G1 X107.157 Y110.888 E9.04645
G1 X107.381 Y111.143 E9.06903
G1 X107.653 Y111.341 E9.09141
G1 X108.001 Y111.493 E9.11667
G1 X108.339 Y111.544 E9.13941
G1 X110 Y111.546 E9.2499
G1 F2700 E4.2499
G0 F12000 X109.951 Y111.292
G0 X110.938 Y110.672
G0 X112.053 Y110.544
G0 X112.207 Y111.523
G1 F2700 E9.2499
G1 F533.3 X113.099 Y111.523 E9.31665
G1 F535.7 X113.101 Y110.394 E9.40076
G1 X112.968 Y110.764 E9.43006
G1 F533.3 X112.704 Y111.151 E9.46511
G1 X112.395 Y111.423 E9.49592
G1 X112.207 Y111.523 E9.51186
G0 F12000 X112.868 Y111.304
G0 X113.101 Y110.394
G1 F567.4 X113.124 Y109.996 E9.5399
G1 F570.1 X113.103 Y109.619 E9.56634
G0 F12000 X113.103 Y109.599
G1 F535.7 X113.099 Y108.473 E9.65023
G1 F533.3 X112.203 Y108.473 E9.71728
G1 X112.443 Y108.609 E9.73792
G1 X112.743 Y108.89 E9.76868
G1 X112.966 Y109.23 E9.79911
G1 F535.7 X113.103 Y109.599 E9.82844
G1 F2700 E4.82844
;MESH:NONMESH
G0 F300 Z1.8
G0 F12000 X112.232 Y109.8
G0 X110.797 Y109.456
G0 X108.685 Y108.841
;TIME_ELAPSED:33.908349
;LAYER:4
;note -- min layer time used
;TYPE:WALL-INNER
;MESH:mast_mount.stl
G1 F2700 E9.82844
G1 F645.2 X108.381 Y108.827 E9.84726
G1 F670.4 X108.059 Y108.892 E9.86682
G1 F674.2 X107.842 Y108.984 E9.88078
G1 F678 X107.626 Y109.149 E9.89678
G1 F674.2 X107.46 Y109.34 E9.91176
G1 F679.9 X107.345 Y109.547 E9.92566
G1 F676.1 X107.26 Y109.865 E9.94509
G1 F668.5 X107.274 Y110.188 E9.96439
G1 F679.9 X107.337 Y110.433 E9.97924
G1 F681.8 X107.461 Y110.661 E9.99444
G1 F674.2 X107.624 Y110.85 E10.00921
G1 F681.8 X107.828 Y111.006 E10.02425
G1 F679.9 X108.059 Y111.104 E10.03898
G1 F676.1 X108.379 Y111.167 E10.05823
G1 F652.2 X108.685 Y111.153 E10.07698
G0 F12000 X109.704 Y111.162
G1 F652.2 X109.542 Y110.9 E10.09583
G1 X109.43 Y110.585 E10.11629
G1 X109.255 Y110.839 E10.13517
G1 F648.6 X108.959 Y111.047 E10.15743
G1 F641.7 X108.712 Y111.153 E10.17414
G1 F645.2 X109.704 Y111.162 E10.23552
G1 F2700 E5.23552
G0 F12000 X109.516 Y110.222
G0 X109.43 Y109.407
G1 F2700 E10.23552
G1 F648.6 X109.545 Y109.096 E10.25592
G1 X109.708 Y108.833 E10.27496
G1 F633.2 X108.685 Y108.841 E10.33944
G1 F631.6 X108.959 Y108.948 E10.35802
G1 F645.2 X109.256 Y109.156 E10.38046
G1 F648.6 X109.43 Y109.407 E10.39925
G1 F2700 E5.39925
G0 F12000 X110.061 Y108.667
G0 X110.872 Y108.415
;TYPE:WALL-OUTER
G1 F2700 E10.39925
G1 F720.7 X110.891 Y108.414 E10.4003
G1 F2700 E5.4003
G0 F12000 X111.132 Y109.214
G0 X112.234 Y109.808
G0 X113.103 Y109.604
G1 F2700 E10.4003
G1 F535.7 X113.099 Y108.473 E10.48457
G1 F533.3 X112.213 Y108.473 E10.55087
G1 X112.469 Y108.63 E10.57334
G1 X112.766 Y108.914 E10.6041
G1 X112.954 Y109.205 E10.63002
G1 F535.7 X113.103 Y109.604 E10.66175
G0 F12000 X113.103 Y109.627
G1 F570.1 X113.124 Y109.996 E10.68763
G1 X113.103 Y110.382 E10.71469
G0 F12000 X112.91 Y111.212
G0 X112.213 Y111.523
G1 F532.2 X113.099 Y111.523 E10.78115
G1 F538.1 X113.103 Y110.382 E10.86577
G1 X112.953 Y110.792 E10.89816
G1 F532.2 X112.742 Y111.111 E10.92684
G1 X112.432 Y111.393 E10.95827
G1 X112.213 Y111.523 E10.97737
G1 F2700 E5.97737
G0 F12000 X112.866 Y111.304
G0 X111.923 Y110.665
G0 X110.916 Y110.655
G0 X110 Y111.545
G1 F2700 E10.97737
G1 F600 X110.727 Y111.546 E11.02573
G1 X110.368 Y111.328 E11.05367
G1 X110.116 Y111.084 E11.07701
G1 X109.89 Y110.737 E11.10455
G1 F575.5 X109.706 Y110.247 E11.14085
G1 F534.5 X109.702 Y109.889 E11.16758
G1 F543 X109.755 Y109.627 E11.18723
G1 F585.4 X109.894 Y109.259 E11.21405
G1 F600 X110.119 Y108.913 E11.24151
G1 X110.406 Y108.639 E11.2679
G1 F625 X110.842 Y108.417 E11.29915
G1 X110.354 Y108.448 E11.33037
G1 F600 X108.344 Y108.449 E11.46408
G1 X107.942 Y108.528 E11.49133
G1 X107.639 Y108.666 E11.51348
G1 X107.366 Y108.872 E11.53623
G1 X107.147 Y109.126 E11.55854
G1 X106.987 Y109.427 E11.58121
G1 X106.878 Y109.823 E11.60854
G1 X106.899 Y110.248 E11.63684
G1 X106.988 Y110.57 E11.65906
G1 X107.147 Y110.874 E11.68188
G1 X107.366 Y111.128 E11.70419
G1 X107.638 Y111.33 E11.72673
G1 X107.945 Y111.467 E11.74909
G1 X108.344 Y111.543 E11.77611
G1 X110 Y111.545 E11.88627
G1 F2700 E6.88627
G0 F12000 X109.953 Y111.286
G0 X108.19 Y111.082
G0 X108.306 Y110.795
G1 F2700 E11.88627
G1 F600 X107.952 Y110.655 E11.91159
G1 X107.71 Y110.365 E11.93672
G1 X107.619 Y109.992 E11.96226
G1 X107.71 Y109.628 E11.98722
G1 X107.96 Y109.34 E12.01259
G1 X108.317 Y109.2 E12.03809
G1 X108.701 Y109.238 E12.06376
G1 F591.1 X109.019 Y109.458 E12.08987
G1 F566 X109.24 Y109.831 E12.12044
G1 F531 X109.239 Y110.157 E12.14495
G1 F532.2 X109.02 Y110.538 E12.17791
G1 F563.4 X108.701 Y110.757 E12.20532
G1 F588.2 X108.306 Y110.795 E12.23224
G1 F2700 E7.23224
;MESH:NONMESH
G0 F300 Z2.2
G0 F12000 X108.19 Y111.082
G0 X108.787 Y110.999
G0 X109.212 Y110.711
G0 X109.431 Y110.303
G0 X109.439 Y109.416
;TIME_ELAPSED:41.106117
;LAYER:5
;note -- min layer time used
;TYPE:WALL-INNER
;MESH:mast_mount.stl
G1 F2700 E12.23224
G1 F697.7 X109.177 Y109.081 E12.25657
G1 F687.7 X108.787 Y108.868 E12.28236
G1 F674.2 X108.332 Y108.824 E12.30943
G1 F659.3 X108.03 Y108.9 E12.32828
G1 F666.7 X107.79 Y109.01 E12.34408
G1 F670.4 X107.59 Y109.183 E12.35983
G1 X107.426 Y109.38 E12.37509
G1 F679.9 X107.264 Y109.718 E12.39709
G1 F672.3 X107.26 Y110.132 E12.42167
G1 F668.5 X107.313 Y110.38 E12.43681
G1 F676.1 X107.427 Y110.616 E12.45229
G1 F672.3 X107.591 Y110.816 E12.46764
G1 X107.79 Y110.988 E12.48326
G1 F683.8 X108.03 Y111.104 E12.49882
G1 F681.8 X108.421 Y111.169 E12.52202
G1 X108.879 Y111.08 E12.54933
G1 F687.7 X109.268 Y110.812 E12.57675
G1 F676.1 X109.43 Y110.579 E12.5935
G0 F12000 X108.509 Y110.795
;TYPE:WALL-OUTER
G1 F600 X108.155 Y110.751 E12.61723
G1 X107.948 Y110.643 E12.63276
G1 X107.73 Y110.395 E12.65473
G1 X107.644 Y110.184 E12.66988
G1 X107.644 Y109.812 E12.69463
G1 X107.73 Y109.6 E12.70985
G1 X107.969 Y109.335 E12.73359
G1 X108.316 Y109.201 E12.75833
G1 X108.692 Y109.244 E12.7835
G1 X108.875 Y109.339 E12.79722
G1 F597 X109.129 Y109.611 E12.8221
G1 F553 X109.24 Y109.859 E12.84171
G1 F535.7 X109.238 Y110.168 E12.86473
G1 F576.9 X109.014 Y110.544 E12.89501
G1 F600 X108.71 Y110.751 E12.91947
G1 X108.509 Y110.795 E12.93316
G0 F12000 X108.422 Y111.547
G1 F600 X108.736 Y111.515 E12.95416
G1 X109.025 Y111.426 E12.97427
G1 X109.301 Y111.274 E12.99523
G1 X109.539 Y111.072 E13.016
G1 X109.73 Y110.828 E13.03661
G1 X109.843 Y110.605 E13.05324
G1 F576.9 X109.703 Y110.24 E13.08028
G1 F535.7 X109.702 Y109.887 E13.10658
G1 F541.8 X109.75 Y109.637 E13.12534
G1 F583.9 X109.842 Y109.39 E13.14335
G1 F600 X109.734 Y109.176 E13.1593
G1 X109.538 Y108.924 E13.18054
G1 X109.298 Y108.723 E13.20136
G1 X109.025 Y108.573 E13.22208
G1 X108.731 Y108.481 E13.24257
G1 X108.306 Y108.439 E13.27098
G1 X107.898 Y108.538 E13.29891
G1 X107.586 Y108.693 E13.32208
G1 X107.316 Y108.914 E13.34529
G1 X107.107 Y109.179 E13.36774
G1 X106.955 Y109.491 E13.39083
G1 X106.88 Y109.826 E13.41367
G1 X106.88 Y110.173 E13.43675
G1 X106.954 Y110.505 E13.45938
G1 X107.107 Y110.817 E13.48249
G1 X107.317 Y111.083 E13.50504
G1 X107.586 Y111.306 E13.52828
G1 X107.901 Y111.458 E13.55154
G1 X108.15 Y111.522 E13.56865
G1 X108.422 Y111.547 E13.58682
G1 F2700 E8.58682
;MESH:NONMESH
G0 F300 Z2.6
G0 F12000 X108.423 Y111.237
G0 X109.214 Y110.709
G0 X109.431 Y110.301
G0 X109.433 Y109.421
;TIME_ELAPSED:43.947375
;LAYER:6
;note -- min layer time used
;TYPE:WALL-INNER
;MESH:mast_mount.stl
G1 F2700 E13.58682
G1 F678 X109.254 Y109.171 E13.60492
G1 F691.6 X108.843 Y108.902 E13.63326
G1 F681.8 X108.618 Y108.85 E13.64678
G1 F676.1 X108.278 Y108.833 E13.66688
G1 F672.3 X108.049 Y108.895 E13.68096
G1 F676.1 X107.782 Y109.015 E13.69825
G1 F689.7 X107.586 Y109.177 E13.71296
G1 F683.8 X107.35 Y109.495 E13.73608
G1 F676.1 X107.261 Y109.863 E13.75843
G1 F678 X107.265 Y110.156 E13.77568
G1 F683.8 X107.355 Y110.513 E13.79717
G1 F685.7 X107.591 Y110.825 E13.81994
G1 F691.6 X107.78 Y110.98 E13.83405
G1 F693.6 X108.162 Y111.153 E13.85817
G1 F685.7 X108.545 Y111.17 E13.88049
G1 F668.5 X108.842 Y111.086 E13.89892
G1 F674.2 X109.146 Y110.944 E13.91878
G1 F689.7 X109.412 Y110.626 E13.94277
G1 F693.6 X109.44 Y110.577 E13.94602
G0 F12000 X109.023 Y110.878
G0 X108.767 Y110.974
G0 X108.188 Y111.08
G0 X108.299 Y110.791
;TYPE:WALL-OUTER
G1 F600 X107.993 Y110.673 E13.96784
G1 X107.815 Y110.521 E13.98341
G1 X107.639 Y110.188 E14.00846
G1 X107.645 Y109.793 E14.03474
G1 X107.818 Y109.477 E14.05871
G1 X107.992 Y109.323 E14.07416
G1 X108.324 Y109.2 E14.09771
G1 X108.714 Y109.245 E14.12383
G1 X109.02 Y109.459 E14.14867
G1 F576.9 X109.24 Y109.83 E14.17851
G1 F533.3 X109.241 Y110.159 E14.20313
G1 F545.5 X109.144 Y110.359 E14.21939
G1 F585.4 X108.885 Y110.659 E14.24642
G1 F594.1 X108.545 Y110.79 E14.2709
G1 F600 X108.299 Y110.791 E14.28726
G0 F12000 X108.583 Y111.55
G1 F600 X108.979 Y111.444 E14.31453
G1 X109.27 Y111.295 E14.33628
G1 X109.521 Y111.09 E14.35783
G1 X109.723 Y110.838 E14.37932
G1 X109.843 Y110.604 E14.39681
G1 F578.3 X109.746 Y110.356 E14.41519
G1 F538.1 X109.695 Y110.025 E14.44003
G1 F541.8 X109.749 Y109.645 E14.46831
G1 F582.5 X109.843 Y109.392 E14.4868
G1 F600 X109.723 Y109.158 E14.50429
G1 X109.521 Y108.906 E14.52578
G1 X109.27 Y108.701 E14.54733
G1 X108.976 Y108.553 E14.56923
G1 X108.674 Y108.472 E14.59003
G1 X108.241 Y108.457 E14.61885
G1 X107.92 Y108.534 E14.64081
G1 X107.581 Y108.698 E14.66586
G1 X107.316 Y108.913 E14.68856
G1 X107.103 Y109.186 E14.71159
G1 X106.97 Y109.465 E14.73215
G1 X106.881 Y109.822 E14.75663
G1 X106.892 Y110.205 E14.78211
G1 X106.97 Y110.533 E14.80454
G1 X107.104 Y110.813 E14.82519
G1 X107.321 Y111.087 E14.84844
G1 X107.58 Y111.297 E14.87062
G1 X107.925 Y111.462 E14.89606
G1 X108.175 Y111.525 E14.91321
G1 X108.583 Y111.55 E14.9404
G1 F2700 E9.9404
;MESH:NONMESH
G0 F300 Z3
G0 F12000 X108.549 Y111.24
G0 X109.023 Y110.878
G0 X109.345 Y110.519
G0 X109.436 Y110.283
G0 X109.433 Y109.423
;TIME_ELAPSED:46.827447
;LAYER:7
;note -- min layer time used
;TYPE:WALL-INNER
;MESH:mast_mount.stl
G1 F2700 E14.9404
G1 F674.2 X109.398 Y109.356 E14.94488
G1 F678 X109.24 Y109.158 E14.95979
G1 F674.2 X109.03 Y109.002 E14.97528
G1 F679.9 X108.818 Y108.893 E14.98927
G1 X108.533 Y108.839 E15.0063
G1 F678 X108.175 Y108.839 E15.02737
G1 F693.6 X107.797 Y109.006 E15.05115
G1 F679.9 X107.596 Y109.176 E15.06661
G1 F676.1 X107.43 Y109.377 E15.082
G1 X107.322 Y109.61 E15.09716
G1 F668.5 X107.264 Y109.859 E15.11242
G1 F676.1 X107.263 Y110.137 E15.12883
G1 F678 X107.319 Y110.37 E15.14294
G1 F679.9 X107.435 Y110.625 E15.15939
G1 F676.1 X107.598 Y110.822 E15.17448
G1 F678 X107.799 Y110.992 E15.18998
G1 F689.7 X108.17 Y111.157 E15.21348
G1 F685.7 X108.534 Y111.165 E15.23467
G1 F674.2 X108.816 Y111.095 E15.25187
G1 F676.1 X109.037 Y111 E15.26607
G1 F678 X109.236 Y110.836 E15.28125
G1 F674.2 X109.401 Y110.641 E15.29638
G1 F691.6 X109.441 Y110.575 E15.30083
G0 F12000 X108.541 Y110.792
;TYPE:WALL-OUTER
G1 F600 X108.319 Y110.79 E15.3156
G1 X107.967 Y110.664 E15.34047
G1 X107.709 Y110.371 E15.36644
G1 X107.617 Y110.007 E15.39141
G1 X107.715 Y109.619 E15.41803
G1 X107.967 Y109.333 E15.44339
G1 X108.334 Y109.2 E15.46936
G1 F594.1 X108.713 Y109.244 E15.49499
G1 F583.9 X109.025 Y109.464 E15.52108
G1 F567.4 X109.24 Y109.832 E15.55107
G1 F535.7 X109.241 Y110.157 E15.57528
G1 F543 X109.151 Y110.351 E15.591
G1 F588.2 X108.877 Y110.668 E15.61943
G1 F600 X108.541 Y110.792 E15.64325
G0 F12000 X108.571 Y111.54
G1 F600 X108.939 Y111.457 E15.66835
G1 X109.234 Y111.32 E15.68998
G1 X109.503 Y111.108 E15.71277
G1 X109.716 Y110.849 E15.73507
G1 X109.843 Y110.604 E15.75343
G1 F566 X109.706 Y110.256 E15.7798
G1 F546.7 X109.701 Y109.773 E15.81506
G1 F576.9 X109.842 Y109.393 E15.8431
G1 F600 X109.716 Y109.147 E15.86149
G1 X109.503 Y108.888 E15.8838
G1 X109.23 Y108.676 E15.90679
G1 X108.938 Y108.539 E15.92825
G1 X108.569 Y108.457 E15.95339
G1 X108.207 Y108.468 E15.97748
G1 X107.901 Y108.542 E15.99842
G1 X107.596 Y108.69 E16.02097
G1 X107.327 Y108.907 E16.04397
G1 X107.111 Y109.176 E16.06691
G1 X106.962 Y109.483 E16.08961
G1 X106.885 Y109.818 E16.11248
G1 X106.888 Y110.18 E16.13656
G1 X106.959 Y110.494 E16.15797
G1 X107.115 Y110.825 E16.18232
G1 X107.327 Y111.09 E16.20489
G1 X107.597 Y111.309 E16.22802
G1 X107.904 Y111.458 E16.25072
G1 X108.21 Y111.532 E16.27166
G1 X108.571 Y111.54 E16.29568
;TIME_ELAPSED:49.227327
G1 F2700 E11.29568
M140 S0
M107
G91 ;Relative positioning
G1 E-2 F2700 ;Retract a bit
G1 E-2 Z0.2 F2400 ;Retract and raise Z
G1 X5 Y5 F3000 ;Wipe out
G1 Z10 ;Raise Z more
G90 ;Absolute positioning

G28 X0 Y0 ;Present print
M106 S0 ;Turn-off fan
M104 S0 ;Turn-off hotend
M140 S0 ;Turn-off bed

M84 X Y E ;Disable all steppers but Z

M82 ;absolute extrusion mode
M104 S0
;End of Gcode
;SETTING_3 {"global_quality": "[general]\\nversion = 4\\nname = PLA - no adhesio
;SETTING_3 n\\ndefinition = creality_ender5\\n\\n[metadata]\\ntype = quality_cha
;SETTING_3 nges\\nquality_type = standard\\nsetting_version = 27\\n\\n[values]\\
;SETTING_3 nadhesion_type = none\\nlayer_height = 0.4\\nmaterial_bed_temperature
;SETTING_3  = 55\\nmaterial_bed_temperature_layer_0 = 65\\nsupport_enable = True
;SETTING_3 \\nsupport_type = buildplate\\n\\n", "extruder_quality": ["[general]\
;SETTING_3 \nversion = 4\\nname = PLA - no adhesion\\ndefinition = creality_ende
;SETTING_3 r5\\n\\n[metadata]\\ntype = quality_changes\\nquality_type = standard
;SETTING_3 \\nintent_category = default\\nposition = 0\\nsetting_version = 27\\n
;SETTING_3 \\n[values]\\nmaterial_print_temperature_layer_0 = 205.0\\nspeed_laye
;SETTING_3 r_0 = 10\\nsupport_angle = 80\\n\\n"]}
