;FLAVOR:Marlin
;TIME:146
;Filament used: 0.0771751m
;Layer height: 0.4
;MINX:98.207
;MINY:98.206
;MINZ:0.2
;MAXX:121.794
;MAXY:121.781
;MAXZ:3.4
;TARGET_MACHINE.NAME:Creality Ender-5
;Generated with Cura_SteamEngine 5.10.0
M140 S55
M105
M190 S55
M104 S205
M105
M109 S205
M201 X500.00 Y500.00 Z100.00 E5000.00 ;Setup machine max acceleration
M203 X500.00 Y500.00 Z10.00 E50.00 ;Setup machine max feedrate
M204 P500.00 R1000.00 T500.00 ;Setup Print/Retract/Travel acceleration
M205 X8.00 Y8.00 Z0.40 E5.00 ;Setup Jerk
M220 S100 ;Reset Feedrate
M221 S100 ;Reset Flowrate

G28 ;Home

G92 E0 ;Reset Extruder
G1 Z2.0 F3000 ;Move Z Axis up
G1 X10.1 Y20 Z0.28 F5000.0 ;Move to start position
G1 X10.1 Y200.0 Z0.28 F1500.0 E15 ;Draw the first line
G1 X10.4 Y200.0 Z0.28 F5000.0 ;Move to side a little
G1 X10.4 Y20 Z0.28 F1500.0 E30 ;Draw the second line
G92 E0 ;Reset Extruder
G1 Z2.0 F3000 ;Move Z Axis up

M82 ;absolute extrusion mode
G92 E0
G92 E0
G1 F2700 E-5
;LAYER_COUNT:9
;LAYER:0
M107
G0 F6000 X101.56 Y101.761 Z0.2
;TYPE:SKIRT
G1 F2700 E0
G1 F900 X102.292 Y101.074 E0.03339
G1 X103.813 Y99.953 E0.09623
G1 X104.434 Y99.595 E0.12007
G1 X105.913 Y98.941 E0.17386
G1 X107.257 Y98.525 E0.22065
G1 X107.97 Y98.376 E0.24488
G1 X109.553 Y98.213 E0.29781
G1 X110.129 Y98.206 E0.31697
G1 X112.122 Y98.397 E0.38356
G1 X112.988 Y98.589 E0.41306
G1 X114.605 Y99.145 E0.46994
G1 X115.77 Y99.712 E0.51303
G1 X116.666 Y100.271 E0.54815
G1 X117.927 Y101.271 E0.60168
G1 X118.741 Y102.084 E0.63995
G1 X119.678 Y103.244 E0.68954
G1 X119.976 Y103.695 E0.70752
G1 X120.776 Y105.217 E0.76471
G1 X121.288 Y106.576 E0.81301
G1 X121.516 Y107.445 E0.8429
G1 X121.747 Y108.906 E0.89209
G1 X121.794 Y109.847 E0.92343
G1 X121.666 Y111.719 E0.98584
G1 X121.42 Y112.966 E1.02811
G1 X121.191 Y113.739 E1.05493
G1 X120.599 Y115.17 E1.10643
G1 X119.968 Y116.307 E1.14968
G1 X119.447 Y117.064 E1.18025
G1 X118.44 Y118.239 E1.23172
G1 X117.708 Y118.926 E1.26511
G1 X116.187 Y120.047 E1.32795
G1 X115.566 Y120.405 E1.35179
G1 X114.039 Y121.077 E1.40728
G1 X112.812 Y121.455 E1.44998
G1 X111.944 Y121.636 E1.47947
G1 X110.42 Y121.781 E1.53039
G1 X108.987 Y121.749 E1.57807
G1 X107.806 Y121.592 E1.61769
G1 X106.803 Y121.352 E1.65199
G1 X105.623 Y120.95 E1.69345
G1 X104.169 Y120.25 E1.74713
G1 X103.121 Y119.584 E1.78843
G1 X102.407 Y119.027 E1.81855
G1 X101.219 Y117.874 E1.87361
G1 X100.477 Y116.96 E1.91277
G1 X99.845 Y115.996 E1.9511
G1 X99.17 Y114.673 E2.0005
G1 X98.828 Y113.777 E2.0324
G1 X98.389 Y112.081 E2.09067
G1 X98.258 Y111.137 E2.12237
G1 X98.207 Y110.106 E2.1567
G1 X98.334 Y108.287 E2.21735
G1 X98.58 Y107.034 E2.25982
G1 X98.809 Y106.261 E2.28663
G1 X99.401 Y104.83 E2.33814
G1 X100.032 Y103.693 E2.38139
G1 X100.553 Y102.936 E2.41196
G1 X101.56 Y101.761 E2.46343
G0 F6000 X101.834 Y102.053
G1 F900 X102.566 Y101.366 E2.49682
G1 X104.013 Y100.3 E2.55659
G1 X104.634 Y99.942 E2.58043
G1 X106.032 Y99.323 E2.63129
G1 X107.339 Y98.917 E2.67681
G1 X108.052 Y98.768 E2.70103
G1 X109.558 Y98.613 E2.75139
G1 X110.134 Y98.606 E2.77055
G1 X112.035 Y98.788 E2.83406
G1 X112.901 Y98.98 E2.86357
G1 X114.475 Y99.523 E2.91894
G1 X115.559 Y100.052 E2.95906
G1 X116.418 Y100.585 E2.99269
G1 X117.644 Y101.554 E3.04466
G1 X118.458 Y102.367 E3.08293
G1 X119.344 Y103.465 E3.12985
G1 X119.642 Y103.916 E3.14783
G1 X120.402 Y105.359 E3.20208
G1 X120.901 Y106.678 E3.24898
G1 X121.129 Y107.547 E3.27886
G1 X121.347 Y108.926 E3.3253
G1 X121.394 Y109.867 E3.35663
G1 X121.273 Y111.642 E3.41581
G1 X121.036 Y112.852 E3.45682
G1 X120.807 Y113.625 E3.48363
G1 X120.249 Y114.976 E3.53225
G1 X119.638 Y116.08 E3.57422
G1 X119.117 Y116.837 E3.60478
G1 X118.166 Y117.947 E3.6534
G1 X117.434 Y118.634 E3.68679
G1 X115.987 Y119.7 E3.74656
G1 X115.366 Y120.058 E3.7704
G1 X113.921 Y120.695 E3.82293
G1 X112.73 Y121.063 E3.86439
G1 X111.862 Y121.244 E3.89388
G1 X110.428 Y121.381 E3.94179
G1 X109.04 Y121.352 E3.98797
G1 X107.859 Y121.195 E4.02759
G1 X106.932 Y120.973 E4.0593
G1 X105.752 Y120.571 E4.10076
G1 X104.384 Y119.912 E4.15126
G1 X103.336 Y119.246 E4.19256
G1 X102.654 Y118.712 E4.22137
G1 X101.529 Y117.622 E4.27347
G1 X100.812 Y116.741 E4.31125
G1 X100.18 Y115.777 E4.34959
G1 X99.544 Y114.53 E4.39615
G1 X99.202 Y113.634 E4.42805
G1 X98.785 Y112.026 E4.4833
G1 X98.658 Y111.117 E4.51382
G1 X98.607 Y110.086 E4.54816
G1 X98.727 Y108.364 E4.60557
G1 X98.964 Y107.148 E4.64678
G1 X99.193 Y106.375 E4.67359
G1 X99.751 Y105.024 E4.72221
G1 X100.362 Y103.92 E4.76417
G1 X100.883 Y103.163 E4.79474
G1 X101.834 Y102.053 E4.84335
G0 F6000 X102.108 Y102.345
G1 F900 X102.84 Y101.658 E4.87674
G1 X104.213 Y100.647 E4.93345
G1 X104.834 Y100.289 E4.9573
G1 X106.151 Y99.705 E5.00521
G1 X107.421 Y99.309 E5.04946
G1 X108.134 Y99.16 E5.07369
G1 X109.563 Y99.013 E5.12147
G1 X110.139 Y99.006 E5.14062
G1 X111.948 Y99.179 E5.20107
G1 X112.814 Y99.371 E5.23057
G1 X114.344 Y99.901 E5.28442
G1 X115.349 Y100.393 E5.32164
G1 X116.17 Y100.899 E5.35372
G1 X117.362 Y101.838 E5.40419
G1 X118.147 Y102.619 E5.44102
G1 X119.01 Y103.686 E5.48666
G1 X119.308 Y104.137 E5.50464
G1 X120.048 Y105.545 E5.55754
G1 X120.514 Y106.78 E5.60145
G1 X120.742 Y107.649 E5.63133
G1 X120.947 Y108.946 E5.675
G1 X120.994 Y109.887 E5.70634
G1 X120.874 Y111.614 E5.76392
G1 X120.652 Y112.738 E5.80202
G1 X120.423 Y113.511 E5.82884
G1 X119.899 Y114.783 E5.8746
G1 X119.308 Y115.853 E5.91525
G1 X118.787 Y116.61 E5.94582
G1 X117.892 Y117.655 E5.99158
G1 X117.16 Y118.342 E6.02497
G1 X115.787 Y119.353 E6.08168
G1 X115.166 Y119.711 E6.10552
G1 X113.802 Y120.313 E6.15511
G1 X112.648 Y120.671 E6.19529
G1 X111.78 Y120.852 E6.22479
G1 X110.436 Y120.981 E6.26969
G1 X109.093 Y120.955 E6.31437
G1 X107.912 Y120.798 E6.354
G1 X107.061 Y120.594 E6.3831
G1 X105.881 Y120.192 E6.42456
G1 X104.598 Y119.574 E6.47193
G1 X103.582 Y118.93 E6.51194
G1 X102.932 Y118.424 E6.53933
G1 X101.839 Y117.369 E6.58986
G1 X101.147 Y116.522 E6.62624
G1 X100.515 Y115.558 E6.66458
G1 X99.918 Y114.387 E6.70829
G1 X99.576 Y113.491 E6.74019
G1 X99.181 Y111.97 E6.79246
G1 X99.058 Y111.097 E6.82178
G1 X99.007 Y110.066 E6.85612
G1 X99.126 Y108.392 E6.91193
G1 X99.348 Y107.262 E6.95024
G1 X99.577 Y106.489 E6.97705
G1 X100.101 Y105.217 E7.02281
G1 X100.692 Y104.147 E7.06346
G1 X101.213 Y103.39 E7.09403
G1 X102.108 Y102.345 E7.13979
G0 F6000 X102.382 Y102.637
G1 F900 X103.114 Y101.95 E7.17318
G1 X104.413 Y100.994 E7.22682
G1 X105.034 Y100.636 E7.25066
G1 X106.271 Y100.087 E7.29568
G1 X107.503 Y99.701 E7.33862
G1 X108.216 Y99.552 E7.36284
G1 X109.568 Y99.413 E7.40805
G1 X110.144 Y99.406 E7.42721
G1 X111.861 Y99.57 E7.48458
G1 X112.727 Y99.762 E7.51408
G1 X114.169 Y100.261 E7.56483
G1 X115.139 Y100.734 E7.60072
G1 X115.96 Y101.24 E7.6328
G1 X117.08 Y102.122 E7.68022
G1 X117.865 Y102.903 E7.71705
G1 X118.676 Y103.907 E7.75997
G1 X118.974 Y104.358 E7.77795
G1 X119.674 Y105.687 E7.82791
G1 X120.127 Y106.882 E7.87042
G1 X120.355 Y107.751 E7.9003
G1 X120.547 Y108.966 E7.94121
G1 X120.594 Y109.907 E7.97255
G1 X120.481 Y111.537 E8.02689
G1 X120.268 Y112.624 E8.06373
G1 X120.039 Y113.397 E8.09055
G1 X119.549 Y114.59 E8.13344
G1 X118.978 Y115.626 E8.17279
G1 X118.457 Y116.383 E8.20335
G1 X117.618 Y117.363 E8.24626
G1 X116.886 Y118.05 E8.27965
G1 X115.587 Y119.006 E8.33329
G1 X114.966 Y119.364 E8.35714
G1 X113.683 Y119.931 E8.40379
G1 X112.566 Y120.279 E8.4427
G1 X111.698 Y120.46 E8.47219
G1 X110.443 Y120.581 E8.51413
G1 X109.146 Y120.558 E8.55727
G1 X107.965 Y120.401 E8.5969
G1 X107.19 Y120.215 E8.62341
G1 X106.01 Y119.813 E8.66487
G1 X104.812 Y119.236 E8.7091
G1 X103.828 Y118.614 E8.74781
G1 X103.178 Y118.108 E8.77521
G1 X102.148 Y117.115 E8.8228
G1 X101.482 Y116.303 E8.85773
G1 X100.85 Y115.339 E8.89607
G1 X100.292 Y114.244 E8.93694
G1 X99.95 Y113.348 E8.96884
G1 X99.577 Y111.914 E9.01812
G1 X99.458 Y111.077 E9.04624
G1 X99.407 Y110.046 E9.08057
G1 X99.519 Y108.469 E9.13316
G1 X99.732 Y107.376 E9.17019
G1 X99.961 Y106.603 E9.19701
G1 X100.451 Y105.41 E9.23991
G1 X101.022 Y104.374 E9.27925
G1 X101.543 Y103.617 E9.30981
G1 X102.382 Y102.637 E9.35272
G0 F6000 X102.656 Y102.929
G1 F900 X103.388 Y102.242 E9.38611
G1 X104.613 Y101.341 E9.43669
G1 X105.234 Y100.983 E9.46053
G1 X106.391 Y100.469 E9.50264
G1 X107.585 Y100.093 E9.54427
G1 X108.298 Y99.944 E9.5685
G1 X109.573 Y99.813 E9.61113
G1 X110.149 Y99.806 E9.63029
G1 X111.774 Y99.961 E9.68458
G1 X112.64 Y100.153 E9.71409
G1 X113.994 Y100.621 E9.76173
G1 X114.929 Y101.075 E9.79631
G1 X115.75 Y101.581 E9.82838
G1 X116.798 Y102.406 E9.87274
G1 X117.583 Y103.187 E9.90957
G1 X118.342 Y104.128 E9.94978
G1 X118.64 Y104.579 E9.96776
G1 X119.32 Y105.873 E10.01638
G1 X119.74 Y106.984 E10.05589
G1 X119.968 Y107.853 E10.08577
G1 X120.147 Y108.986 E10.12392
G1 X120.194 Y109.927 E10.15525
G1 X120.082 Y111.509 E10.208
G1 X119.884 Y112.51 E10.24194
G1 X119.655 Y113.283 E10.26876
G1 X119.179 Y114.437 E10.31028
G1 X118.648 Y115.399 E10.34682
G1 X118.127 Y116.156 E10.37739
G1 X117.344 Y117.071 E10.41744
G1 X116.612 Y117.758 E10.45083
G1 X115.387 Y118.659 E10.50141
G1 X114.766 Y119.017 E10.52525
G1 X113.564 Y119.549 E10.56897
G1 X112.484 Y119.887 E10.60661
G1 X111.616 Y120.068 E10.6361
G1 X110.45 Y120.181 E10.67506
G1 X109.153 Y120.158 E10.71821
G1 X108.058 Y120.012 E10.75495
G1 X107.319 Y119.836 E10.78022
G1 X106.139 Y119.434 E10.82168
G1 X105.025 Y118.898 E10.8628
G1 X104.074 Y118.298 E10.9002
G1 X103.424 Y117.792 E10.92759
G1 X102.457 Y116.861 E10.97224
G1 X101.817 Y116.084 E11.00572
G1 X101.185 Y115.12 E11.04406
G1 X100.665 Y114.1 E11.08214
G1 X100.337 Y113.247 E11.11253
G1 X99.973 Y111.857 E11.16033
G1 X99.858 Y111.057 E11.18721
G1 X99.807 Y110.026 E11.22154
G1 X99.912 Y108.545 E11.27092
G1 X100.116 Y107.49 E11.30666
G1 X100.345 Y106.717 E11.33348
G1 X100.821 Y105.563 E11.375
G1 X101.352 Y104.601 E11.41154
G1 X101.873 Y103.844 E11.44211
G1 X102.656 Y102.929 E11.48216
G0 F6000 X102.93 Y103.221
G1 F900 X103.662 Y102.534 E11.51555
G1 X104.813 Y101.688 E11.56306
G1 X105.434 Y101.33 E11.5869
G1 X106.512 Y100.85 E11.62615
G1 X107.667 Y100.485 E11.66644
G1 X108.38 Y100.336 E11.69067
G1 X109.578 Y100.213 E11.73072
G1 X110.154 Y100.206 E11.74988
G1 X111.687 Y100.352 E11.8011
G1 X112.553 Y100.544 E11.8306
G1 X113.819 Y100.981 E11.87515
G1 X114.754 Y101.435 E11.90972
G1 X115.539 Y101.921 E11.94043
G1 X116.516 Y102.69 E11.98178
G1 X117.272 Y103.439 E12.01717
G1 X118.008 Y104.349 E12.0561
G1 X118.306 Y104.8 E12.07408
G1 X118.966 Y106.059 E12.12136
G1 X119.353 Y107.086 E12.15786
G1 X119.581 Y107.955 E12.18774
G1 X119.747 Y109.006 E12.22313
G1 X119.794 Y109.947 E12.25447
G1 X119.689 Y111.432 E12.30399
G1 X119.5 Y112.396 E12.33666
G1 X119.271 Y113.169 E12.36347
G1 X118.828 Y114.244 E12.40214
G1 X118.318 Y115.172 E12.43736
G1 X117.797 Y115.929 E12.46793
G1 X117.07 Y116.779 E12.50513
G1 X116.338 Y117.466 E12.53852
G1 X115.187 Y118.312 E12.58603
G1 X114.566 Y118.67 E12.60987
G1 X113.444 Y119.167 E12.65069
G1 X112.402 Y119.495 E12.68702
G1 X111.534 Y119.676 E12.71651
G1 X110.457 Y119.781 E12.7525
G1 X109.16 Y119.758 E12.79565
G1 X108.15 Y119.623 E12.82954
G1 X107.448 Y119.457 E12.85353
G1 X106.268 Y119.055 E12.89499
G1 X105.238 Y118.559 E12.93302
G1 X104.32 Y117.982 E12.96908
G1 X103.67 Y117.476 E12.99648
G1 X102.765 Y116.606 E13.03823
G1 X102.151 Y115.864 E13.07026
G1 X101.541 Y114.938 E13.10714
G1 X101.038 Y113.956 E13.14384
G1 X100.724 Y113.145 E13.17277
G1 X100.369 Y111.799 E13.21907
G1 X100.258 Y111.037 E13.24468
G1 X100.207 Y110.006 E13.27901
G1 X100.305 Y108.62 E13.32522
G1 X100.5 Y107.604 E13.35963
G1 X100.729 Y106.831 E13.38645
G1 X101.172 Y105.756 E13.42512
G1 X101.682 Y104.828 E13.46034
G1 X102.203 Y104.071 E13.4909
G1 X102.93 Y103.221 E13.5281
G0 F6000 X103.204 Y103.513
G1 F900 X103.936 Y102.826 E13.56149
G1 X105.013 Y102.035 E13.60594
G1 X105.634 Y101.677 E13.62978
G1 X106.633 Y101.231 E13.66617
G1 X107.749 Y100.877 E13.70511
G1 X108.462 Y100.728 E13.72933
G1 X109.583 Y100.613 E13.76682
G1 X110.159 Y100.606 E13.78597
G1 X111.648 Y100.75 E13.83573
G1 X112.423 Y100.922 E13.86213
G1 X113.645 Y101.341 E13.9051
G1 X114.543 Y101.775 E13.93827
G1 X115.328 Y102.261 E13.96898
G1 X116.234 Y102.974 E14.00733
G1 X116.99 Y103.723 E14.04272
G1 X117.674 Y104.57 E14.07893
G1 X117.972 Y105.021 E14.09691
G1 X118.592 Y106.201 E14.14125
G1 X118.966 Y107.188 E14.17635
G1 X119.194 Y108.057 E14.20623
G1 X119.347 Y109.026 E14.23886
G1 X119.394 Y109.967 E14.2702
G1 X119.296 Y111.356 E14.31651
G1 X119.116 Y112.282 E14.34789
G1 X118.887 Y113.055 E14.3747
G1 X118.477 Y114.052 E14.41056
G1 X117.988 Y114.945 E14.44442
G1 X117.467 Y115.702 E14.47498
G1 X116.796 Y116.487 E14.50933
G1 X116.064 Y117.174 E14.54272
G1 X114.987 Y117.965 E14.58717
G1 X114.366 Y118.323 E14.61101
G1 X113.324 Y118.785 E14.64892
G1 X112.282 Y119.113 E14.68525
G1 X111.453 Y119.284 E14.7134
G1 X110.464 Y119.381 E14.74646
G1 X109.167 Y119.358 E14.7896
G1 X108.241 Y119.233 E14.82068
G1 X107.577 Y119.078 E14.84336
G1 X106.397 Y118.676 E14.88482
G1 X105.45 Y118.22 E14.91978
G1 X104.566 Y117.666 E14.95448
G1 X103.916 Y117.16 E14.98188
G1 X103.073 Y116.35 E15.02076
G1 X102.485 Y115.643 E15.05134
G1 X101.897 Y114.755 E15.08677
G1 X101.411 Y113.81 E15.12211
G1 X101.111 Y113.042 E15.14953
G1 X100.765 Y111.74 E15.19434
G1 X100.658 Y111.017 E15.21865
G1 X100.607 Y109.986 E15.25298
G1 X100.698 Y108.695 E15.29603
G1 X100.884 Y107.718 E15.32911
G1 X101.113 Y106.945 E15.35592
G1 X101.523 Y105.948 E15.39178
G1 X102.012 Y105.055 E15.42564
G1 X102.533 Y104.298 E15.4562
G1 X103.204 Y103.513 E15.49055
G0 F6000 X103.478 Y103.805
G1 F900 X104.21 Y103.118 E15.52394
G1 X105.213 Y102.382 E15.56532
G1 X105.834 Y102.024 E15.58916
G1 X106.795 Y101.597 E15.62414
G1 X107.831 Y101.269 E15.66028
G1 X108.544 Y101.12 E15.68451
G1 X109.588 Y101.013 E15.71941
G1 X110.164 Y101.006 E15.73857
G1 X111.609 Y101.148 E15.78686
G1 X112.294 Y101.301 E15.81021
G1 X113.472 Y101.702 E15.8516
G1 X114.332 Y102.115 E15.88333
G1 X115.117 Y102.601 E15.91404
G1 X115.952 Y103.258 E15.94937
G1 X116.708 Y104.007 E15.98477
G1 X117.34 Y104.791 E16.01826
G1 X117.638 Y105.242 E16.03624
G1 X118.238 Y106.387 E16.07924
G1 X118.579 Y107.29 E16.11134
G1 X118.807 Y108.159 E16.14122
G1 X118.947 Y109.046 E16.17109
G1 X118.994 Y109.987 E16.20243
G1 X118.903 Y111.28 E16.24554
G1 X118.732 Y112.168 E16.27562
G1 X118.503 Y112.941 E16.30243
G1 X118.126 Y113.86 E16.33547
G1 X117.658 Y114.718 E16.36797
G1 X117.137 Y115.475 E16.39854
G1 X116.522 Y116.195 E16.43003
G1 X115.79 Y116.882 E16.46342
G1 X114.787 Y117.618 E16.5048
G1 X114.166 Y117.976 E16.52864
G1 X113.204 Y118.403 E16.56365
G1 X112.162 Y118.731 E16.59998
G1 X111.373 Y118.892 E16.62677
G1 X110.47 Y118.981 E16.65694
G1 X109.22 Y118.961 E16.69853
G1 X108.331 Y118.843 E16.72835
G1 X107.706 Y118.699 E16.74968
G1 X106.526 Y118.297 E16.79115
G1 X105.662 Y117.881 E16.82304
G1 X104.812 Y117.35 E16.85638
G1 X104.162 Y116.844 E16.88377
G1 X103.381 Y116.094 E16.91979
G1 X102.793 Y115.387 E16.95037
G1 X102.253 Y114.572 E16.98289
G1 X101.767 Y113.627 E17.01823
G1 X101.497 Y112.939 E17.04281
G1 X101.161 Y111.68 E17.08615
G1 X101.058 Y110.997 E17.10913
G1 X101.007 Y109.966 E17.14346
G1 X101.091 Y108.769 E17.18337
G1 X101.268 Y107.832 E17.21509
G1 X101.497 Y107.059 E17.2419
G1 X101.874 Y106.14 E17.27494
G1 X102.342 Y105.282 E17.30745
G1 X102.863 Y104.525 E17.33801
G1 X103.478 Y103.805 E17.36951
G0 F6000 X103.752 Y104.097
G1 F900 X104.484 Y103.41 E17.4029
G1 X105.413 Y102.729 E17.44121
G1 X106.034 Y102.371 E17.46505
G1 X106.916 Y101.978 E17.49716
G1 X107.913 Y101.661 E17.53196
G1 X108.626 Y101.512 E17.55619
G1 X109.593 Y101.413 E17.58852
G1 X110.169 Y101.406 E17.60768
G1 X111.569 Y101.546 E17.65447
G1 X112.165 Y101.68 E17.67479
G1 X113.343 Y102.081 E17.71618
G1 X114.122 Y102.456 E17.74493
G1 X114.87 Y102.916 E17.77414
G1 X115.671 Y103.543 E17.80797
G1 X116.397 Y104.259 E17.84189
G1 X117.006 Y105.012 E17.8741
G1 X117.304 Y105.463 E17.89208
G1 X117.883 Y106.572 E17.93369
G1 X118.192 Y107.392 E17.96283
G1 X118.42 Y108.261 E17.99271
G1 X118.547 Y109.066 E18.01982
G1 X118.594 Y110.007 E18.05116
G1 X118.51 Y111.205 E18.0911
G1 X118.348 Y112.054 E18.11985
G1 X118.119 Y112.827 E18.14666
G1 X117.756 Y113.707 E18.17832
G1 X117.328 Y114.491 E18.20803
G1 X116.807 Y115.248 E18.2386
G1 X116.248 Y115.903 E18.26724
G1 X115.516 Y116.59 E18.30063
G1 X114.587 Y117.271 E18.33894
G1 X113.966 Y117.629 E18.36278
G1 X113.083 Y118.022 E18.39493
G1 X112.082 Y118.339 E18.42985
G1 X111.293 Y118.5 E18.45663
G1 X110.476 Y118.581 E18.48394
G1 X109.273 Y118.564 E18.52395
G1 X108.384 Y118.446 E18.55378
G1 X107.835 Y118.32 E18.57252
G1 X106.655 Y117.918 E18.61398
G1 X105.873 Y117.541 E18.64285
G1 X105.058 Y117.034 E18.67478
G1 X104.408 Y116.528 E18.70217
G1 X103.689 Y115.838 E18.73532
G1 X103.101 Y115.131 E18.7659
G1 X102.609 Y114.389 E18.79551
G1 X102.123 Y113.444 E18.83086
G1 X101.87 Y112.794 E18.85406
G1 X101.556 Y111.62 E18.89448
G1 X101.458 Y110.977 E18.91611
G1 X101.407 Y109.946 E18.95044
G1 X101.484 Y108.843 E18.98722
G1 X101.652 Y107.946 E19.01757
G1 X101.881 Y107.173 E19.04439
G1 X102.244 Y106.293 E19.07605
G1 X102.672 Y105.509 E19.10576
G1 X103.193 Y104.752 E19.13632
G1 X103.752 Y104.097 E19.16496
G0 F6000 X104.026 Y104.389
G1 F900 X104.758 Y103.702 E19.19835
G1 X105.613 Y103.076 E19.2336
G1 X106.234 Y102.718 E19.25744
G1 X107.038 Y102.359 E19.28672
G1 X107.995 Y102.053 E19.32014
G1 X108.708 Y101.904 E19.34437
G1 X109.598 Y101.813 E19.37412
G1 X110.174 Y101.806 E19.39328
G1 X111.528 Y101.944 E19.43855
G1 X112.036 Y102.059 E19.45587
G1 X113.214 Y102.46 E19.49726
G1 X113.912 Y102.797 E19.52304
G1 X114.66 Y103.257 E19.55225
G1 X115.39 Y103.828 E19.58307
G1 X116.116 Y104.544 E19.61699
G1 X116.673 Y105.234 E19.64648
G1 X116.949 Y105.648 E19.66303
G1 X117.528 Y106.757 E19.70464
G1 X117.805 Y107.494 E19.73083
G1 X118.033 Y108.363 E19.76071
G1 X118.147 Y109.086 E19.78505
G1 X118.194 Y110.027 E19.81639
G1 X118.117 Y111.131 E19.8532
G1 X117.964 Y111.94 E19.88058
G1 X117.735 Y112.713 E19.9074
G1 X117.404 Y113.516 E19.93628
G1 X116.998 Y114.264 E19.96459
G1 X116.477 Y115.021 E19.99516
G1 X115.974 Y115.611 E20.02094
G1 X115.242 Y116.298 E20.05433
G1 X114.387 Y116.924 E20.08958
G1 X113.766 Y117.282 E20.11342
G1 X112.962 Y117.641 E20.1427
G1 X112.002 Y117.947 E20.17622
G1 X111.213 Y118.108 E20.203
G1 X110.482 Y118.181 E20.22743
G1 X109.279 Y118.164 E20.26745
G1 X108.472 Y118.056 E20.29453
G1 X107.964 Y117.941 E20.31185
G1 X106.784 Y117.539 E20.35332
G1 X106.084 Y117.201 E20.37917
G1 X105.304 Y116.718 E20.40968
G1 X104.654 Y116.212 E20.43708
G1 X103.996 Y115.581 E20.4674
G1 X103.434 Y114.909 E20.49654
G1 X102.964 Y114.205 E20.52469
G1 X102.496 Y113.299 E20.55861
G1 X102.243 Y112.649 E20.58181
G1 X101.951 Y111.559 E20.61934
G1 X101.858 Y110.957 E20.6396
G1 X101.807 Y109.926 E20.67394
G1 X101.877 Y108.916 E20.70761
G1 X102.036 Y108.06 E20.73657
G1 X102.265 Y107.287 E20.76338
G1 X102.596 Y106.484 E20.79227
G1 X103.002 Y105.736 E20.82058
G1 X103.523 Y104.979 E20.85114
G1 X104.026 Y104.389 E20.87693
G0 F6000 X104.3 Y104.681
G1 F900 X105.032 Y103.994 E20.91032
G1 X105.813 Y103.423 E20.9425
G1 X106.434 Y103.065 E20.96634
G1 X107.16 Y102.74 E20.99279
G1 X108.077 Y102.445 E21.02483
G1 X108.79 Y102.296 E21.04906
G1 X109.603 Y102.213 E21.07624
G1 X110.179 Y102.206 E21.0954
G1 X111.442 Y102.335 E21.13762
G1 X111.908 Y102.438 E21.1535
G1 X113.041 Y102.821 E21.19328
G1 X113.702 Y103.138 E21.21766
G1 X114.45 Y103.598 E21.24687
G1 X115.11 Y104.113 E21.27471
G1 X115.805 Y104.796 E21.30712
G1 X116.34 Y105.456 E21.33538
G1 X116.616 Y105.87 E21.35193
G1 X117.154 Y106.899 E21.39055
G1 X117.418 Y107.596 E21.41534
G1 X117.646 Y108.465 E21.44522
G1 X117.747 Y109.106 E21.4668
G1 X117.794 Y110.047 E21.49814
G1 X117.724 Y111.057 E21.53181
G1 X117.58 Y111.826 E21.55783
G1 X117.351 Y112.599 E21.58465
G1 X117.052 Y113.326 E21.61079
G1 X116.668 Y114.037 E21.63767
G1 X116.147 Y114.794 E21.66823
G1 X115.7 Y115.319 E21.69117
G1 X114.968 Y116.006 E21.72456
G1 X114.187 Y116.577 E21.75673
G1 X113.566 Y116.935 E21.78057
G1 X112.84 Y117.26 E21.80703
G1 X111.922 Y117.555 E21.8391
G1 X111.133 Y117.716 E21.86588
G1 X110.487 Y117.781 E21.88748
G1 X109.331 Y117.767 E21.92593
G1 X108.558 Y117.665 E21.95186
G1 X108.092 Y117.562 E21.96774
G1 X106.957 Y117.178 E22.00759
G1 X106.294 Y116.86 E22.03205
G1 X105.55 Y116.402 E22.0611
G1 X104.9 Y115.896 E22.0885
G1 X104.303 Y115.324 E22.116
G1 X103.741 Y114.652 E22.14514
G1 X103.319 Y114.021 E22.17039
G1 X102.869 Y113.154 E22.20287
G1 X102.616 Y112.504 E22.22607
G1 X102.346 Y111.497 E22.26075
G1 X102.258 Y110.937 E22.2796
G1 X102.207 Y109.906 E22.31394
G1 X102.27 Y108.988 E22.34454
G1 X102.42 Y108.174 E22.37207
G1 X102.649 Y107.401 E22.39889
G1 X102.948 Y106.674 E22.42503
G1 X103.332 Y105.963 E22.45191
G1 X103.853 Y105.206 E22.48247
G1 X104.3 Y104.681 E22.50541
G0 F6000 X104.604 Y104.941
G1 F900 X105.269 Y104.316 E22.53576
G1 X106.014 Y103.769 E22.5665
G1 X106.599 Y103.43 E22.58899
G1 X107.283 Y103.121 E22.61395
G1 X108.159 Y102.837 E22.64458
G1 X108.872 Y102.688 E22.66881
G1 X109.608 Y102.613 E22.69341
G1 X110.184 Y102.606 E22.71257
G1 X111.356 Y102.726 E22.75176
G1 X111.822 Y102.829 E22.76763
G1 X112.868 Y103.182 E22.80435
G1 X113.529 Y103.499 E22.82873
G1 X114.205 Y103.914 E22.85511
G1 X114.83 Y104.399 E22.88143
G1 X115.495 Y105.049 E22.91235
G1 X116.007 Y105.678 E22.93933
G1 X116.283 Y106.092 E22.95588
G1 X116.78 Y107.042 E22.99154
G1 X117.031 Y107.698 E23.0149
G1 X117.259 Y108.567 E23.04478
G1 X117.347 Y109.126 E23.0636
G1 X117.394 Y110.067 E23.09494
G1 X117.331 Y110.984 E23.12551
G1 X117.196 Y111.712 E23.15014
G1 X116.967 Y112.485 E23.17695
G1 X116.682 Y113.173 E23.20172
G1 X116.338 Y113.81 E23.2258
G1 X115.817 Y114.567 E23.25636
G1 X115.396 Y115.059 E23.2779
G1 X114.731 Y115.684 E23.30825
G1 X113.986 Y116.231 E23.339
G1 X113.401 Y116.57 E23.36148
G1 X112.717 Y116.879 E23.38645
G1 X111.841 Y117.163 E23.41708
G1 X111.091 Y117.318 E23.44255
G1 X110.491 Y117.381 E23.46261
G1 X109.383 Y117.37 E23.49947
G1 X108.644 Y117.274 E23.52425
G1 X108.178 Y117.171 E23.54013
G1 X107.13 Y116.817 E23.57692
G1 X106.467 Y116.499 E23.60138
G1 X105.795 Y116.086 E23.62761
G1 X105.177 Y115.607 E23.65362
G1 X104.58 Y115.035 E23.68112
G1 X104.073 Y114.428 E23.70742
G1 X103.674 Y113.836 E23.73116
G1 X103.242 Y113.009 E23.7622
G1 X102.989 Y112.359 E23.7854
G1 X102.741 Y111.434 E23.81725
G1 X102.658 Y110.917 E23.83466
G1 X102.607 Y109.886 E23.869
G1 X102.663 Y109.06 E23.89653
G1 X102.804 Y108.288 E23.92264
G1 X103.033 Y107.515 E23.94945
G1 X103.318 Y106.827 E23.97422
G1 X103.662 Y106.19 E23.9983
G1 X104.183 Y105.433 E24.02886
G1 X104.604 Y104.941 E24.0504
G0 F6000 X104.907 Y105.202
G1 F900 X105.507 Y104.638 E24.07779
G1 X106.215 Y104.115 E24.10706
G1 X106.8 Y103.776 E24.12955
G1 X107.407 Y103.501 E24.15172
G1 X108.241 Y103.229 E24.18089
G1 X108.954 Y103.08 E24.20512
G1 X109.613 Y103.013 E24.22715
G1 X110.189 Y103.006 E24.24631
G1 X111.27 Y103.117 E24.28245
G1 X111.736 Y103.22 E24.29833
G1 X112.695 Y103.543 E24.33198
G1 X113.356 Y103.86 E24.35637
G1 X113.961 Y104.231 E24.37997
G1 X114.55 Y104.685 E24.40471
G1 X115.215 Y105.335 E24.43563
G1 X115.674 Y105.9 E24.45985
G1 X115.95 Y106.314 E24.4764
G1 X116.406 Y107.185 E24.50909
G1 X116.657 Y107.841 E24.53246
G1 X116.864 Y108.631 E24.55962
G1 X116.947 Y109.146 E24.57697
G1 X116.994 Y110.087 E24.60831
G1 X116.938 Y110.912 E24.63581
G1 X116.812 Y111.598 E24.65901
G1 X116.583 Y112.371 E24.68582
G1 X116.329 Y112.984 E24.70789
G1 X116.008 Y113.583 E24.73049
G1 X115.487 Y114.34 E24.76106
G1 X115.093 Y114.798 E24.78115
G1 X114.493 Y115.362 E24.80854
G1 X113.785 Y115.885 E24.83782
G1 X113.2 Y116.224 E24.86031
G1 X112.593 Y116.499 E24.88247
G1 X111.759 Y116.771 E24.91165
G1 X111.047 Y116.92 E24.93584
G1 X110.494 Y116.981 E24.95434
G1 X109.434 Y116.973 E24.9896
G1 X108.73 Y116.883 E25.01321
G1 X108.264 Y116.78 E25.02908
G1 X107.303 Y116.456 E25.06281
G1 X106.64 Y116.138 E25.08727
G1 X106.039 Y115.769 E25.11072
G1 X105.454 Y115.318 E25.13529
G1 X104.857 Y114.746 E25.16279
G1 X104.405 Y114.204 E25.18627
G1 X104.006 Y113.612 E25.21001
G1 X103.615 Y112.864 E25.23808
G1 X103.362 Y112.214 E25.26128
G1 X103.136 Y111.369 E25.29037
G1 X103.058 Y110.897 E25.30629
G1 X103.007 Y109.866 E25.34062
G1 X103.062 Y109.088 E25.36656
G1 X103.188 Y108.402 E25.38976
G1 X103.417 Y107.629 E25.41657
G1 X103.671 Y107.016 E25.43864
G1 X103.992 Y106.417 E25.46125
G1 X104.513 Y105.66 E25.49181
G1 X104.907 Y105.202 E25.5119
G0 F6000 X105.21 Y105.463
G1 F900 X105.746 Y104.959 E25.53637
G1 X106.416 Y104.461 E25.56414
G1 X107.001 Y104.122 E25.58663
G1 X107.532 Y103.881 E25.60602
G1 X108.323 Y103.621 E25.63372
G1 X109.036 Y103.472 E25.65794
G1 X109.618 Y103.413 E25.6774
G1 X110.194 Y103.406 E25.69656
G1 X111.184 Y103.508 E25.72966
G1 X111.65 Y103.611 E25.74553
G1 X112.522 Y103.904 E25.77613
G1 X113.183 Y104.221 E25.80051
G1 X113.718 Y104.549 E25.82139
G1 X114.271 Y104.972 E25.84454
G1 X114.905 Y105.588 E25.87394
G1 X115.341 Y106.122 E25.89687
G1 X115.617 Y106.536 E25.91342
G1 X116.032 Y107.328 E25.94316
G1 X116.283 Y107.984 E25.96652
G1 X116.469 Y108.696 E25.991
G1 X116.547 Y109.166 E26.00684
G1 X116.594 Y110.107 E26.03818
G1 X116.544 Y110.841 E26.06265
G1 X116.428 Y111.485 E26.08441
G1 X116.213 Y112.218 E26.10982
G1 X115.959 Y112.831 E26.13189
G1 X115.678 Y113.357 E26.15173
G1 X115.184 Y114.079 E26.18082
G1 X114.79 Y114.537 E26.20092
G1 X114.254 Y115.041 E26.22539
G1 X113.584 Y115.539 E26.25315
G1 X112.999 Y115.878 E26.27564
G1 X112.468 Y116.119 E26.29504
G1 X111.677 Y116.379 E26.32273
G1 X110.965 Y116.528 E26.34692
G1 X110.496 Y116.581 E26.36262
G1 X109.484 Y116.576 E26.39628
G1 X108.816 Y116.492 E26.41868
G1 X108.35 Y116.389 E26.43455
G1 X107.476 Y116.095 E26.46522
G1 X106.813 Y115.777 E26.48968
G1 X106.282 Y115.451 E26.5104
G1 X105.731 Y115.029 E26.53348
G1 X105.134 Y114.457 E26.56098
G1 X104.737 Y113.98 E26.58162
G1 X104.338 Y113.388 E26.60537
G1 X103.988 Y112.719 E26.63048
G1 X103.735 Y112.069 E26.65368
G1 X103.531 Y111.304 E26.68001
G1 X103.453 Y110.832 E26.69592
G1 X103.406 Y109.893 E26.72719
G1 X103.456 Y109.159 E26.75166
G1 X103.572 Y108.515 E26.77343
G1 X103.787 Y107.782 E26.79883
G1 X104.041 Y107.169 E26.8209
G1 X104.322 Y106.643 E26.84074
G1 X104.816 Y105.921 E26.86984
G1 X105.21 Y105.463 E26.88993
G0 F6000 X105.513 Y105.724
G1 F900 X105.985 Y105.279 E26.91151
G1 X106.617 Y104.807 E26.93774
G1 X107.168 Y104.486 E26.95895
G1 X107.658 Y104.261 E26.97688
G1 X108.405 Y104.013 E27.00306
G1 X109.118 Y103.864 E27.02729
G1 X109.623 Y103.813 E27.04417
G1 X110.199 Y103.806 E27.06333
G1 X111.098 Y103.899 E27.09339
G1 X111.564 Y104.002 E27.10926
G1 X112.35 Y104.265 E27.13683
G1 X112.975 Y104.563 E27.15986
G1 X113.476 Y104.868 E27.17937
G1 X113.993 Y105.26 E27.20095
G1 X114.596 Y105.842 E27.22882
G1 X115.009 Y106.346 E27.2505
G1 X115.263 Y106.723 E27.26561
G1 X115.658 Y107.471 E27.29375
G1 X115.909 Y108.127 E27.31711
G1 X116.074 Y108.761 E27.3389
G1 X116.152 Y109.231 E27.35475
G1 X116.195 Y110.081 E27.38305
G1 X116.15 Y110.772 E27.40608
G1 X116.044 Y111.373 E27.42638
G1 X115.843 Y112.065 E27.45035
G1 X115.589 Y112.678 E27.47242
G1 X115.347 Y113.132 E27.48953
G1 X114.881 Y113.818 E27.51711
G1 X114.487 Y114.276 E27.53721
G1 X114.015 Y114.721 E27.55878
G1 X113.383 Y115.193 E27.58502
G1 X112.832 Y115.514 E27.60623
G1 X112.342 Y115.739 E27.62416
G1 X111.595 Y115.987 E27.65034
G1 X110.883 Y116.136 E27.67453
G1 X110.453 Y116.183 E27.68892
G1 X109.533 Y116.179 E27.71952
G1 X108.902 Y116.101 E27.74067
G1 X108.436 Y115.998 E27.75654
G1 X107.648 Y115.734 E27.78418
G1 X107.021 Y115.435 E27.80729
G1 X106.524 Y115.132 E27.82665
G1 X106.008 Y114.74 E27.8482
G1 X105.411 Y114.168 E27.8757
G1 X105.069 Y113.756 E27.89351
G1 X104.67 Y113.164 E27.91725
G1 X104.36 Y112.572 E27.93948
G1 X104.121 Y111.965 E27.96118
G1 X103.926 Y111.239 E27.98618
G1 X103.848 Y110.767 E28.00209
G1 X103.805 Y109.919 E28.03033
G1 X103.85 Y109.228 E28.05336
G1 X103.956 Y108.627 E28.07366
G1 X104.157 Y107.935 E28.09763
G1 X104.411 Y107.322 E28.1197
G1 X104.653 Y106.868 E28.13681
G1 X105.119 Y106.182 E28.16439
G1 X105.513 Y105.724 E28.18449
G0 F6000 X105.815 Y105.986
G1 F900 X106.258 Y105.571 E28.20468
G1 X106.819 Y105.152 E28.22796
G1 X107.335 Y104.85 E28.24785
G1 X107.825 Y104.625 E28.26578
G1 X108.488 Y104.404 E28.28903
G1 X109.16 Y104.262 E28.31187
G1 X109.628 Y104.213 E28.32752
G1 X110.204 Y104.206 E28.34668
G1 X111.012 Y104.29 E28.3737
G1 X111.478 Y104.393 E28.38957
G1 X112.179 Y104.627 E28.41415
G1 X112.767 Y104.905 E28.43579
G1 X113.268 Y105.21 E28.4553
G1 X113.716 Y105.549 E28.47398
G1 X114.287 Y106.096 E28.50028
G1 X114.677 Y106.57 E28.5207
G1 X114.931 Y106.947 E28.53582
G1 X115.285 Y107.615 E28.56096
G1 X115.522 Y108.229 E28.58285
G1 X115.679 Y108.826 E28.60338
G1 X115.757 Y109.296 E28.61923
G1 X115.796 Y110.056 E28.64454
G1 X115.756 Y110.704 E28.66613
G1 X115.659 Y111.263 E28.685
G1 X115.473 Y111.912 E28.70746
G1 X115.219 Y112.525 E28.72953
G1 X115.016 Y112.907 E28.74392
G1 X114.55 Y113.593 E28.7715
G1 X114.185 Y114.014 E28.79003
G1 X113.742 Y114.429 E28.81022
G1 X113.181 Y114.848 E28.83351
G1 X112.665 Y115.15 E28.8534
G1 X112.175 Y115.375 E28.87133
G1 X111.512 Y115.596 E28.89457
G1 X110.84 Y115.738 E28.91742
G1 X110.41 Y115.785 E28.9318
G1 X109.581 Y115.782 E28.95938
G1 X108.988 Y115.71 E28.97925
G1 X108.522 Y115.607 E28.99512
G1 X107.819 Y115.372 E29.01977
G1 X107.229 Y115.093 E29.04148
G1 X106.732 Y114.79 E29.06084
G1 X106.284 Y114.451 E29.07952
G1 X105.718 Y113.911 E29.10554
G1 X105.401 Y113.532 E29.12198
G1 X105.002 Y112.94 E29.14572
G1 X104.732 Y112.424 E29.16509
G1 X104.507 Y111.86 E29.18529
G1 X104.321 Y111.174 E29.20893
G1 X104.243 Y110.702 E29.22484
G1 X104.204 Y109.944 E29.25008
G1 X104.244 Y109.296 E29.27168
G1 X104.341 Y108.737 E29.29055
G1 X104.527 Y108.088 E29.313
G1 X104.781 Y107.475 E29.33507
G1 X104.984 Y107.093 E29.34946
G1 X105.45 Y106.407 E29.37704
G1 X105.815 Y105.986 E29.39558
G0 F6000 X106.117 Y106.248
M104 S240
G1 F900 X106.498 Y105.891 E29.41294
G1 X107.022 Y105.497 E29.43475
G1 X107.502 Y105.214 E29.45328
G1 X107.992 Y104.989 E29.47121
G1 X108.613 Y104.784 E29.49296
G1 X109.203 Y104.66 E29.51302
G1 X109.633 Y104.613 E29.5274
G1 X110.209 Y104.606 E29.54656
G1 X110.926 Y104.681 E29.57054
G1 X111.392 Y104.784 E29.58641
G1 X112.051 Y105.006 E29.60954
G1 X112.559 Y105.247 E29.62824
G1 X113.06 Y105.552 E29.64775
G1 X113.473 Y105.867 E29.66503
G1 X113.979 Y106.351 E29.68832
G1 X114.345 Y106.794 E29.70743
G1 X114.599 Y107.171 E29.72255
G1 X114.912 Y107.761 E29.74476
G1 X115.135 Y108.332 E29.76515
G1 X115.284 Y108.891 E29.78439
G1 X115.362 Y109.361 E29.80024
G1 X115.397 Y110.033 E29.82262
G1 X115.362 Y110.637 E29.84274
G1 X115.274 Y111.153 E29.86015
G1 X115.088 Y111.802 E29.88261
G1 X114.866 Y112.337 E29.90187
G1 X114.663 Y112.719 E29.91626
G1 X114.248 Y113.331 E29.94085
G1 X113.883 Y113.752 E29.95939
G1 X113.502 Y114.109 E29.97675
G1 X112.978 Y114.503 E29.99856
G1 X112.498 Y114.786 E30.01709
G1 X112.008 Y115.011 E30.03502
G1 X111.387 Y115.216 E30.05678
G1 X110.797 Y115.34 E30.07683
G1 X110.367 Y115.387 E30.09121
G1 X109.628 Y115.385 E30.11579
G1 X109.074 Y115.319 E30.13435
G1 X108.608 Y115.216 E30.15022
G1 X107.947 Y114.993 E30.17343
G1 X107.437 Y114.751 E30.1922
G1 X106.94 Y114.448 E30.21156
G1 X106.527 Y114.133 E30.22884
G1 X106.024 Y113.653 E30.25196
G1 X105.733 Y113.308 E30.26697
G1 X105.334 Y112.716 E30.29072
G1 X105.104 Y112.276 E30.30723
G1 X104.879 Y111.712 E30.32743
G1 X104.716 Y111.109 E30.3482
G1 X104.638 Y110.637 E30.36412
G1 X104.603 Y109.967 E30.38643
G1 X104.638 Y109.363 E30.40655
G1 X104.726 Y108.847 E30.42396
G1 X104.912 Y108.198 E30.44642
G1 X105.134 Y107.663 E30.46568
G1 X105.337 Y107.281 E30.48007
G1 X105.752 Y106.669 E30.50467
G1 X106.117 Y106.248 E30.5232
G0 F6000 X106.392 Y106.539
G1 F900 X106.74 Y106.21 E30.53913
G1 X107.225 Y105.842 E30.55938
G1 X107.705 Y105.559 E30.57791
G1 X108.119 Y105.368 E30.59307
G1 X108.696 Y105.175 E30.61331
G1 X109.246 Y105.058 E30.63201
G1 X109.676 Y105.011 E30.6464
G1 X110.213 Y105.006 E30.66426
G1 X110.84 Y105.072 E30.68523
G1 X111.306 Y105.175 E30.7011
G1 X111.881 Y105.368 E30.72128
G1 X112.351 Y105.589 E30.73855
G1 X112.852 Y105.894 E30.75806
G1 X113.229 Y106.184 E30.77388
G1 X113.671 Y106.606 E30.7942
G1 X114.013 Y107.018 E30.81201
G1 X114.267 Y107.395 E30.82713
G1 X114.54 Y107.908 E30.84646
G1 X114.749 Y108.436 E30.86535
G1 X114.889 Y108.956 E30.88326
G1 X114.967 Y109.426 E30.8991
G1 X114.998 Y110.011 E30.91859
G1 X114.967 Y110.572 E30.93728
G1 X114.889 Y111.044 E30.95319
G1 X114.718 Y111.65 E30.97413
G1 X114.513 Y112.149 E30.99207
G1 X114.31 Y112.531 E31.00646
G1 X113.945 Y113.07 E31.02811
G1 X113.608 Y113.461 E31.04528
G1 X113.26 Y113.79 E31.06121
G1 X112.775 Y114.158 E31.08146
G1 X112.295 Y114.441 E31.09999
G1 X111.881 Y114.632 E31.11516
G1 X111.304 Y114.825 E31.13539
G1 X110.754 Y114.942 E31.15409
G1 X110.324 Y114.989 E31.16848
G1 X109.674 Y114.988 E31.1901
G1 X109.16 Y114.928 E31.20731
G1 X108.694 Y114.825 E31.22319
G1 X108.117 Y114.631 E31.24343
G1 X107.645 Y114.409 E31.26078
G1 X107.148 Y114.106 E31.28014
G1 X106.771 Y113.816 E31.29596
G1 X106.33 Y113.395 E31.31624
G1 X106.039 Y113.05 E31.33125
G1 X105.688 Y112.529 E31.35214
G1 X105.476 Y112.128 E31.36723
G1 X105.251 Y111.564 E31.38743
G1 X105.111 Y111.044 E31.40534
G1 X105.033 Y110.572 E31.42125
G1 X105.002 Y109.989 E31.44067
G1 X105.033 Y109.428 E31.45936
G1 X105.111 Y108.956 E31.47527
G1 X105.282 Y108.35 E31.49621
G1 X105.487 Y107.851 E31.51415
G1 X105.69 Y107.469 E31.52854
G1 X106.055 Y106.93 E31.55019
G1 X106.392 Y106.539 E31.56736
G0 F6000 X106.942 Y107.121
G1 F900 X107.29 Y106.792 E31.58329
G1 X107.635 Y106.529 E31.59772
G1 X108.041 Y106.285 E31.61347
G1 X108.455 Y106.094 E31.62864
G1 X108.866 Y105.957 E31.64305
G1 X109.332 Y105.854 E31.65892
G1 X109.762 Y105.807 E31.67331
G1 X110.216 Y105.806 E31.68841
G1 X110.668 Y105.854 E31.70352
G1 X111.134 Y105.957 E31.7194
G1 X111.545 Y106.094 E31.73381
G1 X111.976 Y106.294 E31.74961
G1 X112.365 Y106.529 E31.76473
G1 X112.71 Y106.792 E31.77915
G1 X113.058 Y107.121 E31.79508
G1 X113.349 Y107.466 E31.81009
G1 X113.603 Y107.843 E31.82521
G1 X113.815 Y108.244 E31.8403
G1 X113.978 Y108.649 E31.85482
G1 X114.099 Y109.086 E31.8699
G1 X114.177 Y109.556 E31.88575
G1 X114.2 Y110.01 E31.90087
G1 X114.177 Y110.442 E31.91526
G1 X114.099 Y110.914 E31.93117
G1 X113.977 Y111.35 E31.94623
G1 X113.807 Y111.773 E31.96139
G1 X113.604 Y112.155 E31.97578
G1 X113.336 Y112.551 E31.99168
G1 X113.058 Y112.879 E32.00598
G1 X112.71 Y113.208 E32.02191
G1 X112.365 Y113.471 E32.03634
G1 X111.959 Y113.715 E32.05209
G1 X111.545 Y113.906 E32.06726
G1 X111.134 Y114.043 E32.08167
G1 X110.668 Y114.146 E32.09754
G1 X110.238 Y114.193 E32.11193
G1 X109.762 Y114.193 E32.12776
G1 X109.332 Y114.146 E32.14215
G1 X108.866 Y114.043 E32.15802
G1 X108.455 Y113.906 E32.17243
G1 X108.022 Y113.705 E32.18831
G1 X107.635 Y113.471 E32.20335
G1 X107.29 Y113.208 E32.21778
G1 X106.942 Y112.879 E32.23371
G1 X106.651 Y112.534 E32.24872
G1 X106.396 Y112.155 E32.26391
G1 X106.184 Y111.754 E32.279
G1 X106.022 Y111.351 E32.29344
G1 X105.901 Y110.914 E32.30852
G1 X105.823 Y110.442 E32.32444
G1 X105.8 Y109.99 E32.33949
G1 X105.823 Y109.558 E32.35388
G1 X105.901 Y109.086 E32.36979
G1 X106.023 Y108.65 E32.38485
G1 X106.193 Y108.227 E32.40001
G1 X106.396 Y107.845 E32.4144
G1 X106.664 Y107.449 E32.4303
G1 X106.942 Y107.121 E32.4446
G0 F6000 X106.667 Y106.83
G1 F900 X107.015 Y106.501 E32.46053
G1 X107.429 Y106.186 E32.47783
G1 X107.873 Y105.922 E32.49501
G1 X108.287 Y105.731 E32.51018
G1 X108.78 Y105.566 E32.52747
G1 X109.289 Y105.456 E32.54479
G1 X109.719 Y105.409 E32.55918
G1 X110.215 Y105.406 E32.57568
G1 X110.754 Y105.463 E32.5937
G1 X111.22 Y105.566 E32.60958
G1 X111.713 Y105.731 E32.62687
G1 X112.144 Y105.931 E32.64267
G1 X112.608 Y106.211 E32.6607
G1 X112.985 Y106.501 E32.67651
G1 X113.364 Y106.863 E32.69395
G1 X113.681 Y107.242 E32.71038
G1 X113.935 Y107.619 E32.7255
G1 X114.169 Y108.057 E32.74202
G1 X114.363 Y108.542 E32.75939
G1 X114.494 Y109.021 E32.77591
G1 X114.572 Y109.491 E32.79175
G1 X114.599 Y109.99 E32.80837
G1 X114.572 Y110.507 E32.82559
G1 X114.494 Y110.979 E32.8415
G1 X114.348 Y111.499 E32.85947
G1 X114.16 Y111.961 E32.87606
G1 X113.957 Y112.343 E32.89045
G1 X113.641 Y112.81 E32.9092
G1 X113.333 Y113.17 E32.92496
G1 X112.985 Y113.499 E32.94089
G1 X112.571 Y113.814 E32.95819
G1 X112.127 Y114.078 E32.97537
G1 X111.713 Y114.269 E32.99053
G1 X111.22 Y114.434 E33.00783
G1 X110.711 Y114.544 E33.02515
G1 X110.281 Y114.591 E33.03953
G1 X109.719 Y114.591 E33.05822
G1 X109.246 Y114.537 E33.07406
G1 X108.78 Y114.434 E33.08993
G1 X108.287 Y114.269 E33.10722
G1 X107.815 Y114.047 E33.12457
G1 X107.392 Y113.789 E33.14105
G1 X107.015 Y113.499 E33.15687
G1 X106.636 Y113.137 E33.1743
G1 X106.345 Y112.792 E33.18931
G1 X106.042 Y112.342 E33.20736
G1 X105.83 Y111.941 E33.22245
G1 X105.637 Y111.458 E33.23974
G1 X105.506 Y110.979 E33.25626
G1 X105.428 Y110.507 E33.27217
G1 X105.401 Y110.01 E33.28873
G1 X105.428 Y109.493 E33.30595
G1 X105.506 Y109.021 E33.32186
G1 X105.652 Y108.501 E33.33982
G1 X105.84 Y108.039 E33.35641
G1 X106.043 Y107.657 E33.3708
G1 X106.359 Y107.19 E33.38955
G1 X106.667 Y106.83 E33.40531
G1 F2700 E28.40531
;MESH:turret_drive_bearing.obj
G0 F6000 X107.412 Y107.54
G0 X107.976 Y109.997
G0 X108.986 Y111.752
G0 X110 Y112.377
;TYPE:WALL-INNER
G1 F2700 E33.40531
G1 F684.4 X109.566 Y112.371 E33.4243
G1 F708.7 X109.244 Y112.353 E33.43792
G1 F762.7 X108.977 Y112.3 E33.4486
G1 F796.5 X108.598 Y112.104 E33.46464
G1 F754.7 X108.386 Y111.904 E33.4762
G1 F685.7 X107.964 Y111.236 E33.51069
G1 F676.7 X107.685 Y110.726 E33.53641
G1 F717.1 X107.564 Y110.479 E33.54789
G1 F769.2 X107.489 Y110.23 E33.55801
G1 F803.6 X107.468 Y109.94 E33.56884
G1 F775.9 X107.563 Y109.515 E33.58564
G1 F704.5 X107.812 Y109.027 E33.60892
G1 F671.6 X108.105 Y108.523 E33.6349
G1 F695 X108.394 Y108.083 E33.65757
G1 F759.5 X108.604 Y107.888 E33.66887
G1 F807.2 X108.819 Y107.758 E33.67819
G1 F769.2 X109.247 Y107.643 E33.69543
G1 F696.3 X109.855 Y107.618 E33.72159
G1 F671.6 X110.433 Y107.627 E33.74736
G1 F703.1 X110.891 Y107.655 E33.76689
G1 F766 X111.203 Y107.771 E33.7799
G1 F807.2 X111.395 Y107.89 E33.78828
G1 F769.2 X111.66 Y108.169 E33.80325
G1 F704.5 X111.891 Y108.523 E33.82121
G1 F670.4 X112.186 Y109.027 E33.84729
G1 F703.1 X112.436 Y109.52 E33.87082
G1 F769.2 X112.509 Y109.758 E33.88051
G1 F796.5 X112.539 Y110.149 E33.89525
G1 F772.5 X112.437 Y110.476 E33.90852
G1 F720 X112.313 Y110.731 E33.92031
G1 F678 X112.039 Y111.229 E33.9454
G1 F684.4 X111.614 Y111.901 E33.98018
G1 F753.1 X111.4 Y112.102 E33.99185
G1 F807.2 X111.189 Y112.234 E34.00108
G1 F759.5 X110.849 Y112.35 E34.01524
G1 F688.3 X110.142 Y112.379 E34.04601
G1 F672.9 X110 Y112.377 E34.05233
G0 F6000 X110 Y111.903
G1 F900 X109.155 Y111.902 E34.08043
G1 X108.99 Y111.853 E34.08616
G1 X108.769 Y111.676 E34.09557
G1 X107.956 Y110.274 E34.14948
G1 X107.888 Y109.963 E34.16007
G1 X107.955 Y109.719 E34.16848
G1 X108.761 Y108.33 E34.22189
G1 X108.994 Y108.142 E34.23185
G1 X109.159 Y108.088 E34.23763
G1 X110.84 Y108.092 E34.29354
G1 X111.008 Y108.146 E34.29941
G1 X111.226 Y108.305 E34.30838
G1 X112.045 Y109.723 E34.36285
G1 X112.112 Y110.033 E34.37339
G1 X112.046 Y110.275 E34.38174
G1 X111.245 Y111.656 E34.43484
G1 X111.009 Y111.852 E34.44504
G1 X110.839 Y111.903 E34.45094
G1 X110 Y111.903 E34.47885
G0 F6000 X109.999 Y112.219
G0 X110 Y112.921
G1 F664.2 X110.156 Y112.921 E34.48588
G1 F674.2 X110.489 Y112.891 E34.50072
G1 F705.9 X110.796 Y112.84 E34.51392
G1 F753.1 X111.089 Y112.76 E34.52599
G1 F793 X111.407 Y112.62 E34.53911
G1 F807.2 X111.666 Y112.461 E34.55038
G1 F782.6 X111.919 Y112.256 E34.56284
G1 F734.7 X112.135 Y112.024 E34.57575
G1 F689.7 X112.34 Y111.758 E34.59033
G1 F667.9 X112.505 Y111.507 E34.60379
G1 F664.2 X112.663 Y111.219 E34.61859
G1 F681.8 X112.782 Y110.943 E34.63179
G1 F720 X112.883 Y110.651 E34.64463
G1 F772.5 X112.954 Y110.318 E34.65783
G1 F803.6 X112.977 Y110 E34.6697
G1 X112.953 Y109.669 E34.68207
G1 F769.2 X112.883 Y109.345 E34.69497
G1 F717.1 X112.777 Y109.041 E34.70841
G1 F679.2 X112.664 Y108.78 E34.72094
G1 F664.2 X112.495 Y108.474 E34.73669
G1 F667.9 X112.334 Y108.228 E34.74987
G1 F691 X112.138 Y107.979 E34.7636
G1 F737.7 X111.917 Y107.74 E34.77681
G1 F786 X111.66 Y107.53 E34.78945
G1 F807.2 X111.37 Y107.359 E34.80193
G1 F793 X111.077 Y107.236 E34.81393
G1 F751.6 X110.791 Y107.156 E34.82576
G1 F703.1 X110.462 Y107.102 E34.83995
G1 F672.9 X110.156 Y107.076 E34.85361
G1 F664.2 X109.84 Y107.075 E34.86785
G1 F672.9 X109.511 Y107.105 E34.88255
G1 F704.5 X109.206 Y107.154 E34.89567
G1 F753.1 X108.91 Y107.238 E34.9079
G1 F794.7 X108.593 Y107.373 E34.92088
G1 F807.2 X108.33 Y107.536 E34.93236
G1 F786 X108.087 Y107.733 E34.94427
G1 F737.7 X107.85 Y107.988 E34.9584
G1 F692.3 X107.663 Y108.228 E34.97155
G1 F667.9 X107.497 Y108.482 E34.98515
G1 F665.4 X107.336 Y108.78 E35.00039
G1 F680.5 X107.213 Y109.057 E35.01372
G1 F717.1 X107.113 Y109.353 E35.02676
G1 F769.2 X107.046 Y109.677 E35.03963
G1 F803.6 X107.023 Y110 E35.0517
G1 X107.046 Y110.323 E35.06376
G1 F767.6 X107.115 Y110.656 E35.07702
G1 F717.1 X107.219 Y110.951 E35.09008
G1 F679.2 X107.341 Y111.228 E35.10342
G1 F664.2 X107.503 Y111.522 E35.11855
G1 F666.7 X107.665 Y111.773 E35.13196
G1 F689.7 X107.848 Y112.01 E35.14496
G1 F736.2 X108.089 Y112.265 E35.15922
G1 F786 X108.332 Y112.462 E35.17114
G1 F807.2 X108.625 Y112.638 E35.18381
G1 F766 X109.072 Y112.82 E35.20267
G1 F705.9 X109.524 Y112.894 E35.2221
G1 F674.2 X109.84 Y112.921 E35.23618
G1 F664.2 X110 Y112.921 E35.24339
G0 F6000 X110 Y113.392
G1 F900 X110.182 Y113.392 E35.24944
G1 X110.551 Y113.351 E35.26179
G1 X110.913 Y113.272 E35.27411
G1 X111.249 Y113.161 E35.28588
G1 X111.597 Y112.998 E35.29866
G1 X111.903 Y112.813 E35.31056
G1 X112.191 Y112.597 E35.32253
G1 X112.466 Y112.335 E35.33516
G1 X112.705 Y112.052 E35.34748
G1 X112.91 Y111.752 E35.35957
G1 X113.09 Y111.416 E35.37225
G1 X113.218 Y111.089 E35.38393
G1 X113.317 Y110.733 E35.39622
G1 X113.378 Y110.365 E35.40862
G1 X113.399 Y110 E35.42078
G1 X113.378 Y109.634 E35.43298
G1 X113.317 Y109.262 E35.44552
G1 X113.218 Y108.907 E35.45777
G1 X113.091 Y108.581 E35.46941
G1 X112.906 Y108.24 E35.48231
G1 X112.706 Y107.945 E35.49417
G1 X112.468 Y107.666 E35.50636
G1 X112.189 Y107.401 E35.51916
G1 X111.898 Y107.178 E35.53136
G1 X111.599 Y107 E35.54293
G1 X111.249 Y106.839 E35.55574
G1 X110.911 Y106.724 E35.56762
G1 X110.55 Y106.645 E35.57991
G1 X110.182 Y106.605 E35.59222
G1 X109.814 Y106.604 E35.60446
G1 X109.449 Y106.645 E35.61668
G1 X109.086 Y106.723 E35.62903
G1 X108.751 Y106.838 E35.64081
G1 X108.396 Y107 E35.65379
G1 X108.102 Y107.178 E35.66522
G1 X107.805 Y107.402 E35.67759
G1 X107.529 Y107.666 E35.69029
G1 X107.291 Y107.945 E35.70249
G1 X107.092 Y108.238 E35.71427
G1 X106.91 Y108.582 E35.72721
G1 X106.777 Y108.909 E35.73896
G1 X106.68 Y109.26 E35.75107
G1 X106.622 Y109.632 E35.76359
G1 X106.601 Y110 E35.77585
G1 X106.622 Y110.368 E35.78811
G1 X106.679 Y110.736 E35.80049
G1 X106.778 Y111.086 E35.81259
G1 X106.909 Y111.413 E35.82431
G1 X107.091 Y111.754 E35.83716
G1 X107.292 Y112.054 E35.84918
G1 X107.528 Y112.334 E35.86136
G1 X107.809 Y112.597 E35.87416
G1 X108.094 Y112.814 E35.88607
G1 X108.399 Y112.996 E35.89788
G1 X108.751 Y113.161 E35.91081
G1 X109.083 Y113.272 E35.92246
G1 X109.449 Y113.35 E35.9349
G1 X109.814 Y113.392 E35.94712
G1 X110 Y113.392 E35.95331
G0 F6000 X110 Y113.792
;TYPE:WALL-OUTER
G1 F900 X110.204 Y113.792 E35.96009
G1 X110.615 Y113.746 E35.97385
G1 X111.019 Y113.658 E35.9876
G1 X111.397 Y113.533 E36.00084
G1 X111.785 Y113.351 E36.0151
G1 X112.127 Y113.145 E36.02838
G1 X112.45 Y112.903 E36.0418
G1 X112.758 Y112.61 E36.05594
G1 X113.024 Y112.294 E36.06968
G1 X113.252 Y111.96 E36.08313
G1 X113.454 Y111.584 E36.09732
G1 X113.598 Y111.216 E36.11047
G1 X113.708 Y110.82 E36.12414
G1 X113.776 Y110.409 E36.13799
G1 X113.799 Y110 E36.15162
G1 X113.776 Y109.59 E36.16528
G1 X113.708 Y109.176 E36.17923
G1 X113.598 Y108.78 E36.1929
G1 X113.454 Y108.413 E36.20601
G1 X113.248 Y108.032 E36.22042
G1 X113.024 Y107.702 E36.23368
G1 X112.758 Y107.39 E36.24732
G1 X112.449 Y107.097 E36.26148
G1 X112.123 Y106.846 E36.27517
G1 X111.786 Y106.646 E36.2882
G1 X111.397 Y106.467 E36.30244
G1 X111.018 Y106.338 E36.31576
G1 X110.615 Y106.25 E36.32948
G1 X110.204 Y106.205 E36.34323
G1 X109.792 Y106.204 E36.35694
G1 X109.385 Y106.25 E36.37056
G1 X108.978 Y106.337 E36.3844
G1 X108.603 Y106.466 E36.39759
G1 X108.21 Y106.646 E36.41197
G1 X107.877 Y106.846 E36.42489
G1 X107.546 Y107.097 E36.4387
G1 X107.238 Y107.39 E36.45284
G1 X106.972 Y107.702 E36.46648
G1 X106.748 Y108.032 E36.47975
G1 X106.546 Y108.413 E36.49409
G1 X106.398 Y108.781 E36.50728
G1 X106.288 Y109.175 E36.52089
G1 X106.224 Y109.59 E36.53485
G1 X106.201 Y110 E36.54851
G1 X106.224 Y110.41 E36.56217
G1 X106.288 Y110.821 E36.576
G1 X106.398 Y111.215 E36.58961
G1 X106.546 Y111.583 E36.6028
G1 X106.748 Y111.96 E36.61703
G1 X106.972 Y112.295 E36.63043
G1 X107.238 Y112.61 E36.64414
G1 X107.55 Y112.903 E36.65838
G1 X107.869 Y113.146 E36.67172
G1 X108.211 Y113.35 E36.68496
G1 X108.603 Y113.533 E36.69935
G1 X108.977 Y113.658 E36.71247
G1 X109.385 Y113.746 E36.72635
G1 X109.792 Y113.792 E36.73997
G1 X110 Y113.792 E36.74689
G1 F2700 E31.74689
G0 F6000 X110 Y113.484
G0 X109.999 Y111.819
G0 X110 Y111.506
G1 F2700 E36.74689
G1 F900 X109.204 Y111.505 E36.77336
G1 X109.085 Y111.431 E36.77803
G1 X108.298 Y110.061 E36.83057
G1 X108.292 Y109.932 E36.83487
G1 X109.085 Y108.565 E36.88743
G1 X109.204 Y108.491 E36.89209
G1 X110.796 Y108.495 E36.94504
G1 X110.904 Y108.556 E36.94917
G1 X111.705 Y109.934 E37.00218
G1 X111.701 Y110.067 E37.00661
G1 X110.911 Y111.431 E37.05903
G1 X110.781 Y111.507 E37.06404
G1 X110 Y111.506 E37.09002
G0 F6000 X109.998 Y112.519
;MESH:NONMESH
G0 F300 X109.998 Y112.519 Z0.6
G0 F6000 X110 Y112.377
;TIME_ELAPSED:81.394876
;LAYER:1
;note -- min layer time used
M140 S50
M106 S42.5
;TYPE:WALL-INNER
;MESH:turret_drive_bearing.obj
G1 F474.5 X109.566 Y112.371 E37.12799
G1 F491.3 X109.244 Y112.353 E37.15523
G1 F528.8 X108.977 Y112.3 E37.1766
G1 F552.2 X108.598 Y112.104 E37.20867
G1 F523.2 X108.386 Y111.904 E37.23179
G1 F475.4 X107.964 Y111.236 E37.30078
G1 F469.1 X107.685 Y110.726 E37.35221
G1 F497.2 X107.564 Y110.479 E37.37517
G1 F533.3 X107.489 Y110.23 E37.39541
G1 F557.1 X107.468 Y109.94 E37.41707
G1 F537.9 X107.563 Y109.515 E37.45067
G1 F488.4 X107.812 Y109.027 E37.49723
G1 F465.6 X108.105 Y108.523 E37.5492
G1 F481.8 X108.394 Y108.083 E37.59454
G1 F526.6 X108.604 Y107.888 E37.61713
G1 F559.6 X108.819 Y107.758 E37.63577
G1 F533.3 X109.247 Y107.643 E37.67026
G1 F482.8 X109.855 Y107.618 E37.72258
G1 F465.6 X110.433 Y107.627 E37.77411
G1 F487.5 X110.891 Y107.655 E37.81318
G1 F531 X111.203 Y107.771 E37.83919
G1 F559.6 X111.395 Y107.89 E37.85595
G1 F533.3 X111.66 Y108.169 E37.8859
G1 F488.4 X111.891 Y108.523 E37.92182
G1 F464.8 X112.186 Y109.027 E37.97397
G1 F487.5 X112.436 Y109.52 E38.02103
G1 F533.3 X112.509 Y109.758 E38.04041
G1 F552.2 X112.539 Y110.149 E38.06989
G1 F535.6 X112.437 Y110.476 E38.09643
G1 F499.2 X112.313 Y110.731 E38.12001
G1 F470 X112.039 Y111.229 E38.1702
G1 F474.5 X111.614 Y111.901 E38.23975
G1 F522.1 X111.4 Y112.102 E38.26309
G1 F559.6 X111.189 Y112.234 E38.28155
G1 F526.6 X110.849 Y112.35 E38.30987
G1 F477.2 X110.142 Y112.379 E38.37141
G1 F466.5 X110 Y112.377 E38.38405
G0 F9000 X110 Y111.903
G1 F624 X109.155 Y111.902 E38.44026
G1 X108.99 Y111.853 E38.45171
G1 X108.769 Y111.676 E38.47054
G1 X107.956 Y110.274 E38.57835
G1 X107.888 Y109.963 E38.59953
G1 X107.955 Y109.719 E38.61636
G1 X108.761 Y108.33 E38.72318
G1 X108.994 Y108.142 E38.7431
G1 X109.159 Y108.088 E38.75465
G1 X110.84 Y108.092 E38.86647
G1 X111.008 Y108.146 E38.87821
G1 X111.226 Y108.305 E38.89616
G1 X112.045 Y109.723 E39.00509
G1 X112.112 Y110.033 E39.02618
G1 X112.046 Y110.275 E39.04287
G1 X111.245 Y111.656 E39.14907
G1 X111.009 Y111.852 E39.16947
G1 X110.839 Y111.903 E39.18128
G1 X110 Y111.903 E39.23709
G0 F9000 X109.999 Y112.219
G0 X110 Y112.921
G1 F460.5 X110.156 Y112.921 E39.25115
G1 F467.4 X110.489 Y112.891 E39.28084
G1 F489.4 X110.796 Y112.84 E39.30724
G1 F522.1 X111.089 Y112.76 E39.33138
G1 F549.7 X111.407 Y112.62 E39.35761
G1 F559.6 X111.666 Y112.461 E39.38016
G1 F542.6 X111.919 Y112.256 E39.40507
G1 F509.4 X112.135 Y112.024 E39.4309
G1 F478.1 X112.34 Y111.758 E39.46005
G1 F463.1 X112.505 Y111.507 E39.48697
G1 F460.5 X112.663 Y111.219 E39.51658
G1 F472.7 X112.782 Y110.943 E39.54297
G1 F499.2 X112.883 Y110.651 E39.56866
G1 F535.6 X112.954 Y110.318 E39.59505
G1 F557.1 X112.977 Y110 E39.6188
G1 X112.953 Y109.669 E39.64353
G1 F533.3 X112.883 Y109.345 E39.66933
G1 F497.2 X112.777 Y109.041 E39.69621
G1 F470.9 X112.664 Y108.78 E39.72127
G1 F460.5 X112.495 Y108.474 E39.75278
G1 F463.1 X112.334 Y108.228 E39.77913
G1 F479.1 X112.138 Y107.979 E39.80659
G1 F511.4 X111.917 Y107.74 E39.83301
G1 F544.9 X111.66 Y107.53 E39.85829
G1 F559.6 X111.37 Y107.359 E39.88326
G1 F549.7 X111.077 Y107.236 E39.90725
G1 F521.1 X110.791 Y107.156 E39.93091
G1 F487.5 X110.462 Y107.102 E39.95929
G1 F466.5 X110.156 Y107.076 E39.98662
G1 F460.5 X109.84 Y107.075 E40.0151
G1 F466.5 X109.511 Y107.105 E40.04449
G1 F488.4 X109.206 Y107.154 E40.07074
G1 F522.1 X108.91 Y107.238 E40.0952
G1 F551 X108.593 Y107.373 E40.12116
G1 F559.6 X108.33 Y107.536 E40.14411
G1 F544.9 X108.087 Y107.733 E40.16793
G1 F511.4 X107.85 Y107.988 E40.19619
G1 F480 X107.663 Y108.228 E40.2225
G1 F463.1 X107.497 Y108.482 E40.2497
G1 F461.3 X107.336 Y108.78 E40.28017
G1 F471.8 X107.213 Y109.057 E40.30683
G1 F497.2 X107.113 Y109.353 E40.33291
G1 F533.3 X107.046 Y109.677 E40.35866
G1 F557.1 X107.023 Y110 E40.38279
G1 X107.046 Y110.323 E40.40692
G1 F532.2 X107.115 Y110.656 E40.43344
G1 F497.2 X107.219 Y110.951 E40.45955
G1 F470.9 X107.341 Y111.228 E40.48623
G1 F460.5 X107.503 Y111.522 E40.51649
G1 F462.2 X107.665 Y111.773 E40.54331
G1 F478.1 X107.848 Y112.01 E40.56931
G1 F510.4 X108.089 Y112.265 E40.59784
G1 F544.9 X108.332 Y112.462 E40.62167
G1 F559.6 X108.625 Y112.638 E40.64702
G1 F531 X109.072 Y112.82 E40.68474
G1 F489.4 X109.524 Y112.894 E40.72359
G1 F467.4 X109.84 Y112.921 E40.75175
G1 F460.5 X110 Y112.921 E40.76617
G0 F9000 X110 Y113.392
G1 F624 X110.182 Y113.392 E40.77828
G1 X110.551 Y113.351 E40.80298
G1 X110.913 Y113.272 E40.82762
G1 X111.249 Y113.161 E40.85116
G1 X111.597 Y112.998 E40.87672
G1 X111.903 Y112.813 E40.90051
G1 X112.191 Y112.597 E40.92446
G1 X112.466 Y112.335 E40.94972
G1 X112.705 Y112.052 E40.97436
G1 X112.91 Y111.752 E40.99853
G1 X113.09 Y111.416 E41.02389
G1 X113.218 Y111.089 E41.04725
G1 X113.317 Y110.733 E41.07183
G1 X113.378 Y110.365 E41.09664
G1 X113.399 Y110 E41.12096
G1 X113.378 Y109.634 E41.14535
G1 X113.317 Y109.262 E41.17043
G1 X113.218 Y108.907 E41.19494
G1 X113.091 Y108.581 E41.21821
G1 X112.906 Y108.24 E41.24402
G1 X112.706 Y107.945 E41.26773
G1 X112.468 Y107.666 E41.29212
G1 X112.189 Y107.401 E41.31772
G1 X111.898 Y107.178 E41.34211
G1 X111.599 Y107 E41.36526
G1 X111.249 Y106.839 E41.39088
G1 X110.911 Y106.724 E41.41463
G1 X110.55 Y106.645 E41.43921
G1 X110.182 Y106.605 E41.46384
G1 X109.814 Y106.604 E41.48832
G1 X109.449 Y106.645 E41.51275
G1 X109.086 Y106.723 E41.53745
G1 X108.751 Y106.838 E41.56101
G1 X108.396 Y107 E41.58697
G1 X108.102 Y107.178 E41.60983
G1 X107.805 Y107.402 E41.63457
G1 X107.529 Y107.666 E41.65998
G1 X107.291 Y107.945 E41.68437
G1 X107.092 Y108.238 E41.70794
G1 X106.91 Y108.582 E41.73382
G1 X106.777 Y108.909 E41.75731
G1 X106.68 Y109.26 E41.78153
G1 X106.622 Y109.632 E41.80657
G1 X106.601 Y110 E41.83109
G1 X106.622 Y110.368 E41.85561
G1 X106.679 Y110.736 E41.88038
G1 X106.778 Y111.086 E41.90458
G1 X106.909 Y111.413 E41.92801
G1 X107.091 Y111.754 E41.95372
G1 X107.292 Y112.054 E41.97775
G1 X107.528 Y112.334 E42.00211
G1 X107.809 Y112.597 E42.02771
G1 X108.094 Y112.814 E42.05154
G1 X108.399 Y112.996 E42.07516
G1 X108.751 Y113.161 E42.10102
G1 X109.083 Y113.272 E42.12431
G1 X109.449 Y113.35 E42.1492
G1 X109.814 Y113.392 E42.17364
G1 X110 Y113.392 E42.18601
G0 F9000 X110 Y113.792
;TYPE:WALL-OUTER
G1 F624 X110.204 Y113.792 E42.19958
G1 X110.615 Y113.746 E42.22709
G1 X111.019 Y113.658 E42.2546
G1 X111.397 Y113.533 E42.28108
G1 X111.785 Y113.351 E42.30959
G1 X112.127 Y113.145 E42.33615
G1 X112.45 Y112.903 E42.363
G1 X112.758 Y112.61 E42.39127
G1 X113.024 Y112.294 E42.41875
G1 X113.252 Y111.96 E42.44565
G1 X113.454 Y111.584 E42.47404
G1 X113.598 Y111.216 E42.50033
G1 X113.708 Y110.82 E42.52767
G1 X113.776 Y110.409 E42.55538
G1 X113.799 Y110 E42.58263
G1 X113.776 Y109.59 E42.60995
G1 X113.708 Y109.176 E42.63786
G1 X113.598 Y108.78 E42.6652
G1 X113.454 Y108.413 E42.69142
G1 X113.248 Y108.032 E42.72023
G1 X113.024 Y107.702 E42.74676
G1 X112.758 Y107.39 E42.77404
G1 X112.449 Y107.097 E42.80236
G1 X112.123 Y106.846 E42.82973
G1 X111.786 Y106.646 E42.8558
G1 X111.397 Y106.467 E42.88428
G1 X111.018 Y106.338 E42.91092
G1 X110.615 Y106.25 E42.93836
G1 X110.204 Y106.205 E42.96586
G1 X109.792 Y106.204 E42.99327
G1 X109.385 Y106.25 E43.02051
G1 X108.978 Y106.337 E43.0482
G1 X108.603 Y106.466 E43.07458
G1 X108.21 Y106.646 E43.10333
G1 X107.877 Y106.846 E43.12917
G1 X107.546 Y107.097 E43.1568
G1 X107.238 Y107.39 E43.18508
G1 X106.972 Y107.702 E43.21235
G1 X106.748 Y108.032 E43.23889
G1 X106.546 Y108.413 E43.26757
G1 X106.398 Y108.781 E43.29396
G1 X106.288 Y109.175 E43.32117
G1 X106.224 Y109.59 E43.3491
G1 X106.201 Y110 E43.37642
G1 X106.224 Y110.41 E43.40373
G1 X106.288 Y110.821 E43.4314
G1 X106.398 Y111.215 E43.45861
G1 X106.546 Y111.583 E43.485
G1 X106.748 Y111.96 E43.51345
G1 X106.972 Y112.295 E43.54026
G1 X107.238 Y112.61 E43.56768
G1 X107.55 Y112.903 E43.59615
G1 X107.869 Y113.146 E43.62283
G1 X108.211 Y113.35 E43.64932
G1 X108.603 Y113.533 E43.6781
G1 X108.977 Y113.658 E43.70433
G1 X109.385 Y113.746 E43.73209
G1 X109.792 Y113.792 E43.75934
G1 X110 Y113.792 E43.77317
G1 F2700 E38.77317
G0 F9000 X110 Y113.484
G0 X109.999 Y111.819
G0 X110 Y111.506
G1 F2700 E43.77317
G1 F624 X109.204 Y111.505 E43.82612
G1 X109.085 Y111.431 E43.83545
G1 X108.298 Y110.061 E43.94054
G1 X108.292 Y109.932 E43.94913
G1 X109.085 Y108.565 E44.05426
G1 X109.204 Y108.491 E44.06358
G1 X110.796 Y108.495 E44.16948
G1 X110.904 Y108.556 E44.17773
G1 X111.705 Y109.934 E44.28376
G1 X111.701 Y110.067 E44.29261
G1 X110.911 Y111.431 E44.39746
G1 X110.781 Y111.507 E44.40748
G1 X110 Y111.506 E44.45943
G0 F9000 X109.998 Y112.519
;MESH:NONMESH
G0 F300 X109.998 Y112.519 Z1
G0 F9000 X110 Y112.377
;TIME_ELAPSED:92.989856
;LAYER:2
;note -- min layer time used
M106 S85
;TYPE:WALL-INNER
;MESH:turret_drive_bearing.obj
G1 F474 X109.566 Y112.371 E44.4974
G1 F490.8 X109.244 Y112.353 E44.52465
G1 F528.3 X108.977 Y112.3 E44.54601
G1 F551.6 X108.598 Y112.104 E44.57809
G1 F522.7 X108.386 Y111.904 E44.60121
G1 F474.9 X107.964 Y111.236 E44.67019
G1 F468.7 X107.685 Y110.726 E44.72162
G1 F496.7 X107.564 Y110.479 E44.74458
G1 F532.8 X107.489 Y110.23 E44.76482
G1 F556.6 X107.468 Y109.94 E44.78648
G1 F537.4 X107.563 Y109.515 E44.82009
G1 F487.9 X107.812 Y109.027 E44.86664
G1 F465.2 X108.105 Y108.523 E44.91861
G1 F481.4 X108.394 Y108.083 E44.96396
G1 F526 X108.604 Y107.888 E44.98655
G1 F559.1 X108.819 Y107.758 E45.00518
G1 F532.8 X109.247 Y107.643 E45.03967
G1 F482.3 X109.855 Y107.618 E45.09199
G1 F465.2 X110.433 Y107.627 E45.14352
G1 F487 X110.891 Y107.655 E45.18259
G1 F530.5 X111.203 Y107.771 E45.20861
G1 F559.1 X111.395 Y107.89 E45.22536
G1 F532.8 X111.66 Y108.169 E45.25531
G1 F487.9 X111.891 Y108.523 E45.29123
G1 F464.3 X112.186 Y109.027 E45.34338
G1 F487 X112.436 Y109.52 E45.39045
G1 F532.8 X112.509 Y109.758 E45.40982
G1 F551.6 X112.539 Y110.149 E45.4393
G1 F535.1 X112.437 Y110.476 E45.46585
G1 F498.7 X112.313 Y110.731 E45.48942
G1 F469.6 X112.039 Y111.229 E45.53962
G1 F474 X111.614 Y111.901 E45.60917
G1 F521.6 X111.4 Y112.102 E45.63251
G1 F559.1 X111.189 Y112.234 E45.65097
G1 F526 X110.849 Y112.35 E45.67928
G1 F476.8 X110.142 Y112.379 E45.74083
G1 F466.1 X110 Y112.377 E45.75346
G0 F12000 X110 Y111.903
G1 F623.4 X109.155 Y111.902 E45.80967
G1 X108.99 Y111.853 E45.82112
G1 X108.769 Y111.676 E45.83996
G1 X107.956 Y110.274 E45.94776
G1 X107.888 Y109.963 E45.96894
G1 X107.955 Y109.719 E45.98577
G1 X108.761 Y108.33 E46.0926
G1 X108.994 Y108.142 E46.11251
G1 X109.159 Y108.088 E46.12406
G1 X110.84 Y108.092 E46.23588
G1 X111.008 Y108.146 E46.24762
G1 X111.226 Y108.305 E46.26557
G1 X112.045 Y109.723 E46.3745
G1 X112.112 Y110.033 E46.3956
G1 X112.046 Y110.275 E46.41228
G1 X111.245 Y111.656 E46.51848
G1 X111.009 Y111.852 E46.53889
G1 X110.839 Y111.903 E46.55069
G1 X110 Y111.903 E46.60651
G0 F12000 X109.999 Y112.219
G0 X110 Y112.921
G1 F460 X110.156 Y112.921 E46.62057
G1 F466.9 X110.489 Y112.891 E46.65026
G1 F488.9 X110.796 Y112.84 E46.67665
G1 F521.6 X111.089 Y112.76 E46.7008
G1 F549.2 X111.407 Y112.62 E46.72703
G1 F559.1 X111.666 Y112.461 E46.74957
G1 F542 X111.919 Y112.256 E46.77448
G1 F508.9 X112.135 Y112.024 E46.80031
G1 F477.7 X112.34 Y111.758 E46.82946
G1 F462.6 X112.505 Y111.507 E46.85639
G1 F460 X112.663 Y111.219 E46.886
G1 F472.2 X112.782 Y110.943 E46.91239
G1 F498.7 X112.883 Y110.651 E46.93808
G1 F535.1 X112.954 Y110.318 E46.96447
G1 F556.6 X112.977 Y110 E46.98822
G1 X112.953 Y109.669 E47.01294
G1 F532.8 X112.883 Y109.345 E47.03874
G1 F496.7 X112.777 Y109.041 E47.06562
G1 F470.5 X112.664 Y108.78 E47.09069
G1 F460 X112.495 Y108.474 E47.1222
G1 F462.6 X112.334 Y108.228 E47.14855
G1 F478.6 X112.138 Y107.979 E47.17601
G1 F510.9 X111.917 Y107.74 E47.20242
G1 F544.4 X111.66 Y107.53 E47.2277
G1 F559.1 X111.37 Y107.359 E47.25267
G1 F549.2 X111.077 Y107.236 E47.27666
G1 F520.5 X110.791 Y107.156 E47.30032
G1 F487 X110.462 Y107.102 E47.32871
G1 F466.1 X110.156 Y107.076 E47.35603
G1 F460 X109.84 Y107.075 E47.38451
G1 F466.1 X109.511 Y107.105 E47.41391
G1 F487.9 X109.206 Y107.154 E47.44016
G1 F521.6 X108.91 Y107.238 E47.46462
G1 F550.4 X108.593 Y107.373 E47.49057
G1 F559.1 X108.33 Y107.536 E47.51352
G1 F544.4 X108.087 Y107.733 E47.53735
G1 F510.9 X107.85 Y107.988 E47.5656
G1 F479.5 X107.663 Y108.228 E47.59191
G1 F462.6 X107.497 Y108.482 E47.61911
G1 F460.9 X107.336 Y108.78 E47.64958
G1 F471.3 X107.213 Y109.057 E47.67625
G1 F496.7 X107.113 Y109.353 E47.70233
G1 F532.8 X107.046 Y109.677 E47.72808
G1 F556.6 X107.023 Y110 E47.7522
G1 X107.046 Y110.323 E47.77633
G1 F531.6 X107.115 Y110.656 E47.80285
G1 F496.7 X107.219 Y110.951 E47.82897
G1 F470.5 X107.341 Y111.228 E47.85564
G1 F460 X107.503 Y111.522 E47.8859
G1 F461.7 X107.665 Y111.773 E47.91273
G1 F477.7 X107.848 Y112.01 E47.93872
G1 F509.9 X108.089 Y112.265 E47.96725
G1 F544.4 X108.332 Y112.462 E47.99108
G1 F559.1 X108.625 Y112.638 E48.01643
G1 F530.5 X109.072 Y112.82 E48.05415
G1 F488.9 X109.524 Y112.894 E48.093
G1 F466.9 X109.84 Y112.921 E48.12117
G1 F460 X110 Y112.921 E48.13559
G0 F12000 X110 Y113.392
G1 F623.4 X110.182 Y113.392 E48.14769
G1 X110.551 Y113.351 E48.17239
G1 X110.913 Y113.272 E48.19704
G1 X111.249 Y113.161 E48.22058
G1 X111.597 Y112.998 E48.24614
G1 X111.903 Y112.813 E48.26993
G1 X112.191 Y112.597 E48.29387
G1 X112.466 Y112.335 E48.31914
G1 X112.705 Y112.052 E48.34378
G1 X112.91 Y111.752 E48.36795
G1 X113.09 Y111.416 E48.39331
G1 X113.218 Y111.089 E48.41666
G1 X113.317 Y110.733 E48.44124
G1 X113.378 Y110.365 E48.46606
G1 X113.399 Y110 E48.49038
G1 X113.378 Y109.634 E48.51476
G1 X113.317 Y109.262 E48.53984
G1 X113.218 Y108.907 E48.56436
G1 X113.091 Y108.581 E48.58763
G1 X112.906 Y108.24 E48.61344
G1 X112.706 Y107.945 E48.63714
G1 X112.468 Y107.666 E48.66154
G1 X112.189 Y107.401 E48.68714
G1 X111.898 Y107.178 E48.71152
G1 X111.599 Y107 E48.73467
G1 X111.249 Y106.839 E48.7603
G1 X110.911 Y106.724 E48.78405
G1 X110.55 Y106.645 E48.80863
G1 X110.182 Y106.605 E48.83325
G1 X109.814 Y106.604 E48.85773
G1 X109.449 Y106.645 E48.88216
G1 X109.086 Y106.723 E48.90686
G1 X108.751 Y106.838 E48.93042
G1 X108.396 Y107 E48.95638
G1 X108.102 Y107.178 E48.97924
G1 X107.805 Y107.402 E49.00399
G1 X107.529 Y107.666 E49.02939
G1 X107.291 Y107.945 E49.05379
G1 X107.092 Y108.238 E49.07735
G1 X106.91 Y108.582 E49.10324
G1 X106.777 Y108.909 E49.12672
G1 X106.68 Y109.26 E49.15094
G1 X106.622 Y109.632 E49.17599
G1 X106.601 Y110 E49.20051
G1 X106.622 Y110.368 E49.22503
G1 X106.679 Y110.736 E49.2498
G1 X106.778 Y111.086 E49.27399
G1 X106.909 Y111.413 E49.29743
G1 X107.091 Y111.754 E49.32314
G1 X107.292 Y112.054 E49.34716
G1 X107.528 Y112.334 E49.37152
G1 X107.809 Y112.597 E49.39712
G1 X108.094 Y112.814 E49.42095
G1 X108.399 Y112.996 E49.44458
G1 X108.751 Y113.161 E49.47044
G1 X109.083 Y113.272 E49.49372
G1 X109.449 Y113.35 E49.51862
G1 X109.814 Y113.392 E49.54306
G1 X110 Y113.392 E49.55543
G0 F12000 X110 Y113.792
;TYPE:WALL-OUTER
G1 F623.4 X110.204 Y113.792 E49.569
G1 X110.615 Y113.746 E49.59651
G1 X111.019 Y113.658 E49.62401
G1 X111.397 Y113.533 E49.6505
G1 X111.785 Y113.351 E49.67901
G1 X112.127 Y113.145 E49.70556
G1 X112.45 Y112.903 E49.73241
G1 X112.758 Y112.61 E49.76069
G1 X113.024 Y112.294 E49.78817
G1 X113.252 Y111.96 E49.81507
G1 X113.454 Y111.584 E49.84346
G1 X113.598 Y111.216 E49.86975
G1 X113.708 Y110.82 E49.89709
G1 X113.776 Y110.409 E49.9248
G1 X113.799 Y110 E49.95205
G1 X113.776 Y109.59 E49.97936
G1 X113.708 Y109.176 E50.00727
G1 X113.598 Y108.78 E50.03461
G1 X113.454 Y108.413 E50.06084
G1 X113.248 Y108.032 E50.08965
G1 X113.024 Y107.702 E50.11618
G1 X112.758 Y107.39 E50.14345
G1 X112.449 Y107.097 E50.17178
G1 X112.123 Y106.846 E50.19915
G1 X111.786 Y106.646 E50.22521
G1 X111.397 Y106.467 E50.2537
G1 X111.018 Y106.338 E50.28033
G1 X110.615 Y106.25 E50.30777
G1 X110.204 Y106.205 E50.33527
G1 X109.792 Y106.204 E50.36268
G1 X109.385 Y106.25 E50.38993
G1 X108.978 Y106.337 E50.41761
G1 X108.603 Y106.466 E50.44399
G1 X108.21 Y106.646 E50.47274
G1 X107.877 Y106.846 E50.49858
G1 X107.546 Y107.097 E50.52622
G1 X107.238 Y107.39 E50.5545
G1 X106.972 Y107.702 E50.58177
G1 X106.748 Y108.032 E50.6083
G1 X106.546 Y108.413 E50.63699
G1 X106.398 Y108.781 E50.66337
G1 X106.288 Y109.175 E50.69058
G1 X106.224 Y109.59 E50.71851
G1 X106.201 Y110 E50.74583
G1 X106.224 Y110.41 E50.77315
G1 X106.288 Y110.821 E50.80082
G1 X106.398 Y111.215 E50.82803
G1 X106.546 Y111.583 E50.85441
G1 X106.748 Y111.96 E50.88286
G1 X106.972 Y112.295 E50.90967
G1 X107.238 Y112.61 E50.9371
G1 X107.55 Y112.903 E50.96557
G1 X107.869 Y113.146 E50.99224
G1 X108.211 Y113.35 E51.01873
G1 X108.603 Y113.533 E51.04751
G1 X108.977 Y113.658 E51.07374
G1 X109.385 Y113.746 E51.10151
G1 X109.792 Y113.792 E51.12875
G1 X110 Y113.792 E51.14259
G1 F2700 E46.14259
G0 F12000 X110 Y113.484
G0 X109.999 Y111.819
G0 X110 Y111.506
G1 F2700 E51.14259
G1 F623.4 X109.204 Y111.505 E51.19554
G1 X109.085 Y111.431 E51.20486
G1 X108.298 Y110.061 E51.30996
G1 X108.292 Y109.932 E51.31855
G1 X109.085 Y108.565 E51.42368
G1 X109.204 Y108.491 E51.433
G1 X110.796 Y108.495 E51.5389
G1 X110.904 Y108.556 E51.54715
G1 X111.705 Y109.934 E51.65317
G1 X111.701 Y110.067 E51.66203
G1 X110.911 Y111.431 E51.76688
G1 X110.781 Y111.507 E51.7769
G1 X110 Y111.506 E51.82885
G0 F12000 X109.998 Y112.519
;MESH:NONMESH
G0 F300 X109.998 Y112.519 Z1.4
G0 F12000 X110 Y112.377
;TIME_ELAPSED:104.601434
;LAYER:3
;note -- min layer time used
M106 S127.5
;TYPE:WALL-INNER
;MESH:turret_drive_bearing.obj
G1 F474 X109.566 Y112.371 E51.86682
G1 F490.8 X109.244 Y112.353 E51.89406
G1 F528.3 X108.977 Y112.3 E51.91543
G1 F551.6 X108.598 Y112.104 E51.9475
G1 F522.7 X108.386 Y111.904 E51.97062
G1 F474.9 X107.964 Y111.236 E52.0396
G1 F468.7 X107.685 Y110.726 E52.09104
G1 F496.7 X107.564 Y110.479 E52.114
G1 F532.8 X107.489 Y110.23 E52.13424
G1 F556.6 X107.468 Y109.94 E52.1559
G1 F537.4 X107.563 Y109.515 E52.1895
G1 F487.9 X107.812 Y109.027 E52.23606
G1 F465.2 X108.105 Y108.523 E52.28802
G1 F481.4 X108.394 Y108.083 E52.33337
G1 F526 X108.604 Y107.888 E52.35596
G1 F559.1 X108.819 Y107.758 E52.3746
G1 F532.8 X109.247 Y107.643 E52.40909
G1 F482.3 X109.855 Y107.618 E52.46141
G1 F465.2 X110.433 Y107.627 E52.51294
G1 F487 X110.891 Y107.655 E52.55201
G1 F530.5 X111.203 Y107.771 E52.57802
G1 F559.1 X111.395 Y107.89 E52.59478
G1 F532.8 X111.66 Y108.169 E52.62472
G1 F487.9 X111.891 Y108.523 E52.66065
G1 F464.3 X112.186 Y109.027 E52.7128
G1 F487 X112.436 Y109.52 E52.75986
G1 F532.8 X112.509 Y109.758 E52.77924
G1 F551.6 X112.539 Y110.149 E52.80872
G1 F535.1 X112.437 Y110.476 E52.83526
G1 F498.7 X112.313 Y110.731 E52.85884
G1 F469.6 X112.039 Y111.229 E52.90903
G1 F474 X111.614 Y111.901 E52.97858
G1 F521.6 X111.4 Y112.102 E53.00192
G1 F559.1 X111.189 Y112.234 E53.02038
G1 F526 X110.849 Y112.35 E53.0487
G1 F476.8 X110.142 Y112.379 E53.11024
G1 F466.1 X110 Y112.377 E53.12288
G0 F12000 X110 Y111.903
G1 F623.4 X109.155 Y111.902 E53.17909
G1 X108.99 Y111.853 E53.19054
G1 X108.769 Y111.676 E53.20937
G1 X107.956 Y110.274 E53.31718
G1 X107.888 Y109.963 E53.33836
G1 X107.955 Y109.719 E53.35519
G1 X108.761 Y108.33 E53.46201
G1 X108.994 Y108.142 E53.48193
G1 X109.159 Y108.088 E53.49348
G1 X110.84 Y108.092 E53.6053
G1 X111.008 Y108.146 E53.61704
G1 X111.226 Y108.305 E53.63499
G1 X112.045 Y109.723 E53.74391
G1 X112.112 Y110.033 E53.76501
G1 X112.046 Y110.275 E53.7817
G1 X111.245 Y111.656 E53.8879
G1 X111.009 Y111.852 E53.9083
G1 X110.839 Y111.903 E53.92011
G1 X110 Y111.903 E53.97592
G0 F12000 X109.999 Y112.219
G0 X110 Y112.921
G1 F460 X110.156 Y112.921 E53.98998
G1 F466.9 X110.489 Y112.891 E54.01967
G1 F488.9 X110.796 Y112.84 E54.04607
G1 F521.6 X111.089 Y112.76 E54.07021
G1 F549.2 X111.407 Y112.62 E54.09644
G1 F559.1 X111.666 Y112.461 E54.11898
G1 F542 X111.919 Y112.256 E54.14389
G1 F508.9 X112.135 Y112.024 E54.16972
G1 F477.7 X112.34 Y111.758 E54.19888
G1 F462.6 X112.505 Y111.507 E54.2258
G1 F460 X112.663 Y111.219 E54.25541
G1 F472.2 X112.782 Y110.943 E54.2818
G1 F498.7 X112.883 Y110.651 E54.30749
G1 F535.1 X112.954 Y110.318 E54.33388
G1 F556.6 X112.977 Y110 E54.35763
G1 X112.953 Y109.669 E54.38236
G1 F532.8 X112.883 Y109.345 E54.40816
G1 F496.7 X112.777 Y109.041 E54.43503
G1 F470.5 X112.664 Y108.78 E54.4601
G1 F460 X112.495 Y108.474 E54.49161
G1 F462.6 X112.334 Y108.228 E54.51796
G1 F478.6 X112.138 Y107.979 E54.54542
G1 F510.9 X111.917 Y107.74 E54.57184
G1 F544.4 X111.66 Y107.53 E54.59712
G1 F559.1 X111.37 Y107.359 E54.62209
G1 F549.2 X111.077 Y107.236 E54.64608
G1 F520.5 X110.791 Y107.156 E54.66973
G1 F487 X110.462 Y107.102 E54.69812
G1 F466.1 X110.156 Y107.076 E54.72545
G1 F460 X109.84 Y107.075 E54.75393
G1 F466.1 X109.511 Y107.105 E54.78332
G1 F487.9 X109.206 Y107.154 E54.80957
G1 F521.6 X108.91 Y107.238 E54.83403
G1 F550.4 X108.593 Y107.373 E54.85999
G1 F559.1 X108.33 Y107.536 E54.88294
G1 F544.4 X108.087 Y107.733 E54.90676
G1 F510.9 X107.85 Y107.988 E54.93501
G1 F479.5 X107.663 Y108.228 E54.96133
G1 F462.6 X107.497 Y108.482 E54.98852
G1 F460.9 X107.336 Y108.78 E55.019
G1 F471.3 X107.213 Y109.057 E55.04566
G1 F496.7 X107.113 Y109.353 E55.07174
G1 F532.8 X107.046 Y109.677 E55.09749
G1 F556.6 X107.023 Y110 E55.12162
G1 X107.046 Y110.323 E55.14574
G1 F531.6 X107.115 Y110.656 E55.17227
G1 F496.7 X107.219 Y110.951 E55.19838
G1 F470.5 X107.341 Y111.228 E55.22506
G1 F460 X107.503 Y111.522 E55.25532
G1 F461.7 X107.665 Y111.773 E55.28214
G1 F477.7 X107.848 Y112.01 E55.30814
G1 F509.9 X108.089 Y112.265 E55.33667
G1 F544.4 X108.332 Y112.462 E55.36049
G1 F559.1 X108.625 Y112.638 E55.38585
G1 F530.5 X109.072 Y112.82 E55.42357
G1 F488.9 X109.524 Y112.894 E55.46242
G1 F466.9 X109.84 Y112.921 E55.49058
G1 F460 X110 Y112.921 E55.505
G0 F12000 X110 Y113.392
G1 F623.4 X110.182 Y113.392 E55.51711
G1 X110.551 Y113.351 E55.5418
G1 X110.913 Y113.272 E55.56645
G1 X111.249 Y113.161 E55.58999
G1 X111.597 Y112.998 E55.61555
G1 X111.903 Y112.813 E55.63934
G1 X112.191 Y112.597 E55.66329
G1 X112.466 Y112.335 E55.68855
G1 X112.705 Y112.052 E55.71319
G1 X112.91 Y111.752 E55.73736
G1 X113.09 Y111.416 E55.76272
G1 X113.218 Y111.089 E55.78608
G1 X113.317 Y110.733 E55.81066
G1 X113.378 Y110.365 E55.83547
G1 X113.399 Y110 E55.85979
G1 X113.378 Y109.634 E55.88418
G1 X113.317 Y109.262 E55.90925
G1 X113.218 Y108.907 E55.93377
G1 X113.091 Y108.581 E55.95704
G1 X112.906 Y108.24 E55.98285
G1 X112.706 Y107.945 E56.00656
G1 X112.468 Y107.666 E56.03095
G1 X112.189 Y107.401 E56.05655
G1 X111.898 Y107.178 E56.08094
G1 X111.599 Y107 E56.10408
G1 X111.249 Y106.839 E56.12971
G1 X110.911 Y106.724 E56.15346
G1 X110.55 Y106.645 E56.17804
G1 X110.182 Y106.605 E56.20267
G1 X109.814 Y106.604 E56.22715
G1 X109.449 Y106.645 E56.25158
G1 X109.086 Y106.723 E56.27628
G1 X108.751 Y106.838 E56.29984
G1 X108.396 Y107 E56.3258
G1 X108.102 Y107.178 E56.34866
G1 X107.805 Y107.402 E56.3734
G1 X107.529 Y107.666 E56.39881
G1 X107.291 Y107.945 E56.4232
G1 X107.092 Y108.238 E56.44676
G1 X106.91 Y108.582 E56.47265
G1 X106.777 Y108.909 E56.49614
G1 X106.68 Y109.26 E56.52036
G1 X106.622 Y109.632 E56.5454
G1 X106.601 Y110 E56.56992
G1 X106.622 Y110.368 E56.59444
G1 X106.679 Y110.736 E56.61921
G1 X106.778 Y111.086 E56.64341
G1 X106.909 Y111.413 E56.66684
G1 X107.091 Y111.754 E56.69255
G1 X107.292 Y112.054 E56.71657
G1 X107.528 Y112.334 E56.74093
G1 X107.809 Y112.597 E56.76654
G1 X108.094 Y112.814 E56.79036
G1 X108.399 Y112.996 E56.81399
G1 X108.751 Y113.161 E56.83985
G1 X109.083 Y113.272 E56.86314
G1 X109.449 Y113.35 E56.88803
G1 X109.814 Y113.392 E56.91247
G1 X110 Y113.392 E56.92484
G0 F12000 X110 Y113.792
;TYPE:WALL-OUTER
G1 F623.4 X110.204 Y113.792 E56.93841
G1 X110.615 Y113.746 E56.96592
G1 X111.019 Y113.658 E56.99343
G1 X111.397 Y113.533 E57.01991
G1 X111.785 Y113.351 E57.04842
G1 X112.127 Y113.145 E57.07498
G1 X112.45 Y112.903 E57.10183
G1 X112.758 Y112.61 E57.1301
G1 X113.024 Y112.294 E57.15758
G1 X113.252 Y111.96 E57.18448
G1 X113.454 Y111.584 E57.21287
G1 X113.598 Y111.216 E57.23916
G1 X113.708 Y110.82 E57.2665
G1 X113.776 Y110.409 E57.29421
G1 X113.799 Y110 E57.32146
G1 X113.776 Y109.59 E57.34878
G1 X113.708 Y109.176 E57.37669
G1 X113.598 Y108.78 E57.40403
G1 X113.454 Y108.413 E57.43025
G1 X113.248 Y108.032 E57.45906
G1 X113.024 Y107.702 E57.48559
G1 X112.758 Y107.39 E57.51287
G1 X112.449 Y107.097 E57.54119
G1 X112.123 Y106.846 E57.56856
G1 X111.786 Y106.646 E57.59463
G1 X111.397 Y106.467 E57.62311
G1 X111.018 Y106.338 E57.64974
G1 X110.615 Y106.25 E57.67718
G1 X110.204 Y106.205 E57.70469
G1 X109.792 Y106.204 E57.73209
G1 X109.385 Y106.25 E57.75934
G1 X108.978 Y106.337 E57.78703
G1 X108.603 Y106.466 E57.81341
G1 X108.21 Y106.646 E57.84216
G1 X107.877 Y106.846 E57.868
G1 X107.546 Y107.097 E57.89563
G1 X107.238 Y107.39 E57.92391
G1 X106.972 Y107.702 E57.95118
G1 X106.748 Y108.032 E57.97771
G1 X106.546 Y108.413 E58.0064
G1 X106.398 Y108.781 E58.03278
G1 X106.288 Y109.175 E58.06
G1 X106.224 Y109.59 E58.08793
G1 X106.201 Y110 E58.11524
G1 X106.224 Y110.41 E58.14256
G1 X106.288 Y110.821 E58.17023
G1 X106.398 Y111.215 E58.19744
G1 X106.546 Y111.583 E58.22383
G1 X106.748 Y111.96 E58.25228
G1 X106.972 Y112.295 E58.27908
G1 X107.238 Y112.61 E58.30651
G1 X107.55 Y112.903 E58.33498
G1 X107.869 Y113.146 E58.36166
G1 X108.211 Y113.35 E58.38815
G1 X108.603 Y113.533 E58.41692
G1 X108.977 Y113.658 E58.44316
G1 X109.385 Y113.746 E58.47092
G1 X109.792 Y113.792 E58.49817
G1 X110 Y113.792 E58.512
G1 F2700 E53.512
G0 F12000 X110 Y113.484
G0 X109.999 Y111.819
G0 X110 Y111.506
G1 F2700 E58.512
G1 F623.4 X109.204 Y111.505 E58.56495
G1 X109.085 Y111.431 E58.57427
G1 X108.298 Y110.061 E58.67937
G1 X108.292 Y109.932 E58.68796
G1 X109.085 Y108.565 E58.79309
G1 X109.204 Y108.491 E58.80241
G1 X110.796 Y108.495 E58.90831
G1 X110.904 Y108.556 E58.91656
G1 X111.705 Y109.934 E59.02259
G1 X111.701 Y110.067 E59.03144
G1 X110.911 Y111.431 E59.13629
G1 X110.781 Y111.507 E59.14631
G1 X110 Y111.506 E59.19826
G0 F12000 X109.998 Y112.519
;MESH:NONMESH
G0 F300 X109.998 Y112.519 Z1.8
G0 F12000 X110 Y112.377
;TIME_ELAPSED:116.213011
;LAYER:4
;note -- min layer time used
;TYPE:WALL-INNER
;MESH:turret_drive_bearing.obj
G1 F474 X109.566 Y112.371 E59.23623
G1 F490.8 X109.244 Y112.353 E59.26348
G1 F528.3 X108.977 Y112.3 E59.28484
G1 F551.6 X108.598 Y112.104 E59.31691
G1 F522.7 X108.386 Y111.904 E59.34003
G1 F474.9 X107.964 Y111.236 E59.40902
G1 F468.7 X107.685 Y110.726 E59.46045
G1 F496.7 X107.564 Y110.479 E59.48341
G1 F532.8 X107.489 Y110.23 E59.50365
G1 F556.6 X107.468 Y109.94 E59.52531
G1 F537.4 X107.563 Y109.515 E59.55892
G1 F487.9 X107.812 Y109.027 E59.60547
G1 F465.2 X108.105 Y108.523 E59.65744
G1 F481.4 X108.394 Y108.083 E59.70279
G1 F526 X108.604 Y107.888 E59.72538
G1 F559.1 X108.819 Y107.758 E59.74401
G1 F532.8 X109.247 Y107.643 E59.7785
G1 F482.3 X109.855 Y107.618 E59.83082
G1 F465.2 X110.433 Y107.627 E59.88235
G1 F487 X110.891 Y107.655 E59.92142
G1 F530.5 X111.203 Y107.771 E59.94744
G1 F559.1 X111.395 Y107.89 E59.96419
G1 F532.8 X111.66 Y108.169 E59.99414
G1 F487.9 X111.891 Y108.523 E60.03006
G1 F464.3 X112.186 Y109.027 E60.08221
G1 F487 X112.436 Y109.52 E60.12928
G1 F532.8 X112.509 Y109.758 E60.14865
G1 F551.6 X112.539 Y110.149 E60.17813
G1 F535.1 X112.437 Y110.476 E60.20468
G1 F498.7 X112.313 Y110.731 E60.22825
G1 F469.6 X112.039 Y111.229 E60.27845
G1 F474 X111.614 Y111.901 E60.348
G1 F521.6 X111.4 Y112.102 E60.37134
G1 F559.1 X111.189 Y112.234 E60.3898
G1 F526 X110.849 Y112.35 E60.41811
G1 F476.8 X110.142 Y112.379 E60.47966
G1 F466.1 X110 Y112.377 E60.49229
G0 F12000 X110 Y111.903
G1 F623.4 X109.155 Y111.902 E60.5485
G1 X108.99 Y111.853 E60.55995
G1 X108.769 Y111.676 E60.57879
G1 X107.956 Y110.274 E60.68659
G1 X107.888 Y109.963 E60.70777
G1 X107.955 Y109.719 E60.7246
G1 X108.761 Y108.33 E60.83143
G1 X108.994 Y108.142 E60.85134
G1 X109.159 Y108.088 E60.86289
G1 X110.84 Y108.092 E60.97471
G1 X111.008 Y108.146 E60.98645
G1 X111.226 Y108.305 E61.0044
G1 X112.045 Y109.723 E61.11333
G1 X112.112 Y110.033 E61.13443
G1 X112.046 Y110.275 E61.15111
G1 X111.245 Y111.656 E61.25731
G1 X111.009 Y111.852 E61.27772
G1 X110.839 Y111.903 E61.28952
G1 X110 Y111.903 E61.34533
G0 F12000 X109.999 Y112.219
G0 X110 Y112.921
G1 F460 X110.156 Y112.921 E61.35939
G1 F466.9 X110.489 Y112.891 E61.38909
G1 F488.9 X110.796 Y112.84 E61.41548
G1 F521.6 X111.089 Y112.76 E61.43962
G1 F549.2 X111.407 Y112.62 E61.46586
G1 F559.1 X111.666 Y112.461 E61.4884
G1 F542 X111.919 Y112.256 E61.51331
G1 F508.9 X112.135 Y112.024 E61.53914
G1 F477.7 X112.34 Y111.758 E61.56829
G1 F462.6 X112.505 Y111.507 E61.59522
G1 F460 X112.663 Y111.219 E61.62483
G1 F472.2 X112.782 Y110.943 E61.65122
G1 F498.7 X112.883 Y110.651 E61.67691
G1 F535.1 X112.954 Y110.318 E61.70329
G1 F556.6 X112.977 Y110 E61.72705
G1 X112.953 Y109.669 E61.75177
G1 F532.8 X112.883 Y109.345 E61.77757
G1 F496.7 X112.777 Y109.041 E61.80445
G1 F470.5 X112.664 Y108.78 E61.82952
G1 F460 X112.495 Y108.474 E61.86102
G1 F462.6 X112.334 Y108.228 E61.88738
G1 F478.6 X112.138 Y107.979 E61.91483
G1 F510.9 X111.917 Y107.74 E61.94125
G1 F544.4 X111.66 Y107.53 E61.96653
G1 F559.1 X111.37 Y107.359 E61.9915
G1 F549.2 X111.077 Y107.236 E62.01549
G1 F520.5 X110.791 Y107.156 E62.03915
G1 F487 X110.462 Y107.102 E62.06754
G1 F466.1 X110.156 Y107.076 E62.09486
G1 F460 X109.84 Y107.075 E62.12334
G1 F466.1 X109.511 Y107.105 E62.15274
G1 F487.9 X109.206 Y107.154 E62.17899
G1 F521.6 X108.91 Y107.238 E62.20344
G1 F550.4 X108.593 Y107.373 E62.2294
G1 F559.1 X108.33 Y107.536 E62.25235
G1 F544.4 X108.087 Y107.733 E62.27618
G1 F510.9 X107.85 Y107.988 E62.30443
G1 F479.5 X107.663 Y108.228 E62.33074
G1 F462.6 X107.497 Y108.482 E62.35794
G1 F460.9 X107.336 Y108.78 E62.38841
G1 F471.3 X107.213 Y109.057 E62.41507
G1 F496.7 X107.113 Y109.353 E62.44116
G1 F532.8 X107.046 Y109.677 E62.46691
G1 F556.6 X107.023 Y110 E62.49103
G1 X107.046 Y110.323 E62.51516
G1 F531.6 X107.115 Y110.656 E62.54168
G1 F496.7 X107.219 Y110.951 E62.5678
G1 F470.5 X107.341 Y111.228 E62.59447
G1 F460 X107.503 Y111.522 E62.62473
G1 F461.7 X107.665 Y111.773 E62.65156
G1 F477.7 X107.848 Y112.01 E62.67755
G1 F509.9 X108.089 Y112.265 E62.70608
G1 F544.4 X108.332 Y112.462 E62.72991
G1 F559.1 X108.625 Y112.638 E62.75526
G1 F530.5 X109.072 Y112.82 E62.79298
G1 F488.9 X109.524 Y112.894 E62.83183
G1 F466.9 X109.84 Y112.921 E62.85999
G1 F460 X110 Y112.921 E62.87442
G0 F12000 X110 Y113.392
G1 F623.4 X110.182 Y113.392 E62.88652
G1 X110.551 Y113.351 E62.91122
G1 X110.913 Y113.272 E62.93587
G1 X111.249 Y113.161 E62.95941
G1 X111.597 Y112.998 E62.98497
G1 X111.903 Y112.813 E63.00875
G1 X112.191 Y112.597 E63.0327
G1 X112.466 Y112.335 E63.05797
G1 X112.705 Y112.052 E63.08261
G1 X112.91 Y111.752 E63.10678
G1 X113.09 Y111.416 E63.13213
G1 X113.218 Y111.089 E63.15549
G1 X113.317 Y110.733 E63.18007
G1 X113.378 Y110.365 E63.20489
G1 X113.399 Y110 E63.22921
G1 X113.378 Y109.634 E63.25359
G1 X113.317 Y109.262 E63.27867
G1 X113.218 Y108.907 E63.30318
G1 X113.091 Y108.581 E63.32646
G1 X112.906 Y108.24 E63.35226
G1 X112.706 Y107.945 E63.37597
G1 X112.468 Y107.666 E63.40037
G1 X112.189 Y107.401 E63.42596
G1 X111.898 Y107.178 E63.45035
G1 X111.599 Y107 E63.4735
G1 X111.249 Y106.839 E63.49913
G1 X110.911 Y106.724 E63.52288
G1 X110.55 Y106.645 E63.54746
G1 X110.182 Y106.605 E63.57208
G1 X109.814 Y106.604 E63.59656
G1 X109.449 Y106.645 E63.62099
G1 X109.086 Y106.723 E63.64569
G1 X108.751 Y106.838 E63.66925
G1 X108.396 Y107 E63.69521
G1 X108.102 Y107.178 E63.71807
G1 X107.805 Y107.402 E63.74282
G1 X107.529 Y107.666 E63.76822
G1 X107.291 Y107.945 E63.79262
G1 X107.092 Y108.238 E63.81618
G1 X106.91 Y108.582 E63.84207
G1 X106.777 Y108.909 E63.86555
G1 X106.68 Y109.26 E63.88977
G1 X106.622 Y109.632 E63.91482
G1 X106.601 Y110 E63.93934
G1 X106.622 Y110.368 E63.96386
G1 X106.679 Y110.736 E63.98863
G1 X106.778 Y111.086 E64.01282
G1 X106.909 Y111.413 E64.03626
G1 X107.091 Y111.754 E64.06197
G1 X107.292 Y112.054 E64.08599
G1 X107.528 Y112.334 E64.11035
G1 X107.809 Y112.597 E64.13595
G1 X108.094 Y112.814 E64.15978
G1 X108.399 Y112.996 E64.1834
G1 X108.751 Y113.161 E64.20926
G1 X109.083 Y113.272 E64.23255
G1 X109.449 Y113.35 E64.25744
G1 X109.814 Y113.392 E64.28188
G1 X110 Y113.392 E64.29426
G0 F12000 X110 Y113.792
;TYPE:WALL-OUTER
G1 F623.4 X110.204 Y113.792 E64.30783
G1 X110.615 Y113.746 E64.33534
G1 X111.019 Y113.658 E64.36284
G1 X111.397 Y113.533 E64.38933
G1 X111.785 Y113.351 E64.41783
G1 X112.127 Y113.145 E64.44439
G1 X112.45 Y112.903 E64.47124
G1 X112.758 Y112.61 E64.49952
G1 X113.024 Y112.294 E64.52699
G1 X113.252 Y111.96 E64.5539
G1 X113.454 Y111.584 E64.58229
G1 X113.598 Y111.216 E64.60857
G1 X113.708 Y110.82 E64.63591
G1 X113.776 Y110.409 E64.66363
G1 X113.799 Y110 E64.69088
G1 X113.776 Y109.59 E64.71819
G1 X113.708 Y109.176 E64.7461
G1 X113.598 Y108.78 E64.77344
G1 X113.454 Y108.413 E64.79966
G1 X113.248 Y108.032 E64.82848
G1 X113.024 Y107.702 E64.85501
G1 X112.758 Y107.39 E64.88228
G1 X112.449 Y107.097 E64.91061
G1 X112.123 Y106.846 E64.93798
G1 X111.786 Y106.646 E64.96404
G1 X111.397 Y106.467 E64.99253
G1 X111.018 Y106.338 E65.01916
G1 X110.615 Y106.25 E65.0466
G1 X110.204 Y106.205 E65.0741
G1 X109.792 Y106.204 E65.10151
G1 X109.385 Y106.25 E65.12875
G1 X108.978 Y106.337 E65.15644
G1 X108.603 Y106.466 E65.18282
G1 X108.21 Y106.646 E65.21157
G1 X107.877 Y106.846 E65.23741
G1 X107.546 Y107.097 E65.26505
G1 X107.238 Y107.39 E65.29332
G1 X106.972 Y107.702 E65.3206
G1 X106.748 Y108.032 E65.34713
G1 X106.546 Y108.413 E65.37581
G1 X106.398 Y108.781 E65.4022
G1 X106.288 Y109.175 E65.42941
G1 X106.224 Y109.59 E65.45734
G1 X106.201 Y110 E65.48466
G1 X106.224 Y110.41 E65.51198
G1 X106.288 Y110.821 E65.53964
G1 X106.398 Y111.215 E65.56686
G1 X106.546 Y111.583 E65.59324
G1 X106.748 Y111.96 E65.62169
G1 X106.972 Y112.295 E65.6485
G1 X107.238 Y112.61 E65.67592
G1 X107.55 Y112.903 E65.7044
G1 X107.869 Y113.146 E65.73107
G1 X108.211 Y113.35 E65.75756
G1 X108.603 Y113.533 E65.78634
G1 X108.977 Y113.658 E65.81257
G1 X109.385 Y113.746 E65.84033
G1 X109.792 Y113.792 E65.86758
G1 X110 Y113.792 E65.88142
G1 F2700 E60.88142
G0 F12000 X110 Y113.484
G0 X109.999 Y111.819
G0 X110 Y111.506
G1 F2700 E65.88142
G1 F623.4 X109.204 Y111.505 E65.93437
G1 X109.085 Y111.431 E65.94369
G1 X108.298 Y110.061 E66.04879
G1 X108.292 Y109.932 E66.05738
G1 X109.085 Y108.565 E66.1625
G1 X109.204 Y108.491 E66.17183
G1 X110.796 Y108.495 E66.27773
G1 X110.904 Y108.556 E66.28598
G1 X111.705 Y109.934 E66.392
G1 X111.701 Y110.067 E66.40085
G1 X110.911 Y111.431 E66.50571
G1 X110.781 Y111.507 E66.51572
G1 X110 Y111.506 E66.56768
G0 F12000 X109.998 Y112.519
G1 F2700 E61.56768
;MESH:NONMESH
G0 F300 X109.998 Y112.519 Z2.2
G0 F12000 X109.998 Y111.739
G0 X110 Y110.837
;TIME_ELAPSED:128.095632
;LAYER:5
;note -- min layer time used
;TYPE:WALL-INNER
;MESH:turret_drive_bearing.obj
G1 F2700 E66.56768
G1 F600 X110.186 Y110.821 E66.5801
G1 X110.421 Y110.732 E66.59681
G1 X110.623 Y110.57 E66.61404
G1 X110.763 Y110.361 E66.63077
G1 X110.843 Y110.006 E66.65498
G1 X110.805 Y109.749 E66.67226
G1 X110.659 Y109.455 E66.69409
G1 X110.425 Y109.265 E66.71414
G1 X110.183 Y109.172 E66.73139
G1 X109.818 Y109.173 E66.75567
G1 X109.571 Y109.269 E66.7733
G1 X109.38 Y109.422 E66.78958
G1 X109.235 Y109.635 E66.80672
G1 X109.163 Y109.863 E66.82262
G1 X109.165 Y110.135 E66.84072
G1 X109.233 Y110.358 E66.85622
G1 X109.383 Y110.578 E66.87394
G1 X109.576 Y110.732 E66.89036
G1 X109.87 Y110.848 E66.91139
G1 X110 Y110.837 E66.92006
G0 F12000 X110 Y111.235
G1 F600 X110.274 Y111.213 E66.93835
G1 X110.624 Y111.078 E66.9633
G1 X110.917 Y110.844 E66.98825
G1 X111.124 Y110.536 E67.01293
G1 X111.231 Y110.185 E67.03734
G1 X111.229 Y109.811 E67.06222
G1 X111.122 Y109.463 E67.08644
G1 X110.905 Y109.143 E67.11216
G1 X110.626 Y108.917 E67.13604
G1 X110.27 Y108.78 E67.16142
G1 X109.811 Y108.75 E67.19201
G1 X109.37 Y108.921 E67.22348
G1 X109.085 Y109.15 E67.2478
G1 X108.875 Y109.46 E67.27271
G1 X108.766 Y109.805 E67.29677
G1 X108.77 Y110.295 E67.32937
G1 X108.972 Y110.703 E67.35965
G1 X109.22 Y110.973 E67.38404
G1 X109.375 Y111.079 E67.39653
G1 X109.729 Y111.218 E67.42183
G1 X109.896 Y111.243 E67.43306
G1 X110 Y111.235 E67.44
G0 F12000 X110 Y111.641
G1 F600 X110.245 Y111.638 E67.4563
G1 X110.606 Y111.531 E67.48135
G1 X110.922 Y111.378 E67.5047
G1 X111.287 Y111.048 E67.53743
G1 X111.485 Y110.71 E67.56349
G1 X111.628 Y110.245 E67.59585
G1 X111.646 Y110 E67.61219
G1 X111.557 Y109.416 E67.65149
G1 X111.289 Y108.956 E67.6869
G1 X111.022 Y108.705 E67.71128
G1 X110.605 Y108.465 E67.74329
G1 X110.259 Y108.358 E67.76738
G1 X109.753 Y108.355 E67.80104
G1 X109.244 Y108.514 E67.83651
G1 X108.719 Y108.934 E67.88123
G1 X108.453 Y109.388 E67.91624
G1 X108.344 Y109.853 E67.94801
G1 X108.372 Y110.25 E67.97448
G1 X108.513 Y110.711 E68.00655
G1 X108.706 Y111.039 E68.03186
G1 X108.969 Y111.286 E68.05586
G1 X109.271 Y111.494 E68.08026
G1 X109.753 Y111.645 E68.11386
G1 X110 Y111.641 E68.13029
G0 F12000 X110 Y112.041
;TYPE:WALL-OUTER
G1 F600 X110.151 Y112.04 E68.14033
G1 X110.448 Y111.996 E68.16031
G1 X110.751 Y111.905 E68.18135
G1 X111.03 Y111.77 E68.20197
G1 X111.274 Y111.599 E68.22179
G1 X111.505 Y111.391 E68.24247
G1 X111.686 Y111.159 E68.26204
G1 X111.847 Y110.884 E68.28324
G1 X111.956 Y110.6 E68.30347
G1 X112.025 Y110.305 E68.32363
G1 X112.047 Y109.998 E68.3441
G1 X112.021 Y109.691 E68.36459
G1 X111.956 Y109.395 E68.38475
G1 X111.843 Y109.112 E68.40502
G1 X111.686 Y108.841 E68.42586
G1 X111.496 Y108.6 E68.44627
G1 X111.274 Y108.393 E68.46646
G1 X111.027 Y108.222 E68.48645
G1 X110.751 Y108.091 E68.50677
G1 X110.444 Y107.996 E68.52815
G1 X110.154 Y107.957 E68.54761
G1 X109.843 Y107.956 E68.5683
G1 X109.549 Y108 E68.58807
G1 X109.246 Y108.095 E68.6092
G1 X108.969 Y108.226 E68.62958
G1 X108.722 Y108.397 E68.64956
G1 X108.496 Y108.605 E68.67
G1 X108.31 Y108.841 E68.68998
G1 X108.153 Y109.108 E68.71059
G1 X108.04 Y109.396 E68.73117
G1 X107.971 Y109.689 E68.75119
G1 X107.953 Y109.994 E68.77152
G1 X107.975 Y110.307 E68.79239
G1 X108.04 Y110.605 E68.81268
G1 X108.153 Y110.887 E68.83289
G1 X108.31 Y111.155 E68.85355
G1 X108.496 Y111.392 E68.87359
G1 X108.718 Y111.599 E68.89378
G1 X108.973 Y111.774 E68.91435
G1 X109.246 Y111.905 E68.93449
G1 X109.549 Y112 E68.95562
G1 X109.842 Y112.043 E68.97532
G1 X110 Y112.041 E68.98583
G0 F12000 X110 Y111.733
G0 X110.021 Y110.736
G0 X110 Y110.471
;TYPE:SKIN
G1 F600 X109.956 Y110.481 E68.98883
G1 X109.752 Y110.413 E69.00313
G1 X109.56 Y110.202 E69.02211
G1 X109.521 Y109.914 E69.04144
G1 X109.645 Y109.666 E69.05989
G1 X109.889 Y109.528 E69.07853
G1 X110.107 Y109.529 E69.09304
G1 X110.338 Y109.657 E69.1106
G1 X110.456 Y109.855 E69.12594
G1 X110.473 Y110.077 E69.14075
G1 X110.354 Y110.323 E69.15892
G1 X110.235 Y110.419 E69.1691
G1 X110 Y110.471 E69.18511
G0 F12000 X110.213 Y109.838
G1 F600 X109.834 Y110.217 E69.22076
G0 F12000 X109.356 Y110.812
;MESH:NONMESH
G0 F300 X109.356 Y110.812 Z2.6
G0 F12000 X110 Y110.84
;TIME_ELAPSED:132.838828
;LAYER:6
;note -- min layer time used
;TYPE:WALL-INNER
;MESH:turret_drive_bearing.obj
G1 F603 X110.064 Y110.844 E69.225
G1 F600 X110.312 Y110.785 E69.24196
G1 X110.519 Y110.666 E69.25784
G1 X110.693 Y110.478 E69.27488
G1 X110.807 Y110.242 E69.29232
G1 X110.844 Y109.999 E69.30867
G1 X110.808 Y109.754 E69.32514
G1 X110.67 Y109.464 E69.34651
G1 X110.425 Y109.269 E69.36734
G1 X110.178 Y109.173 E69.38496
G1 X109.932 Y109.156 E69.40137
G1 X109.619 Y109.23 E69.42276
G1 X109.38 Y109.422 E69.44315
G1 X109.2 Y109.688 E69.46452
G1 X109.153 Y109.999 E69.48544
G1 X109.191 Y110.249 E69.50226
G1 X109.334 Y110.538 E69.52371
G1 X109.571 Y110.731 E69.54404
G1 X109.818 Y110.827 E69.56167
G1 F603 X110 Y110.84 E69.57375
G0 F12000 X110 Y111.237
G1 F600 X110.094 Y111.244 E69.58002
G1 X110.267 Y111.218 E69.59166
G1 X110.626 Y111.078 E69.61729
G1 X110.77 Y110.979 E69.62891
G1 X111.025 Y110.704 E69.65386
G1 X111.19 Y110.361 E69.67918
G1 X111.232 Y110.185 E69.69121
G1 X111.232 Y109.811 E69.71609
G1 X111.12 Y109.455 E69.74092
G1 X110.915 Y109.153 E69.7652
G1 X110.626 Y108.922 E69.78981
G1 X110.267 Y108.782 E69.81544
G1 X109.902 Y108.756 E69.83978
G1 X109.729 Y108.782 E69.85142
G1 X109.37 Y108.921 E69.87703
G1 X109.085 Y109.15 E69.90135
G1 X108.874 Y109.46 E69.92629
G1 X108.808 Y109.63 E69.93843
G1 X108.752 Y109.999 E69.96325
G1 X108.808 Y110.366 E69.98795
G1 X108.874 Y110.536 E70.00008
G1 X109.088 Y110.85 E70.02536
G1 X109.37 Y111.078 E70.04948
G1 X109.729 Y111.218 E70.07511
G1 X110 Y111.237 E70.09318
G0 F12000 X110 Y111.635
G1 F600 X110.223 Y111.651 E70.10805
G1 X110.735 Y111.49 E70.14376
G1 X111.022 Y111.291 E70.16699
G1 X111.298 Y111.032 E70.19217
G1 X111.48 Y110.715 E70.21648
G1 X111.619 Y110.363 E70.24166
G1 X111.646 Y109.999 E70.26594
G1 X111.619 Y109.633 E70.29035
G1 X111.481 Y109.281 E70.3155
G1 X111.208 Y108.879 E70.34782
G1 X110.754 Y108.516 E70.38649
G1 X110.357 Y108.391 E70.41418
G1 X109.774 Y108.349 E70.45306
G1 X109.244 Y108.514 E70.48998
G1 X108.719 Y108.934 E70.53471
G1 X108.439 Y109.412 E70.57156
G1 X108.35 Y109.999 E70.61105
G1 X108.439 Y110.585 E70.65048
G1 X108.71 Y111.045 E70.68599
G1 X108.974 Y111.291 E70.71
G1 X109.261 Y111.49 E70.73323
G1 X109.639 Y111.609 E70.75959
G1 X110 Y111.635 E70.78367
G0 F12000 X110 Y112.044
;TYPE:WALL-OUTER
G1 F600 X110.153 Y112.044 E70.79384
G1 X110.447 Y112 E70.81362
G1 X110.75 Y111.905 E70.83474
G1 X111.027 Y111.774 E70.85512
G1 X111.274 Y111.603 E70.87511
G1 X111.5 Y111.391 E70.89572
G1 X111.689 Y111.155 E70.91583
G1 X111.842 Y110.889 E70.93625
G1 X111.956 Y110.6 E70.95691
G1 X112.025 Y110.305 E70.97706
G1 X112.047 Y109.999 E70.99747
G1 X112.025 Y109.691 E71.01801
G1 X111.956 Y109.396 E71.03817
G1 X111.843 Y109.107 E71.05881
G1 X111.69 Y108.841 E71.07922
G1 X111.501 Y108.605 E71.09933
G1 X111.274 Y108.397 E71.11981
G1 X111.027 Y108.226 E71.1398
G1 X110.75 Y108.095 E71.16018
G1 X110.447 Y108 E71.1813
G1 X110.153 Y107.956 E71.20108
G1 X109.843 Y107.956 E71.2217
G1 X109.549 Y108 E71.24147
G1 X109.246 Y108.095 E71.2626
G1 X108.969 Y108.226 E71.28298
G1 X108.722 Y108.397 E71.30296
G1 X108.496 Y108.605 E71.3234
G1 X108.31 Y108.841 E71.34338
G1 X108.153 Y109.108 E71.36399
G1 X108.04 Y109.395 E71.38451
G1 X107.975 Y109.691 E71.40466
G1 X107.949 Y109.999 E71.42523
G1 X107.975 Y110.305 E71.44565
G1 X108.04 Y110.601 E71.46581
G1 X108.153 Y110.888 E71.48633
G1 X108.31 Y111.155 E71.50694
G1 X108.496 Y111.392 E71.52698
G1 X108.722 Y111.603 E71.54754
G1 X108.969 Y111.774 E71.56753
G1 X109.246 Y111.905 E71.58791
G1 X109.549 Y112 E71.60903
G1 X109.843 Y112.044 E71.62881
G1 X110 Y112.044 E71.63925
G0 F12000 X110 Y111.734
G0 X111.029 Y110.17
G0 X110.659 Y109.715
G0 X110.065 Y109.999
;TYPE:SKIN
G1 F470.6 X110.034 Y110.054 E71.64461
G1 X109.971 Y110.054 E71.64995
G1 X109.939 Y109.999 E71.65535
G1 X109.97 Y109.944 E71.6607
G1 X110.033 Y109.944 E71.66604
G1 X110.065 Y109.999 E71.67144
G0 F12000 X110 Y110.462
G1 F600 X109.895 Y110.47 E71.67845
G1 X109.754 Y110.416 E71.68849
G1 X109.564 Y110.206 E71.70733
G1 X109.516 Y109.993 E71.72185
G1 X109.537 Y109.86 E71.73081
G1 X109.651 Y109.661 E71.74606
G1 X109.891 Y109.526 E71.76438
G1 X110.031 Y109.518 E71.77371
G1 X110.244 Y109.584 E71.78854
G1 X110.343 Y109.664 E71.79701
G1 X110.476 Y109.938 E71.81727
G1 X110.476 Y110.06 E71.82539
G1 X110.388 Y110.275 E71.84084
G1 X110.18 Y110.447 E71.85879
G1 X110 Y110.462 E71.87081
G0 F12000 X109.96 Y111.034
;MESH:NONMESH
G0 F300 X109.96 Y111.034 Z3
G0 F12000 X110 Y110.84
;TIME_ELAPSED:137.436465
;LAYER:7
;note -- min layer time used
;TYPE:WALL-INNER
;MESH:turret_drive_bearing.obj
G1 F603 X110.064 Y110.844 E71.87505
G1 F600 X110.312 Y110.785 E71.89201
G1 X110.519 Y110.666 E71.90789
G1 X110.693 Y110.478 E71.92493
G1 X110.807 Y110.242 E71.94237
G1 X110.844 Y109.999 E71.95872
G1 X110.808 Y109.754 E71.97519
G1 X110.67 Y109.464 E71.99655
G1 X110.425 Y109.269 E72.01738
G1 X110.178 Y109.173 E72.03501
G1 X109.932 Y109.156 E72.05141
G1 X109.619 Y109.23 E72.07281
G1 X109.38 Y109.422 E72.0932
G1 X109.2 Y109.688 E72.11457
G1 X109.153 Y109.999 E72.13549
G1 X109.191 Y110.249 E72.15231
G1 X109.334 Y110.538 E72.17376
G1 X109.571 Y110.731 E72.19409
G1 X109.818 Y110.827 E72.21172
G1 F603 X110 Y110.84 E72.2238
G0 F12000 X110 Y111.237
G1 F600 X110.094 Y111.244 E72.23007
G1 X110.267 Y111.218 E72.2417
G1 X110.626 Y111.078 E72.26734
G1 X110.77 Y110.979 E72.27896
G1 X111.025 Y110.704 E72.30391
G1 X111.19 Y110.361 E72.32923
G1 X111.232 Y110.185 E72.34126
G1 X111.232 Y109.811 E72.36614
G1 X111.12 Y109.455 E72.39097
G1 X110.915 Y109.153 E72.41525
G1 X110.626 Y108.922 E72.43986
G1 X110.267 Y108.782 E72.46549
G1 X109.902 Y108.756 E72.48983
G1 X109.729 Y108.782 E72.50147
G1 X109.37 Y108.921 E72.52708
G1 X109.085 Y109.15 E72.5514
G1 X108.874 Y109.46 E72.57634
G1 X108.808 Y109.63 E72.58847
G1 X108.752 Y109.999 E72.6133
G1 X108.808 Y110.366 E72.638
G1 X108.874 Y110.536 E72.65013
G1 X109.088 Y110.85 E72.6754
G1 X109.37 Y111.078 E72.69953
G1 X109.729 Y111.218 E72.72516
G1 X110 Y111.237 E72.74323
G0 F12000 X110 Y111.635
G1 F600 X110.223 Y111.651 E72.7581
G1 X110.735 Y111.49 E72.79381
G1 X111.022 Y111.291 E72.81704
G1 X111.298 Y111.032 E72.84221
G1 X111.48 Y110.715 E72.86653
G1 X111.619 Y110.363 E72.8917
G1 X111.646 Y109.999 E72.91598
G1 X111.619 Y109.633 E72.9404
G1 X111.481 Y109.281 E72.96555
G1 X111.208 Y108.879 E72.99787
G1 X110.754 Y108.516 E73.03654
G1 X110.357 Y108.391 E73.06423
G1 X109.774 Y108.349 E73.10311
G1 X109.244 Y108.514 E73.14003
G1 X108.719 Y108.934 E73.18476
G1 X108.439 Y109.412 E73.22161
G1 X108.35 Y109.999 E73.2611
G1 X108.439 Y110.585 E73.30053
G1 X108.71 Y111.045 E73.33604
G1 X108.974 Y111.291 E73.36005
G1 X109.261 Y111.49 E73.38328
G1 X109.639 Y111.609 E73.40964
G1 X110 Y111.635 E73.43371
G0 F12000 X110 Y112.044
;TYPE:WALL-OUTER
G1 F600 X110.153 Y112.044 E73.44389
G1 X110.447 Y112 E73.46367
G1 X110.75 Y111.905 E73.48479
G1 X111.027 Y111.774 E73.50517
G1 X111.274 Y111.603 E73.52516
G1 X111.5 Y111.391 E73.54577
G1 X111.689 Y111.155 E73.56588
G1 X111.842 Y110.889 E73.58629
G1 X111.956 Y110.6 E73.60696
G1 X112.025 Y110.305 E73.62711
G1 X112.047 Y109.999 E73.64752
G1 X112.025 Y109.691 E73.66806
G1 X111.956 Y109.396 E73.68821
G1 X111.843 Y109.107 E73.70886
G1 X111.69 Y108.841 E73.72927
G1 X111.501 Y108.605 E73.74938
G1 X111.274 Y108.397 E73.76986
G1 X111.027 Y108.226 E73.78985
G1 X110.75 Y108.095 E73.81023
G1 X110.447 Y108 E73.83135
G1 X110.153 Y107.956 E73.85113
G1 X109.843 Y107.956 E73.87175
G1 X109.549 Y108 E73.89152
G1 X109.246 Y108.095 E73.91265
G1 X108.969 Y108.226 E73.93303
G1 X108.722 Y108.397 E73.95301
G1 X108.496 Y108.605 E73.97344
G1 X108.31 Y108.841 E73.99343
G1 X108.153 Y109.108 E74.01404
G1 X108.04 Y109.395 E74.03455
G1 X107.975 Y109.691 E74.05471
G1 X107.949 Y109.999 E74.07527
G1 X107.975 Y110.305 E74.0957
G1 X108.04 Y110.601 E74.11586
G1 X108.153 Y110.888 E74.13638
G1 X108.31 Y111.155 E74.15698
G1 X108.496 Y111.392 E74.17702
G1 X108.722 Y111.603 E74.19759
G1 X108.969 Y111.774 E74.21758
G1 X109.246 Y111.905 E74.23796
G1 X109.549 Y112 E74.25908
G1 X109.843 Y112.044 E74.27886
G1 X110 Y112.044 E74.2893
G0 F12000 X110 Y111.734
G0 X111.029 Y110.17
G0 X110.659 Y109.715
G0 X110.065 Y109.999
;TYPE:SKIN
G1 F470.6 X110.034 Y110.054 E74.29465
G1 X109.971 Y110.054 E74.3
G1 X109.939 Y109.999 E74.30539
G1 X109.97 Y109.944 E74.31075
G1 X110.033 Y109.944 E74.31609
G1 X110.065 Y109.999 E74.32149
G0 F12000 X110 Y110.462
G1 F600 X109.895 Y110.47 E74.32849
G1 X109.754 Y110.416 E74.33854
G1 X109.564 Y110.206 E74.35738
G1 X109.516 Y109.993 E74.3719
G1 X109.537 Y109.86 E74.38086
G1 X109.651 Y109.661 E74.39611
G1 X109.891 Y109.526 E74.41443
G1 X110.031 Y109.518 E74.42376
G1 X110.244 Y109.584 E74.43859
G1 X110.343 Y109.664 E74.44706
G1 X110.476 Y109.938 E74.46732
G1 X110.476 Y110.06 E74.47543
G1 X110.388 Y110.275 E74.49089
G1 X110.18 Y110.447 E74.50884
G1 X110 Y110.462 E74.52086
G0 F12000 X109.96 Y111.034
;MESH:NONMESH
G0 F300 X109.96 Y111.034 Z3.4
G0 F12000 X110 Y110.84
;TIME_ELAPSED:142.034101
;LAYER:8
;note -- min layer time used
;TYPE:WALL-INNER
;MESH:turret_drive_bearing.obj
G1 F603 X110.064 Y110.844 E74.5251
G1 F600 X110.312 Y110.785 E74.54206
G1 X110.519 Y110.666 E74.55794
G1 X110.693 Y110.478 E74.57498
G1 X110.807 Y110.242 E74.59242
G1 X110.844 Y109.999 E74.60877
G1 X110.808 Y109.754 E74.62524
G1 X110.67 Y109.464 E74.6466
G1 X110.425 Y109.269 E74.66743
G1 X110.178 Y109.173 E74.68506
G1 X109.932 Y109.156 E74.70146
G1 X109.619 Y109.23 E74.72286
G1 X109.38 Y109.422 E74.74325
G1 X109.2 Y109.688 E74.76462
G1 X109.153 Y109.999 E74.78554
G1 X109.191 Y110.249 E74.80236
G1 X109.334 Y110.538 E74.82381
G1 X109.571 Y110.731 E74.84414
G1 X109.818 Y110.827 E74.86177
G1 F603 X110 Y110.84 E74.87385
G0 F12000 X110 Y111.237
G1 F600 X110.094 Y111.244 E74.88012
G1 X110.267 Y111.218 E74.89175
G1 X110.626 Y111.078 E74.91738
G1 X110.77 Y110.979 E74.92901
G1 X111.025 Y110.704 E74.95396
G1 X111.19 Y110.361 E74.97928
G1 X111.232 Y110.185 E74.99131
G1 X111.232 Y109.811 E75.01619
G1 X111.12 Y109.455 E75.04102
G1 X110.915 Y109.153 E75.0653
G1 X110.626 Y108.922 E75.08991
G1 X110.267 Y108.782 E75.11554
G1 X109.902 Y108.756 E75.13988
G1 X109.729 Y108.782 E75.15152
G1 X109.37 Y108.921 E75.17713
G1 X109.085 Y109.15 E75.20145
G1 X108.874 Y109.46 E75.22639
G1 X108.808 Y109.63 E75.23852
G1 X108.752 Y109.999 E75.26335
G1 X108.808 Y110.366 E75.28804
G1 X108.874 Y110.536 E75.30018
G1 X109.088 Y110.85 E75.32545
G1 X109.37 Y111.078 E75.34958
G1 X109.729 Y111.218 E75.37521
G1 X110 Y111.237 E75.39328
G0 F12000 X110 Y111.635
G1 F600 X110.223 Y111.651 E75.40815
G1 X110.735 Y111.49 E75.44385
G1 X111.022 Y111.291 E75.46709
G1 X111.298 Y111.032 E75.49226
G1 X111.48 Y110.715 E75.51658
G1 X111.619 Y110.363 E75.54175
G1 X111.646 Y109.999 E75.56603
G1 X111.619 Y109.633 E75.59045
G1 X111.481 Y109.281 E75.6156
G1 X111.208 Y108.879 E75.64792
G1 X110.754 Y108.516 E75.68659
G1 X110.357 Y108.391 E75.71427
G1 X109.774 Y108.349 E75.75316
G1 X109.244 Y108.514 E75.79008
G1 X108.719 Y108.934 E75.8348
G1 X108.439 Y109.412 E75.87165
G1 X108.35 Y109.999 E75.91115
G1 X108.439 Y110.585 E75.95058
G1 X108.71 Y111.045 E75.98609
G1 X108.974 Y111.291 E76.01009
G1 X109.261 Y111.49 E76.03333
G1 X109.639 Y111.609 E76.05969
G1 X110 Y111.635 E76.08376
G0 F12000 X110 Y112.044
;TYPE:WALL-OUTER
G1 F600 X110.153 Y112.044 E76.09394
G1 X110.447 Y112 E76.11372
G1 X110.75 Y111.905 E76.13484
G1 X111.027 Y111.774 E76.15522
G1 X111.274 Y111.603 E76.1752
G1 X111.5 Y111.391 E76.19582
G1 X111.689 Y111.155 E76.21593
G1 X111.842 Y110.889 E76.23634
G1 X111.956 Y110.6 E76.25701
G1 X112.025 Y110.305 E76.27716
G1 X112.047 Y109.999 E76.29757
G1 X112.025 Y109.691 E76.31811
G1 X111.956 Y109.396 E76.33826
G1 X111.843 Y109.107 E76.3589
G1 X111.69 Y108.841 E76.37932
G1 X111.501 Y108.605 E76.39943
G1 X111.274 Y108.397 E76.41991
G1 X111.027 Y108.226 E76.43989
G1 X110.75 Y108.095 E76.46028
G1 X110.447 Y108 E76.4814
G1 X110.153 Y107.956 E76.50118
G1 X109.843 Y107.956 E76.5218
G1 X109.549 Y108 E76.54157
G1 X109.246 Y108.095 E76.56269
G1 X108.969 Y108.226 E76.58308
G1 X108.722 Y108.397 E76.60306
G1 X108.496 Y108.605 E76.62349
G1 X108.31 Y108.841 E76.64348
G1 X108.153 Y109.108 E76.66408
G1 X108.04 Y109.395 E76.6846
G1 X107.975 Y109.691 E76.70476
G1 X107.949 Y109.999 E76.72532
G1 X107.975 Y110.305 E76.74575
G1 X108.04 Y110.601 E76.76591
G1 X108.153 Y110.888 E76.78643
G1 X108.31 Y111.155 E76.80703
G1 X108.496 Y111.392 E76.82707
G1 X108.722 Y111.603 E76.84764
G1 X108.969 Y111.774 E76.86762
G1 X109.246 Y111.905 E76.88801
G1 X109.549 Y112 E76.90913
G1 X109.843 Y112.044 E76.9289
G1 X110 Y112.044 E76.93935
G0 F12000 X110 Y111.734
G0 X109.981 Y110.739
G0 X110 Y110.462
;TYPE:SKIN
G1 F600 X109.895 Y110.47 E76.94635
G1 X109.754 Y110.416 E76.9564
G1 X109.564 Y110.206 E76.97524
G1 X109.516 Y109.993 E76.98976
G1 X109.537 Y109.86 E76.99872
G1 X109.651 Y109.661 E77.01397
G1 X109.891 Y109.526 E77.03229
G1 X110.031 Y109.518 E77.04162
G1 X110.244 Y109.584 E77.05645
G1 X110.343 Y109.664 E77.06492
G1 X110.476 Y109.938 E77.08518
G1 X110.476 Y110.06 E77.09329
G1 X110.388 Y110.275 E77.10875
G1 X110.18 Y110.447 E77.1267
G1 X110 Y110.462 E77.13872
G0 F12000 X109.802 Y109.802
G1 F600 X110.189 Y110.189 E77.17512
G0 F12000 X110.754 Y110.71
;TIME_ELAPSED:146.415802
G1 F2700 E72.17512
M140 S0
M107
G91 ;Relative positioning
G1 E-2 F2700 ;Retract a bit
G1 E-2 Z0.2 F2400 ;Retract and raise Z
G1 X5 Y5 F3000 ;Wipe out
G1 Z10 ;Raise Z more
G90 ;Absolute positioning

G28 X0 Y0 ;Present print
M106 S0 ;Turn-off fan
M104 S0 ;Turn-off hotend
M140 S0 ;Turn-off bed

M84 X Y E ;Disable all steppers but Z

M82 ;absolute extrusion mode
M104 S0
;End of Gcode
;SETTING_3 {"global_quality": "[general]\\nversion = 4\\nname = PLA - brim\\ndef
;SETTING_3 inition = creality_ender5\\n\\n[metadata]\\ntype = quality_changes\\n
;SETTING_3 quality_type = standard\\nsetting_version = 25\\n\\n[values]\\nadhesi
;SETTING_3 on_type = brim\\nlayer_height = 0.4\\nmaterial_bed_temperature = 50\\
;SETTING_3 nmaterial_bed_temperature_layer_0 = 55\\n\\n", "extruder_quality": ["
;SETTING_3 [general]\\nversion = 4\\nname = PLA - brim\\ndefinition = creality_e
;SETTING_3 nder5\\n\\n[metadata]\\ntype = quality_changes\\nquality_type = stand
;SETTING_3 ard\\nintent_category = default\\nposition = 0\\nsetting_version = 25
;SETTING_3 \\n\\n[values]\\ninfill_sparse_density = 30\\nmaterial_print_temperat
;SETTING_3 ure_layer_0 = 205\\nraft_margin = 5\\n\\n"]}
